<?xml version="1.0" encoding="UTF-8"?>
<gpx creator="StravaGPX" version="1.1" xmlns="http://www.topografix.com/GPX/1/1" xmlns:xsi="http://www.w3.org/2001/XMLSchema-instance" xsi:schemaLocation="http://www.topografix.com/GPX/1/1 http://www.topografix.com/GPX/1/1/gpx.xsd">
 <metadata>
  <name>tims-boreas-pass-road</name>
  <author>
   <name>Timothy Belliveau &amp; Lily</name>
   <link href="https://www.strava.com/athletes/48078590"/>
  </author>
  <copyright author="OpenStreetMap contributors">
   <year>2020</year>
   <license>https://www.openstreetmap.org/copyright</license>
  </copyright>
  <link href="https://www.strava.com/routes/3543026750773494788"/>
 </metadata>
 <trk>
  <name>tims-boreas-pass-road</name>
  <link href="https://www.strava.com/routes/3543026750773494788"/>
  <type>running</type>
  <trkseg>
   <trkpt lat="39.472640000000006" lon="-106.03822000000001">
    <ele>2959.55</ele>
   </trkpt>
   <trkpt lat="39.472820000000006" lon="-106.03808000000001">
    <ele>2959.69</ele>
   </trkpt>
   <trkpt lat="39.47272" lon="-106.03785">
    <ele>2961.0800000000004</ele>
   </trkpt>
   <trkpt lat="39.4729" lon="-106.03766">
    <ele>2961.2700000000004</ele>
   </trkpt>
   <trkpt lat="39.47242251247221" lon="-106.036674979735">
    <ele>2965.61</ele>
   </trkpt>
   <trkpt lat="39.471945016634486" lon="-106.03568997299057">
    <ele>2970.2400000000002</ele>
   </trkpt>
   <trkpt lat="39.47146751248711" lon="-106.03470497976646">
    <ele>2973.03</ele>
   </trkpt>
   <trkpt lat="39.47099" lon="-106.03372">
    <ele>2977.2000000000003</ele>
   </trkpt>
   <trkpt lat="39.470685001900065" lon="-106.0330549970987">
    <ele>2979.3100000000004</ele>
   </trkpt>
   <trkpt lat="39.470380000000006" lon="-106.03239">
    <ele>2983.35</ele>
   </trkpt>
   <trkpt lat="39.47016" lon="-106.03203">
    <ele>2984.9300000000003</ele>
   </trkpt>
   <trkpt lat="39.469640000000005" lon="-106.03139">
    <ele>2988.69</ele>
   </trkpt>
   <trkpt lat="39.46932" lon="-106.03104">
    <ele>2990.2000000000003</ele>
   </trkpt>
   <trkpt lat="39.469150000000006" lon="-106.0309">
    <ele>2993.1</ele>
   </trkpt>
   <trkpt lat="39.46893" lon="-106.03082">
    <ele>2993.1</ele>
   </trkpt>
   <trkpt lat="39.46819" lon="-106.03072">
    <ele>2996.2700000000004</ele>
   </trkpt>
   <trkpt lat="39.46792000000001" lon="-106.0306">
    <ele>2998.73</ele>
   </trkpt>
   <trkpt lat="39.46772" lon="-106.03045">
    <ele>3000.17</ele>
   </trkpt>
   <trkpt lat="39.467530000000004" lon="-106.03015">
    <ele>3001.4900000000002</ele>
   </trkpt>
   <trkpt lat="39.46748" lon="-106.03001">
    <ele>3002.92</ele>
   </trkpt>
   <trkpt lat="39.46744" lon="-106.02979">
    <ele>3004.1900000000005</ele>
   </trkpt>
   <trkpt lat="39.46683" lon="-106.02979">
    <ele>3002.0200000000004</ele>
   </trkpt>
   <trkpt lat="39.46663" lon="-106.02982000000002">
    <ele>3003.1200000000003</ele>
   </trkpt>
   <trkpt lat="39.466680000000004" lon="-106.02951">
    <ele>3005.19</ele>
   </trkpt>
   <trkpt lat="39.46672" lon="-106.02942">
    <ele>3006.65</ele>
   </trkpt>
   <trkpt lat="39.46679" lon="-106.0293">
    <ele>3008.29</ele>
   </trkpt>
   <trkpt lat="39.4669" lon="-106.0292">
    <ele>3010.84</ele>
   </trkpt>
   <trkpt lat="39.46714" lon="-106.02907">
    <ele>3014.5600000000004</ele>
   </trkpt>
   <trkpt lat="39.467150000000004" lon="-106.02903">
    <ele>3014.5600000000004</ele>
   </trkpt>
   <trkpt lat="39.467090000000006" lon="-106.02902">
    <ele>3015.0400000000004</ele>
   </trkpt>
   <trkpt lat="39.466930000000005" lon="-106.02902">
    <ele>3016.78</ele>
   </trkpt>
   <trkpt lat="39.46683" lon="-106.02898">
    <ele>3017.5400000000004</ele>
   </trkpt>
   <trkpt lat="39.466820000000006" lon="-106.02894">
    <ele>3020.02</ele>
   </trkpt>
   <trkpt lat="39.46689000000001" lon="-106.02884">
    <ele>3020.8100000000004</ele>
   </trkpt>
   <trkpt lat="39.466770000000004" lon="-106.02862">
    <ele>3023.9200000000005</ele>
   </trkpt>
   <trkpt lat="39.46676" lon="-106.02848">
    <ele>3024.84</ele>
   </trkpt>
   <trkpt lat="39.466640000000005" lon="-106.02826">
    <ele>3027.3</ele>
   </trkpt>
   <trkpt lat="39.466620000000006" lon="-106.02817">
    <ele>3027.84</ele>
   </trkpt>
   <trkpt lat="39.46667" lon="-106.02813">
    <ele>3027.94</ele>
   </trkpt>
   <trkpt lat="39.466820000000006" lon="-106.02819000000001">
    <ele>3027.8300000000004</ele>
   </trkpt>
   <trkpt lat="39.46694" lon="-106.02817">
    <ele>3027.9300000000003</ele>
   </trkpt>
   <trkpt lat="39.46705" lon="-106.02817">
    <ele>3028.8500000000004</ele>
   </trkpt>
   <trkpt lat="39.46723" lon="-106.02839">
    <ele>3032.01</ele>
   </trkpt>
   <trkpt lat="39.46737" lon="-106.02844">
    <ele>3033.6200000000003</ele>
   </trkpt>
   <trkpt lat="39.46746" lon="-106.02835">
    <ele>3034.6200000000003</ele>
   </trkpt>
   <trkpt lat="39.467530000000004" lon="-106.02817">
    <ele>3036.07</ele>
   </trkpt>
   <trkpt lat="39.46752" lon="-106.02808">
    <ele>3037.17</ele>
   </trkpt>
   <trkpt lat="39.46716" lon="-106.02769">
    <ele>3043.55</ele>
   </trkpt>
   <trkpt lat="39.46714" lon="-106.02764">
    <ele>3044.17</ele>
   </trkpt>
   <trkpt lat="39.46748" lon="-106.02764">
    <ele>3049.76</ele>
   </trkpt>
   <trkpt lat="39.467490000000005" lon="-106.02759">
    <ele>3049.76</ele>
   </trkpt>
   <trkpt lat="39.46705" lon="-106.02693000000001">
    <ele>3057.86</ele>
   </trkpt>
   <trkpt lat="39.46699" lon="-106.02689000000001">
    <ele>3058.61</ele>
   </trkpt>
   <trkpt lat="39.46681" lon="-106.02692">
    <ele>3060.3</ele>
   </trkpt>
   <trkpt lat="39.46658" lon="-106.02706">
    <ele>3062.4100000000003</ele>
   </trkpt>
   <trkpt lat="39.46611" lon="-106.0271">
    <ele>3067.06</ele>
   </trkpt>
   <trkpt lat="39.466080000000005" lon="-106.02705">
    <ele>3067.46</ele>
   </trkpt>
   <trkpt lat="39.46616" lon="-106.02696">
    <ele>3068.9300000000003</ele>
   </trkpt>
   <trkpt lat="39.466480000000004" lon="-106.02680000000001">
    <ele>3071.53</ele>
   </trkpt>
   <trkpt lat="39.466550000000005" lon="-106.02675">
    <ele>3073.6800000000003</ele>
   </trkpt>
   <trkpt lat="39.4666" lon="-106.02665">
    <ele>3074.91</ele>
   </trkpt>
   <trkpt lat="39.466590000000004" lon="-106.0266">
    <ele>3074.91</ele>
   </trkpt>
   <trkpt lat="39.466530000000006" lon="-106.0266">
    <ele>3075.7700000000004</ele>
   </trkpt>
   <trkpt lat="39.46636" lon="-106.02665">
    <ele>3077.07</ele>
   </trkpt>
   <trkpt lat="39.46598" lon="-106.02656">
    <ele>3081.25</ele>
   </trkpt>
   <trkpt lat="39.465920000000004" lon="-106.02647">
    <ele>3082.1800000000003</ele>
   </trkpt>
   <trkpt lat="39.465920000000004" lon="-106.02638">
    <ele>3082.8900000000003</ele>
   </trkpt>
   <trkpt lat="39.46607" lon="-106.02634">
    <ele>3083.69</ele>
   </trkpt>
   <trkpt lat="39.466190000000005" lon="-106.02634">
    <ele>3084.7000000000003</ele>
   </trkpt>
   <trkpt lat="39.46631" lon="-106.0263">
    <ele>3085.58</ele>
   </trkpt>
   <trkpt lat="39.46638" lon="-106.02625">
    <ele>3086.5600000000004</ele>
   </trkpt>
   <trkpt lat="39.466550000000005" lon="-106.02604000000001">
    <ele>3090.2400000000002</ele>
   </trkpt>
   <trkpt lat="39.466640000000005" lon="-106.02598">
    <ele>3091.2200000000003</ele>
   </trkpt>
   <trkpt lat="39.46667" lon="-106.02594">
    <ele>3091.51</ele>
   </trkpt>
   <trkpt lat="39.466530000000006" lon="-106.02590000000001">
    <ele>3092.1900000000005</ele>
   </trkpt>
   <trkpt lat="39.466190000000005" lon="-106.02589">
    <ele>3094.9700000000003</ele>
   </trkpt>
   <trkpt lat="39.46611" lon="-106.02584">
    <ele>3095.66</ele>
   </trkpt>
   <trkpt lat="39.46595000000001" lon="-106.02562">
    <ele>3098.86</ele>
   </trkpt>
   <trkpt lat="39.465900000000005" lon="-106.02548">
    <ele>3101.35</ele>
   </trkpt>
   <trkpt lat="39.46594" lon="-106.02544">
    <ele>3101.35</ele>
   </trkpt>
   <trkpt lat="39.46616" lon="-106.02550000000001">
    <ele>3104.65</ele>
   </trkpt>
   <trkpt lat="39.46643" lon="-106.02536">
    <ele>3107.66</ele>
   </trkpt>
   <trkpt lat="39.466590000000004" lon="-106.02519000000001">
    <ele>3108.7000000000003</ele>
   </trkpt>
   <trkpt lat="39.46665" lon="-106.02509">
    <ele>3110.2000000000003</ele>
   </trkpt>
   <trkpt lat="39.46669" lon="-106.02499">
    <ele>3110.2000000000003</ele>
   </trkpt>
   <trkpt lat="39.4667" lon="-106.02487">
    <ele>3110.7500000000005</ele>
   </trkpt>
   <trkpt lat="39.46669" lon="-106.02481">
    <ele>3110.7500000000005</ele>
   </trkpt>
   <trkpt lat="39.466640000000005" lon="-106.02472">
    <ele>3111.45</ele>
   </trkpt>
   <trkpt lat="39.46651000000001" lon="-106.02455">
    <ele>3113.44</ele>
   </trkpt>
   <trkpt lat="39.466440000000006" lon="-106.02454">
    <ele>3114.2400000000002</ele>
   </trkpt>
   <trkpt lat="39.466370000000005" lon="-106.02463">
    <ele>3114.77</ele>
   </trkpt>
   <trkpt lat="39.46627" lon="-106.02463">
    <ele>3115.19</ele>
   </trkpt>
   <trkpt lat="39.46618" lon="-106.02454">
    <ele>3115.8500000000004</ele>
   </trkpt>
   <trkpt lat="39.465970000000006" lon="-106.02423">
    <ele>3116.84</ele>
   </trkpt>
   <trkpt lat="39.46558" lon="-106.02383">
    <ele>3119.96</ele>
   </trkpt>
   <trkpt lat="39.46501000000001" lon="-106.02374">
    <ele>3125.38</ele>
   </trkpt>
   <trkpt lat="39.464830000000006" lon="-106.02356">
    <ele>3128.23</ele>
   </trkpt>
   <trkpt lat="39.464980000000004" lon="-106.02343">
    <ele>3130.61</ele>
   </trkpt>
   <trkpt lat="39.465050000000005" lon="-106.02302">
    <ele>3134.0200000000004</ele>
   </trkpt>
   <trkpt lat="39.464780000000005" lon="-106.02295000000001">
    <ele>3136.9200000000005</ele>
   </trkpt>
   <trkpt lat="39.464690000000004" lon="-106.0229">
    <ele>3137.7200000000003</ele>
   </trkpt>
   <trkpt lat="39.4645" lon="-106.02266">
    <ele>3137.29</ele>
   </trkpt>
   <trkpt lat="39.46437" lon="-106.0224">
    <ele>3135.27</ele>
   </trkpt>
   <trkpt lat="39.464310000000005" lon="-106.02217">
    <ele>3132.9500000000003</ele>
   </trkpt>
   <trkpt lat="39.46419" lon="-106.02210000000001">
    <ele>3132.3</ele>
   </trkpt>
   <trkpt lat="39.46407000000001" lon="-106.02217">
    <ele>3132.8500000000004</ele>
   </trkpt>
   <trkpt lat="39.46383" lon="-106.02248">
    <ele>3136.1200000000003</ele>
   </trkpt>
   <trkpt lat="39.46378" lon="-106.02257">
    <ele>3136.53</ele>
   </trkpt>
   <trkpt lat="39.463730000000005" lon="-106.02275">
    <ele>3137.2400000000002</ele>
   </trkpt>
   <trkpt lat="39.463680000000004" lon="-106.0228">
    <ele>3137.17</ele>
   </trkpt>
   <trkpt lat="39.463550000000005" lon="-106.0228">
    <ele>3137.2200000000003</ele>
   </trkpt>
   <trkpt lat="39.46336" lon="-106.02277000000001">
    <ele>3138.34</ele>
   </trkpt>
   <trkpt lat="39.463080000000005" lon="-106.02257">
    <ele>3139.25</ele>
   </trkpt>
   <trkpt lat="39.462720000000004" lon="-106.02241000000001">
    <ele>3143.73</ele>
   </trkpt>
   <trkpt lat="39.46257000000001" lon="-106.02241000000001">
    <ele>3144.6400000000003</ele>
   </trkpt>
   <trkpt lat="39.46237" lon="-106.02249">
    <ele>3145.8500000000004</ele>
   </trkpt>
   <trkpt lat="39.46224" lon="-106.02248">
    <ele>3147.24</ele>
   </trkpt>
   <trkpt lat="39.461870000000005" lon="-106.02268000000001">
    <ele>3151.92</ele>
   </trkpt>
   <trkpt lat="39.461800000000004" lon="-106.02263">
    <ele>3152.81</ele>
   </trkpt>
   <trkpt lat="39.4619" lon="-106.02219000000001">
    <ele>3155.94</ele>
   </trkpt>
   <trkpt lat="39.461960000000005" lon="-106.02208">
    <ele>3156.2900000000004</ele>
   </trkpt>
   <trkpt lat="39.46217" lon="-106.0219">
    <ele>3158.73</ele>
   </trkpt>
   <trkpt lat="39.4622" lon="-106.02182">
    <ele>3158.73</ele>
   </trkpt>
   <trkpt lat="39.46164" lon="-106.02204">
    <ele>3161.26</ele>
   </trkpt>
   <trkpt lat="39.461310000000005" lon="-106.02226">
    <ele>3163.01</ele>
   </trkpt>
   <trkpt lat="39.46078" lon="-106.02276">
    <ele>3164.9500000000003</ele>
   </trkpt>
   <trkpt lat="39.460640000000005" lon="-106.02311">
    <ele>3166.29</ele>
   </trkpt>
   <trkpt lat="39.46059" lon="-106.02351">
    <ele>3167.19</ele>
   </trkpt>
   <trkpt lat="39.460570000000004" lon="-106.02405">
    <ele>3169.2500000000005</ele>
   </trkpt>
   <trkpt lat="39.46052" lon="-106.02438000000001">
    <ele>3170.91</ele>
   </trkpt>
   <trkpt lat="39.4604" lon="-106.02464">
    <ele>3171.82</ele>
   </trkpt>
   <trkpt lat="39.459810000000004" lon="-106.02522">
    <ele>3171.7400000000002</ele>
   </trkpt>
   <trkpt lat="39.45964" lon="-106.02557">
    <ele>3173.68</ele>
   </trkpt>
   <trkpt lat="39.45946" lon="-106.02603">
    <ele>3175.5000000000005</ele>
   </trkpt>
   <trkpt lat="39.45931" lon="-106.0262">
    <ele>3176.3800000000006</ele>
   </trkpt>
   <trkpt lat="39.458980000000004" lon="-106.02633000000002">
    <ele>3177.5800000000004</ele>
   </trkpt>
   <trkpt lat="39.45875" lon="-106.02629">
    <ele>3177.5800000000004</ele>
   </trkpt>
   <trkpt lat="39.458510000000004" lon="-106.02617000000001">
    <ele>3178.9300000000003</ele>
   </trkpt>
   <trkpt lat="39.45834" lon="-106.02602">
    <ele>3179.46</ele>
   </trkpt>
   <trkpt lat="39.45794" lon="-106.0258">
    <ele>3180.6400000000003</ele>
   </trkpt>
   <trkpt lat="39.4577" lon="-106.02562">
    <ele>3181.51</ele>
   </trkpt>
   <trkpt lat="39.457550000000005" lon="-106.02541000000001">
    <ele>3182.6900000000005</ele>
   </trkpt>
   <trkpt lat="39.45738" lon="-106.02523000000001">
    <ele>3183.01</ele>
   </trkpt>
   <trkpt lat="39.45702" lon="-106.02513">
    <ele>3184.5000000000005</ele>
   </trkpt>
   <trkpt lat="39.45685" lon="-106.02499">
    <ele>3185.3700000000003</ele>
   </trkpt>
   <trkpt lat="39.45671" lon="-106.02481">
    <ele>3185.88</ele>
   </trkpt>
   <trkpt lat="39.45651" lon="-106.02468">
    <ele>3186.63</ele>
   </trkpt>
   <trkpt lat="39.4564" lon="-106.02433">
    <ele>3187.7500000000005</ele>
   </trkpt>
   <trkpt lat="39.45624" lon="-106.02398000000001">
    <ele>3188.3800000000006</ele>
   </trkpt>
   <trkpt lat="39.45609" lon="-106.02378">
    <ele>3189.1300000000006</ele>
   </trkpt>
   <trkpt lat="39.45591" lon="-106.0237">
    <ele>3189.57</ele>
   </trkpt>
   <trkpt lat="39.45552" lon="-106.02365">
    <ele>3191.15</ele>
   </trkpt>
   <trkpt lat="39.455310000000004" lon="-106.02351">
    <ele>3192.1800000000003</ele>
   </trkpt>
   <trkpt lat="39.45508" lon="-106.02325">
    <ele>3192.8300000000004</ele>
   </trkpt>
   <trkpt lat="39.454480000000004" lon="-106.02268000000001">
    <ele>3195.71</ele>
   </trkpt>
   <trkpt lat="39.45436" lon="-106.02244">
    <ele>3196.75</ele>
   </trkpt>
   <trkpt lat="39.45387" lon="-106.02172">
    <ele>3199.53</ele>
   </trkpt>
   <trkpt lat="39.453520000000005" lon="-106.02137">
    <ele>3202.2000000000003</ele>
   </trkpt>
   <trkpt lat="39.45311" lon="-106.02087">
    <ele>3203.9700000000003</ele>
   </trkpt>
   <trkpt lat="39.45302" lon="-106.02078">
    <ele>3203.9700000000003</ele>
   </trkpt>
   <trkpt lat="39.4528" lon="-106.02065">
    <ele>3205.07</ele>
   </trkpt>
   <trkpt lat="39.45257" lon="-106.02040000000001">
    <ele>3205.75</ele>
   </trkpt>
   <trkpt lat="39.452510000000004" lon="-106.0203">
    <ele>3206.1</ele>
   </trkpt>
   <trkpt lat="39.452420000000004" lon="-106.02007">
    <ele>3206.71</ele>
   </trkpt>
   <trkpt lat="39.45223" lon="-106.0194">
    <ele>3209.65</ele>
   </trkpt>
   <trkpt lat="39.451880001345685" lon="-106.01882499699454">
    <ele>3211.6900000000005</ele>
   </trkpt>
   <trkpt lat="39.451530000000005" lon="-106.01825000000001">
    <ele>3213.9300000000003</ele>
   </trkpt>
   <trkpt lat="39.451370000000004" lon="-106.01806">
    <ele>3214.8800000000006</ele>
   </trkpt>
   <trkpt lat="39.45127" lon="-106.01780000000001">
    <ele>3215.3600000000006</ele>
   </trkpt>
   <trkpt lat="39.451240000000006" lon="-106.01748">
    <ele>3217.62</ele>
   </trkpt>
   <trkpt lat="39.45128000195164" lon="-106.01680500037486">
    <ele>3218.8100000000004</ele>
   </trkpt>
   <trkpt lat="39.45132" lon="-106.01613">
    <ele>3221.0</ele>
   </trkpt>
   <trkpt lat="39.451350000000005" lon="-106.01523">
    <ele>3223.85</ele>
   </trkpt>
   <trkpt lat="39.45139" lon="-106.01502">
    <ele>3224.6200000000003</ele>
   </trkpt>
   <trkpt lat="39.451460000000004" lon="-106.01487">
    <ele>3225.69</ele>
   </trkpt>
   <trkpt lat="39.45172" lon="-106.01456">
    <ele>3226.78</ele>
   </trkpt>
   <trkpt lat="39.45197" lon="-106.01440000000001">
    <ele>3227.37</ele>
   </trkpt>
   <trkpt lat="39.45268" lon="-106.01416">
    <ele>3228.0400000000004</ele>
   </trkpt>
   <trkpt lat="39.45291" lon="-106.01407">
    <ele>3228.9700000000003</ele>
   </trkpt>
   <trkpt lat="39.453190000000006" lon="-106.01386000000001">
    <ele>3229.76</ele>
   </trkpt>
   <trkpt lat="39.453410000000005" lon="-106.01367">
    <ele>3230.2400000000002</ele>
   </trkpt>
   <trkpt lat="39.453520000000005" lon="-106.01350000000001">
    <ele>3230.2400000000002</ele>
   </trkpt>
   <trkpt lat="39.45362" lon="-106.01326">
    <ele>3231.4800000000005</ele>
   </trkpt>
   <trkpt lat="39.453680000000006" lon="-106.01301000000001">
    <ele>3232.59</ele>
   </trkpt>
   <trkpt lat="39.453700000000005" lon="-106.01277">
    <ele>3232.59</ele>
   </trkpt>
   <trkpt lat="39.45369" lon="-106.01241">
    <ele>3234.63</ele>
   </trkpt>
   <trkpt lat="39.453610000000005" lon="-106.01214">
    <ele>3235.53</ele>
   </trkpt>
   <trkpt lat="39.45349" lon="-106.01187">
    <ele>3236.06</ele>
   </trkpt>
   <trkpt lat="39.45336" lon="-106.0117">
    <ele>3236.3500000000004</ele>
   </trkpt>
   <trkpt lat="39.45304" lon="-106.01149000000001">
    <ele>3237.6600000000003</ele>
   </trkpt>
   <trkpt lat="39.45261" lon="-106.01134">
    <ele>3239.92</ele>
   </trkpt>
   <trkpt lat="39.452450000000006" lon="-106.01111">
    <ele>3240.4700000000003</ele>
   </trkpt>
   <trkpt lat="39.45226" lon="-106.01067">
    <ele>3241.21</ele>
   </trkpt>
   <trkpt lat="39.45215" lon="-106.01049">
    <ele>3241.89</ele>
   </trkpt>
   <trkpt lat="39.45185" lon="-106.01014">
    <ele>3243.44</ele>
   </trkpt>
   <trkpt lat="39.45176" lon="-106.00999">
    <ele>3244.4900000000002</ele>
   </trkpt>
   <trkpt lat="39.4517" lon="-106.00982">
    <ele>3244.4900000000002</ele>
   </trkpt>
   <trkpt lat="39.45167" lon="-106.00941">
    <ele>3245.59</ele>
   </trkpt>
   <trkpt lat="39.45176" lon="-106.00840000000001">
    <ele>3248.72</ele>
   </trkpt>
   <trkpt lat="39.451640000000005" lon="-106.00798">
    <ele>3249.67</ele>
   </trkpt>
   <trkpt lat="39.45154" lon="-106.00784">
    <ele>3250.07</ele>
   </trkpt>
   <trkpt lat="39.45136" lon="-106.00771">
    <ele>3250.42</ele>
   </trkpt>
   <trkpt lat="39.451150000000005" lon="-106.00762">
    <ele>3251.3600000000006</ele>
   </trkpt>
   <trkpt lat="39.4508" lon="-106.00755000000001">
    <ele>3252.2900000000004</ele>
   </trkpt>
   <trkpt lat="39.450590000000005" lon="-106.0074">
    <ele>3253.48</ele>
   </trkpt>
   <trkpt lat="39.45044" lon="-106.00722">
    <ele>3254.1000000000004</ele>
   </trkpt>
   <trkpt lat="39.45036" lon="-106.00704">
    <ele>3254.62</ele>
   </trkpt>
   <trkpt lat="39.450300000000006" lon="-106.00677">
    <ele>3255.13</ele>
   </trkpt>
   <trkpt lat="39.45031" lon="-106.00623">
    <ele>3256.2400000000002</ele>
   </trkpt>
   <trkpt lat="39.450250000000004" lon="-106.00596">
    <ele>3257.29</ele>
   </trkpt>
   <trkpt lat="39.45017" lon="-106.00567000000001">
    <ele>3258.2200000000003</ele>
   </trkpt>
   <trkpt lat="39.450030000000005" lon="-106.00543">
    <ele>3259.31</ele>
   </trkpt>
   <trkpt lat="39.449830000000006" lon="-106.0052">
    <ele>3259.6000000000004</ele>
   </trkpt>
   <trkpt lat="39.449380000000005" lon="-106.00502">
    <ele>3261.7400000000002</ele>
   </trkpt>
   <trkpt lat="39.44895" lon="-106.00464000000001">
    <ele>3263.67</ele>
   </trkpt>
   <trkpt lat="39.448780000000006" lon="-106.00467">
    <ele>3264.48</ele>
   </trkpt>
   <trkpt lat="39.44821" lon="-106.00485">
    <ele>3265.75</ele>
   </trkpt>
   <trkpt lat="39.44791" lon="-106.00499">
    <ele>3267.6300000000006</ele>
   </trkpt>
   <trkpt lat="39.44771" lon="-106.00516">
    <ele>3268.61</ele>
   </trkpt>
   <trkpt lat="39.447230000000005" lon="-106.00565">
    <ele>3270.5</ele>
   </trkpt>
   <trkpt lat="39.447070000000004" lon="-106.00574">
    <ele>3271.78</ele>
   </trkpt>
   <trkpt lat="39.44695" lon="-106.00575">
    <ele>3271.78</ele>
   </trkpt>
   <trkpt lat="39.446760000000005" lon="-106.00574">
    <ele>3272.31</ele>
   </trkpt>
   <trkpt lat="39.4465" lon="-106.00556">
    <ele>3273.4300000000003</ele>
   </trkpt>
   <trkpt lat="39.44639" lon="-106.00538">
    <ele>3274.02</ele>
   </trkpt>
   <trkpt lat="39.446310000000004" lon="-106.00516">
    <ele>3274.2500000000005</ele>
   </trkpt>
   <trkpt lat="39.44628" lon="-106.0048">
    <ele>3274.76</ele>
   </trkpt>
   <trkpt lat="39.4461" lon="-106.00368">
    <ele>3278.78</ele>
   </trkpt>
   <trkpt lat="39.44606" lon="-106.00329">
    <ele>3280.19</ele>
   </trkpt>
   <trkpt lat="39.446090000000005" lon="-106.00296">
    <ele>3280.65</ele>
   </trkpt>
   <trkpt lat="39.44623" lon="-106.00249000000001">
    <ele>3282.1000000000004</ele>
   </trkpt>
   <trkpt lat="39.44633" lon="-106.00207">
    <ele>3283.51</ele>
   </trkpt>
   <trkpt lat="39.446340000000006" lon="-106.00185">
    <ele>3284.21</ele>
   </trkpt>
   <trkpt lat="39.446310000000004" lon="-106.00158">
    <ele>3284.96</ele>
   </trkpt>
   <trkpt lat="39.446200000000005" lon="-106.00131">
    <ele>3285.4700000000003</ele>
   </trkpt>
   <trkpt lat="39.44608" lon="-106.00114">
    <ele>3286.0700000000006</ele>
   </trkpt>
   <trkpt lat="39.44592" lon="-106.00104">
    <ele>3286.5800000000004</ele>
   </trkpt>
   <trkpt lat="39.44552" lon="-106.00091">
    <ele>3288.19</ele>
   </trkpt>
   <trkpt lat="39.44538" lon="-106.00078">
    <ele>3288.67</ele>
   </trkpt>
   <trkpt lat="39.445240000000005" lon="-106.00056000000001">
    <ele>3289.03</ele>
   </trkpt>
   <trkpt lat="39.44509" lon="-106.00023">
    <ele>3289.7000000000003</ele>
   </trkpt>
   <trkpt lat="39.44494" lon="-106.00007000000001">
    <ele>3290.02</ele>
   </trkpt>
   <trkpt lat="39.44411" lon="-105.99997">
    <ele>3293.3200000000006</ele>
   </trkpt>
   <trkpt lat="39.44357999994375" lon="-105.99992499965204">
    <ele>3296.0800000000004</ele>
   </trkpt>
   <trkpt lat="39.44305000000001" lon="-105.99988">
    <ele>3298.48</ele>
   </trkpt>
   <trkpt lat="39.44261" lon="-105.99974">
    <ele>3300.4400000000005</ele>
   </trkpt>
   <trkpt lat="39.44241" lon="-105.99961">
    <ele>3300.8700000000003</ele>
   </trkpt>
   <trkpt lat="39.44229" lon="-105.99935">
    <ele>3302.03</ele>
   </trkpt>
   <trkpt lat="39.442190000000004" lon="-105.99907">
    <ele>3302.6400000000003</ele>
   </trkpt>
   <trkpt lat="39.4422" lon="-105.99873000000001">
    <ele>3303.77</ele>
   </trkpt>
   <trkpt lat="39.44229" lon="-105.99846000000001">
    <ele>3304.2300000000005</ele>
   </trkpt>
   <trkpt lat="39.442420000000006" lon="-105.99831">
    <ele>3304.8300000000004</ele>
   </trkpt>
   <trkpt lat="39.44256" lon="-105.99822">
    <ele>3305.0</ele>
   </trkpt>
   <trkpt lat="39.44301" lon="-105.998">
    <ele>3306.96</ele>
   </trkpt>
   <trkpt lat="39.44344" lon="-105.99783000000001">
    <ele>3309.3700000000003</ele>
   </trkpt>
   <trkpt lat="39.443580000000004" lon="-105.99769">
    <ele>3309.3700000000003</ele>
   </trkpt>
   <trkpt lat="39.4437" lon="-105.99746">
    <ele>3309.9500000000003</ele>
   </trkpt>
   <trkpt lat="39.44373" lon="-105.99692">
    <ele>3311.7400000000002</ele>
   </trkpt>
   <trkpt lat="39.44366" lon="-105.9967">
    <ele>3312.12</ele>
   </trkpt>
   <trkpt lat="39.44352000000001" lon="-105.99647">
    <ele>3313.1700000000005</ele>
   </trkpt>
   <trkpt lat="39.443340000000006" lon="-105.9963">
    <ele>3313.66</ele>
   </trkpt>
   <trkpt lat="39.44255500120722" lon="-105.99577999417185">
    <ele>3317.1700000000005</ele>
   </trkpt>
   <trkpt lat="39.441770000000005" lon="-105.99526">
    <ele>3321.75</ele>
   </trkpt>
   <trkpt lat="39.44093000152489" lon="-105.99491498751638">
    <ele>3323.82</ele>
   </trkpt>
   <trkpt lat="39.44009000203053" lon="-105.99456998335442">
    <ele>3328.7000000000003</ele>
   </trkpt>
   <trkpt lat="39.439250001516974" lon="-105.99422498751362">
    <ele>3332.8400000000006</ele>
   </trkpt>
   <trkpt lat="39.438410000000005" lon="-105.99388">
    <ele>3336.4900000000002</ele>
   </trkpt>
   <trkpt lat="39.43808000000001" lon="-105.99394000000001">
    <ele>3338.0600000000004</ele>
   </trkpt>
   <trkpt lat="39.43784" lon="-105.9941">
    <ele>3338.9400000000005</ele>
   </trkpt>
   <trkpt lat="39.43764" lon="-105.99434000000001">
    <ele>3339.6200000000003</ele>
   </trkpt>
   <trkpt lat="39.437430000000006" lon="-105.99478">
    <ele>3340.55</ele>
   </trkpt>
   <trkpt lat="39.437250000000006" lon="-105.99504">
    <ele>3341.9800000000005</ele>
   </trkpt>
   <trkpt lat="39.43703" lon="-105.99519000000001">
    <ele>3342.9</ele>
   </trkpt>
   <trkpt lat="39.436710000000005" lon="-105.99522">
    <ele>3343.5</ele>
   </trkpt>
   <trkpt lat="39.43639" lon="-105.99510000000001">
    <ele>3345.03</ele>
   </trkpt>
   <trkpt lat="39.436220000000006" lon="-105.99488000000001">
    <ele>3345.2300000000005</ele>
   </trkpt>
   <trkpt lat="39.436040000000006" lon="-105.9945">
    <ele>3346.01</ele>
   </trkpt>
   <trkpt lat="39.435790000000004" lon="-105.99361">
    <ele>3349.12</ele>
   </trkpt>
   <trkpt lat="39.43566500158945" lon="-105.99300499902283">
    <ele>3350.6700000000005</ele>
   </trkpt>
   <trkpt lat="39.43554" lon="-105.9924">
    <ele>3352.9500000000003</ele>
   </trkpt>
   <trkpt lat="39.43536" lon="-105.99173">
    <ele>3355.31</ele>
   </trkpt>
   <trkpt lat="39.435230000000004" lon="-105.99115">
    <ele>3357.2900000000004</ele>
   </trkpt>
   <trkpt lat="39.43513" lon="-105.99094000000001">
    <ele>3357.8300000000004</ele>
   </trkpt>
   <trkpt lat="39.43497" lon="-105.99074">
    <ele>3358.82</ele>
   </trkpt>
   <trkpt lat="39.4346" lon="-105.99056">
    <ele>3359.8700000000003</ele>
   </trkpt>
   <trkpt lat="39.43433" lon="-105.99066">
    <ele>3360.4</ele>
   </trkpt>
   <trkpt lat="39.43392" lon="-105.99116000000001">
    <ele>3362.63</ele>
   </trkpt>
   <trkpt lat="39.433640000000004" lon="-105.99146">
    <ele>3363.9100000000003</ele>
   </trkpt>
   <trkpt lat="39.43321" lon="-105.99159">
    <ele>3365.2000000000003</ele>
   </trkpt>
   <trkpt lat="39.43282000000001" lon="-105.99152000000001">
    <ele>3367.28</ele>
   </trkpt>
   <trkpt lat="39.43244" lon="-105.99137">
    <ele>3368.17</ele>
   </trkpt>
   <trkpt lat="39.43199000008072" lon="-105.99112499832167">
    <ele>3370.47</ele>
   </trkpt>
   <trkpt lat="39.431540000000005" lon="-105.99088">
    <ele>3373.03</ele>
   </trkpt>
   <trkpt lat="39.431110000000004" lon="-105.99053">
    <ele>3375.1000000000004</ele>
   </trkpt>
   <trkpt lat="39.43064500162036" lon="-105.98992499603186">
    <ele>3376.3</ele>
   </trkpt>
   <trkpt lat="39.43018" lon="-105.98932">
    <ele>3379.7900000000004</ele>
   </trkpt>
   <trkpt lat="39.429540002024524" lon="-105.98861999349052">
    <ele>3383.76</ele>
   </trkpt>
   <trkpt lat="39.428900000000006" lon="-105.98792">
    <ele>3386.7700000000004</ele>
   </trkpt>
   <trkpt lat="39.428470001205156" lon="-105.98738499667346">
    <ele>3390.29</ele>
   </trkpt>
   <trkpt lat="39.42804" lon="-105.98685">
    <ele>3391.8700000000003</ele>
   </trkpt>
   <trkpt lat="39.4277" lon="-105.98623">
    <ele>3393.84</ele>
   </trkpt>
   <trkpt lat="39.42759" lon="-105.98595">
    <ele>3395.2200000000003</ele>
   </trkpt>
   <trkpt lat="39.42752" lon="-105.98561000000001">
    <ele>3396.1200000000003</ele>
   </trkpt>
   <trkpt lat="39.42748" lon="-105.98529">
    <ele>3396.94</ele>
   </trkpt>
   <trkpt lat="39.42748" lon="-105.98501">
    <ele>3397.9</ele>
   </trkpt>
   <trkpt lat="39.42759000209936" lon="-105.98431500089791">
    <ele>3400.2200000000003</ele>
   </trkpt>
   <trkpt lat="39.4277" lon="-105.98362">
    <ele>3402.6600000000003</ele>
   </trkpt>
   <trkpt lat="39.42768" lon="-105.98344">
    <ele>3403.1300000000006</ele>
   </trkpt>
   <trkpt lat="39.42754" lon="-105.98305">
    <ele>3404.16</ele>
   </trkpt>
   <trkpt lat="39.42743" lon="-105.98283">
    <ele>3404.4</ele>
   </trkpt>
   <trkpt lat="39.42728" lon="-105.98273">
    <ele>3404.91</ele>
   </trkpt>
   <trkpt lat="39.427060000000004" lon="-105.98268">
    <ele>3405.9700000000003</ele>
   </trkpt>
   <trkpt lat="39.426680000000005" lon="-105.98268">
    <ele>3407.6000000000004</ele>
   </trkpt>
   <trkpt lat="39.42606000000001" lon="-105.98282">
    <ele>3409.82</ele>
   </trkpt>
   <trkpt lat="39.425700000000006" lon="-105.98282">
    <ele>3410.9700000000003</ele>
   </trkpt>
   <trkpt lat="39.42549" lon="-105.98278">
    <ele>3412.51</ele>
   </trkpt>
   <trkpt lat="39.425270000000005" lon="-105.98268">
    <ele>3412.51</ele>
   </trkpt>
   <trkpt lat="39.42512" lon="-105.9825">
    <ele>3413.45</ele>
   </trkpt>
   <trkpt lat="39.425000000000004" lon="-105.98228">
    <ele>3414.15</ele>
   </trkpt>
   <trkpt lat="39.42478000618423" lon="-105.98142999462671">
    <ele>3416.9900000000002</ele>
   </trkpt>
   <trkpt lat="39.42456000618244" lon="-105.98057999461984">
    <ele>3420.1</ele>
   </trkpt>
   <trkpt lat="39.42434" lon="-105.97973">
    <ele>3422.9500000000003</ele>
   </trkpt>
   <trkpt lat="39.424145002287624" lon="-105.97899999798109">
    <ele>3426.42</ele>
   </trkpt>
   <trkpt lat="39.423950000000005" lon="-105.97827000000001">
    <ele>3428.34</ele>
   </trkpt>
   <trkpt lat="39.423860000000005" lon="-105.97800000000001">
    <ele>3429.06</ele>
   </trkpt>
   <trkpt lat="39.42346000311393" lon="-105.9771449950597">
    <ele>3432.9</ele>
   </trkpt>
   <trkpt lat="39.42306000000001" lon="-105.97629">
    <ele>3435.42</ele>
   </trkpt>
   <trkpt lat="39.422626675286395" lon="-105.9752866541922">
    <ele>3438.67</ele>
   </trkpt>
   <trkpt lat="39.42219334195372" lon="-105.97428332086061">
    <ele>3442.3</ele>
   </trkpt>
   <trkpt lat="39.421760000000006" lon="-105.97328">
    <ele>3446.48</ele>
   </trkpt>
   <trkpt lat="39.421510000000005" lon="-105.97292">
    <ele>3447.96</ele>
   </trkpt>
   <trkpt lat="39.42132" lon="-105.97258000000001">
    <ele>3449.6200000000003</ele>
   </trkpt>
   <trkpt lat="39.420680000000004" lon="-105.97182000000001">
    <ele>3453.5600000000004</ele>
   </trkpt>
   <trkpt lat="39.420370000000005" lon="-105.97132">
    <ele>3455.07</ele>
   </trkpt>
   <trkpt lat="39.419920000000005" lon="-105.971">
    <ele>3457.07</ele>
   </trkpt>
   <trkpt lat="39.41973" lon="-105.97079000000001">
    <ele>3457.38</ele>
   </trkpt>
   <trkpt lat="39.41962" lon="-105.9706">
    <ele>3458.06</ele>
   </trkpt>
   <trkpt lat="39.41946" lon="-105.9702">
    <ele>3459.1800000000003</ele>
   </trkpt>
   <trkpt lat="39.41937" lon="-105.96992">
    <ele>3459.77</ele>
   </trkpt>
   <trkpt lat="39.419200000000004" lon="-105.96953">
    <ele>3460.9900000000002</ele>
   </trkpt>
   <trkpt lat="39.41886" lon="-105.96889">
    <ele>3463.82</ele>
   </trkpt>
   <trkpt lat="39.41859500116452" lon="-105.9683549978435">
    <ele>3466.7400000000002</ele>
   </trkpt>
   <trkpt lat="39.418330000000005" lon="-105.96782">
    <ele>3468.02</ele>
   </trkpt>
   <trkpt lat="39.41818000000001" lon="-105.96764">
    <ele>3468.53</ele>
   </trkpt>
   <trkpt lat="39.41796" lon="-105.96746">
    <ele>3469.7500000000005</ele>
   </trkpt>
   <trkpt lat="39.41776" lon="-105.96742">
    <ele>3470.34</ele>
   </trkpt>
   <trkpt lat="39.417550000000006" lon="-105.96742">
    <ele>3470.84</ele>
   </trkpt>
   <trkpt lat="39.41671" lon="-105.9676">
    <ele>3474.3500000000004</ele>
   </trkpt>
   <trkpt lat="39.41642" lon="-105.96769">
    <ele>3475.9100000000003</ele>
   </trkpt>
   <trkpt lat="39.41597500021981" lon="-105.96786500108217">
    <ele>3477.9600000000005</ele>
   </trkpt>
   <trkpt lat="39.415530000000004" lon="-105.96804">
    <ele>3479.38</ele>
   </trkpt>
   <trkpt lat="39.41501000073442" lon="-105.9684200027494">
    <ele>3481.6900000000005</ele>
   </trkpt>
   <trkpt lat="39.41449" lon="-105.9688">
    <ele>3484.0000000000005</ele>
   </trkpt>
   <trkpt lat="39.41377000000001" lon="-105.96907">
    <ele>3487.21</ele>
   </trkpt>
   <trkpt lat="39.41304" lon="-105.96948">
    <ele>3489.55</ele>
   </trkpt>
   <trkpt lat="39.412710000000004" lon="-105.96957">
    <ele>3491.0</ele>
   </trkpt>
   <trkpt lat="39.41241" lon="-105.96961">
    <ele>3492.7200000000003</ele>
   </trkpt>
   <trkpt lat="39.41208" lon="-105.96957">
    <ele>3494.1100000000006</ele>
   </trkpt>
   <trkpt lat="39.41172" lon="-105.96939">
    <ele>3496.01</ele>
   </trkpt>
   <trkpt lat="39.411190000000005" lon="-105.96898">
    <ele>3497.73</ele>
   </trkpt>
   <trkpt lat="39.410780000198635" lon="-105.96871499837587">
    <ele>3498.34</ele>
   </trkpt>
   <trkpt lat="39.41037" lon="-105.96845">
    <ele>3498.34</ele>
   </trkpt>
   <trkpt lat="39.41038" lon="-105.96845">
    <ele>3498.3500000000004</ele>
   </trkpt>
   <trkpt lat="39.410785000330534" lon="-105.96871499848037">
    <ele>3498.2900000000004</ele>
   </trkpt>
   <trkpt lat="39.411190000000005" lon="-105.96898">
    <ele>3497.4300000000003</ele>
   </trkpt>
   <trkpt lat="39.41172" lon="-105.96939">
    <ele>3495.62</ele>
   </trkpt>
   <trkpt lat="39.41208" lon="-105.96957">
    <ele>3493.1</ele>
   </trkpt>
   <trkpt lat="39.41241" lon="-105.96961">
    <ele>3492.7200000000003</ele>
   </trkpt>
   <trkpt lat="39.412710000000004" lon="-105.96957">
    <ele>3491.0</ele>
   </trkpt>
   <trkpt lat="39.41304" lon="-105.96948">
    <ele>3489.55</ele>
   </trkpt>
   <trkpt lat="39.41377000000001" lon="-105.96907">
    <ele>3486.3800000000006</ele>
   </trkpt>
   <trkpt lat="39.41449" lon="-105.9688">
    <ele>3484.0000000000005</ele>
   </trkpt>
   <trkpt lat="39.415010000501844" lon="-105.96842000291933">
    <ele>3481.2700000000004</ele>
   </trkpt>
   <trkpt lat="39.415530000000004" lon="-105.96804">
    <ele>3479.1200000000003</ele>
   </trkpt>
   <trkpt lat="39.415975000042394" lon="-105.96786500115196">
    <ele>3476.9100000000003</ele>
   </trkpt>
   <trkpt lat="39.41642" lon="-105.96769">
    <ele>3475.2500000000005</ele>
   </trkpt>
   <trkpt lat="39.41671" lon="-105.9676">
    <ele>3473.76</ele>
   </trkpt>
   <trkpt lat="39.417550000000006" lon="-105.96742">
    <ele>3470.34</ele>
   </trkpt>
   <trkpt lat="39.41776" lon="-105.96742">
    <ele>3469.7500000000005</ele>
   </trkpt>
   <trkpt lat="39.41796" lon="-105.96746">
    <ele>3468.8500000000004</ele>
   </trkpt>
   <trkpt lat="39.41818000000001" lon="-105.96764">
    <ele>3468.02</ele>
   </trkpt>
   <trkpt lat="39.418330000000005" lon="-105.96782">
    <ele>3467.6600000000003</ele>
   </trkpt>
   <trkpt lat="39.41859500128601" lon="-105.96835499808877">
    <ele>3465.1400000000003</ele>
   </trkpt>
   <trkpt lat="39.41886" lon="-105.96889">
    <ele>3463.82</ele>
   </trkpt>
   <trkpt lat="39.419200000000004" lon="-105.96953">
    <ele>3460.61</ele>
   </trkpt>
   <trkpt lat="39.41937" lon="-105.96992">
    <ele>3459.77</ele>
   </trkpt>
   <trkpt lat="39.41946" lon="-105.9702">
    <ele>3458.55</ele>
   </trkpt>
   <trkpt lat="39.41962" lon="-105.9706">
    <ele>3457.38</ele>
   </trkpt>
   <trkpt lat="39.41973" lon="-105.97079000000001">
    <ele>3457.07</ele>
   </trkpt>
   <trkpt lat="39.419920000000005" lon="-105.971">
    <ele>3455.63</ele>
   </trkpt>
   <trkpt lat="39.420370000000005" lon="-105.97132">
    <ele>3454.67</ele>
   </trkpt>
   <trkpt lat="39.420680000000004" lon="-105.97182000000001">
    <ele>3452.64</ele>
   </trkpt>
   <trkpt lat="39.42132" lon="-105.97258000000001">
    <ele>3449.26</ele>
   </trkpt>
   <trkpt lat="39.421510000000005" lon="-105.97292">
    <ele>3447.96</ele>
   </trkpt>
   <trkpt lat="39.421760000000006" lon="-105.97328">
    <ele>3445.73</ele>
   </trkpt>
   <trkpt lat="39.42219334195151" lon="-105.97428332085552">
    <ele>3441.88</ele>
   </trkpt>
   <trkpt lat="39.422626675284185" lon="-105.9752866541871">
    <ele>3438.67</ele>
   </trkpt>
   <trkpt lat="39.42306000000001" lon="-105.97629">
    <ele>3434.88</ele>
   </trkpt>
   <trkpt lat="39.423460003144996" lon="-105.9771449951261">
    <ele>3430.2400000000002</ele>
   </trkpt>
   <trkpt lat="39.423860000000005" lon="-105.97800000000001">
    <ele>3428.34</ele>
   </trkpt>
   <trkpt lat="39.423950000000005" lon="-105.97827000000001">
    <ele>3427.7300000000005</ele>
   </trkpt>
   <trkpt lat="39.42414500227501" lon="-105.97899999793385">
    <ele>3424.2900000000004</ele>
   </trkpt>
   <trkpt lat="39.42434" lon="-105.97973">
    <ele>3422.9500000000003</ele>
   </trkpt>
   <trkpt lat="39.42456000618773" lon="-105.98057999464034">
    <ele>3419.1200000000003</ele>
   </trkpt>
   <trkpt lat="39.42478000618952" lon="-105.98142999464719">
    <ele>3416.2100000000005</ele>
   </trkpt>
   <trkpt lat="39.425000000000004" lon="-105.98228">
    <ele>3414.15</ele>
   </trkpt>
   <trkpt lat="39.42512" lon="-105.9825">
    <ele>3413.45</ele>
   </trkpt>
   <trkpt lat="39.425270000000005" lon="-105.98268">
    <ele>3412.51</ele>
   </trkpt>
   <trkpt lat="39.42549" lon="-105.98278">
    <ele>3410.9700000000003</ele>
   </trkpt>
   <trkpt lat="39.425700000000006" lon="-105.98282">
    <ele>3410.9700000000003</ele>
   </trkpt>
   <trkpt lat="39.42606000000001" lon="-105.98282">
    <ele>3409.45</ele>
   </trkpt>
   <trkpt lat="39.426680000000005" lon="-105.98268">
    <ele>3406.8000000000006</ele>
   </trkpt>
   <trkpt lat="39.427060000000004" lon="-105.98268">
    <ele>3405.9700000000003</ele>
   </trkpt>
   <trkpt lat="39.42728" lon="-105.98273">
    <ele>3404.55</ele>
   </trkpt>
   <trkpt lat="39.42743" lon="-105.98283">
    <ele>3404.16</ele>
   </trkpt>
   <trkpt lat="39.42754" lon="-105.98305">
    <ele>3403.5200000000004</ele>
   </trkpt>
   <trkpt lat="39.42768" lon="-105.98344">
    <ele>3402.6600000000003</ele>
   </trkpt>
   <trkpt lat="39.4277" lon="-105.98362">
    <ele>3402.29</ele>
   </trkpt>
   <trkpt lat="39.42759000203632" lon="-105.98431500129625">
    <ele>3399.29</ele>
   </trkpt>
   <trkpt lat="39.42748" lon="-105.98501">
    <ele>3397.9</ele>
   </trkpt>
   <trkpt lat="39.42748" lon="-105.98529">
    <ele>3396.59</ele>
   </trkpt>
   <trkpt lat="39.42752" lon="-105.98561000000001">
    <ele>3395.5400000000004</ele>
   </trkpt>
   <trkpt lat="39.42759" lon="-105.98595">
    <ele>3395.2200000000003</ele>
   </trkpt>
   <trkpt lat="39.4277" lon="-105.98623">
    <ele>3393.84</ele>
   </trkpt>
   <trkpt lat="39.42804" lon="-105.98685">
    <ele>3391.8700000000003</ele>
   </trkpt>
   <trkpt lat="39.42847000124555" lon="-105.98738499672373">
    <ele>3388.8</ele>
   </trkpt>
   <trkpt lat="39.428900000000006" lon="-105.98792">
    <ele>3386.7700000000004</ele>
   </trkpt>
   <trkpt lat="39.429540002170945" lon="-105.98861999365067">
    <ele>3383.2000000000003</ele>
   </trkpt>
   <trkpt lat="39.43018" lon="-105.98932">
    <ele>3379.7900000000004</ele>
   </trkpt>
   <trkpt lat="39.430645001513646" lon="-105.98992499589302">
    <ele>3376.3</ele>
   </trkpt>
   <trkpt lat="39.431110000000004" lon="-105.99053">
    <ele>3375.1000000000004</ele>
   </trkpt>
   <trkpt lat="39.431540000000005" lon="-105.99088">
    <ele>3373.03</ele>
   </trkpt>
   <trkpt lat="39.43199000043323" lon="-105.99112499851358">
    <ele>3369.79</ele>
   </trkpt>
   <trkpt lat="39.43244" lon="-105.99137">
    <ele>3367.77</ele>
   </trkpt>
   <trkpt lat="39.43282000000001" lon="-105.99152000000001">
    <ele>3366.5800000000004</ele>
   </trkpt>
   <trkpt lat="39.43321" lon="-105.99159">
    <ele>3365.2000000000003</ele>
   </trkpt>
   <trkpt lat="39.433640000000004" lon="-105.99146">
    <ele>3362.98</ele>
   </trkpt>
   <trkpt lat="39.43392" lon="-105.99116000000001">
    <ele>3362.3100000000004</ele>
   </trkpt>
   <trkpt lat="39.43433" lon="-105.99066">
    <ele>3360.1200000000003</ele>
   </trkpt>
   <trkpt lat="39.4346" lon="-105.99056">
    <ele>3359.3300000000004</ele>
   </trkpt>
   <trkpt lat="39.43497" lon="-105.99074">
    <ele>3358.34</ele>
   </trkpt>
   <trkpt lat="39.43513" lon="-105.99094000000001">
    <ele>3357.2900000000004</ele>
   </trkpt>
   <trkpt lat="39.435230000000004" lon="-105.99115">
    <ele>3356.92</ele>
   </trkpt>
   <trkpt lat="39.43536" lon="-105.99173">
    <ele>3353.96</ele>
   </trkpt>
   <trkpt lat="39.43554" lon="-105.9924">
    <ele>3352.13</ele>
   </trkpt>
   <trkpt lat="39.435665001544656" lon="-105.99300499880606">
    <ele>3350.6700000000005</ele>
   </trkpt>
   <trkpt lat="39.435790000000004" lon="-105.99361">
    <ele>3348.1500000000005</ele>
   </trkpt>
   <trkpt lat="39.436040000000006" lon="-105.9945">
    <ele>3346.01</ele>
   </trkpt>
   <trkpt lat="39.436220000000006" lon="-105.99488000000001">
    <ele>3345.2300000000005</ele>
   </trkpt>
   <trkpt lat="39.43639" lon="-105.99510000000001">
    <ele>3344.59</ele>
   </trkpt>
   <trkpt lat="39.436710000000005" lon="-105.99522">
    <ele>3343.1800000000003</ele>
   </trkpt>
   <trkpt lat="39.43703" lon="-105.99519000000001">
    <ele>3342.29</ele>
   </trkpt>
   <trkpt lat="39.437250000000006" lon="-105.99504">
    <ele>3341.6</ele>
   </trkpt>
   <trkpt lat="39.437430000000006" lon="-105.99478">
    <ele>3340.2200000000003</ele>
   </trkpt>
   <trkpt lat="39.43764" lon="-105.99434000000001">
    <ele>3339.1</ele>
   </trkpt>
   <trkpt lat="39.43784" lon="-105.9941">
    <ele>3338.0600000000004</ele>
   </trkpt>
   <trkpt lat="39.43808000000001" lon="-105.99394000000001">
    <ele>3337.1600000000003</ele>
   </trkpt>
   <trkpt lat="39.438410000000005" lon="-105.99388">
    <ele>3335.77</ele>
   </trkpt>
   <trkpt lat="39.439250001532685" lon="-105.99422498752007">
    <ele>3331.4800000000005</ele>
   </trkpt>
   <trkpt lat="39.44009000204625" lon="-105.99456998336089">
    <ele>3327.9600000000005</ele>
   </trkpt>
   <trkpt lat="39.44093000154061" lon="-105.99491498752286">
    <ele>3323.82</ele>
   </trkpt>
   <trkpt lat="39.441770000000005" lon="-105.99526">
    <ele>3319.84</ele>
   </trkpt>
   <trkpt lat="39.442555001108204" lon="-105.99577999410626">
    <ele>3316.8100000000004</ele>
   </trkpt>
   <trkpt lat="39.443340000000006" lon="-105.9963">
    <ele>3313.66</ele>
   </trkpt>
   <trkpt lat="39.44352000000001" lon="-105.99647">
    <ele>3312.4100000000003</ele>
   </trkpt>
   <trkpt lat="39.44366" lon="-105.9967">
    <ele>3311.7400000000002</ele>
   </trkpt>
   <trkpt lat="39.44373" lon="-105.99692">
    <ele>3311.34</ele>
   </trkpt>
   <trkpt lat="39.4437" lon="-105.99746">
    <ele>3309.9500000000003</ele>
   </trkpt>
   <trkpt lat="39.443580000000004" lon="-105.99769">
    <ele>3309.3700000000003</ele>
   </trkpt>
   <trkpt lat="39.44344" lon="-105.99783000000001">
    <ele>3308.1400000000003</ele>
   </trkpt>
   <trkpt lat="39.44301" lon="-105.998">
    <ele>3306.08</ele>
   </trkpt>
   <trkpt lat="39.44256" lon="-105.99822">
    <ele>3304.8300000000004</ele>
   </trkpt>
   <trkpt lat="39.442420000000006" lon="-105.99831">
    <ele>3304.53</ele>
   </trkpt>
   <trkpt lat="39.44229" lon="-105.99846000000001">
    <ele>3304.09</ele>
   </trkpt>
   <trkpt lat="39.4422" lon="-105.99873000000001">
    <ele>3303.4100000000003</ele>
   </trkpt>
   <trkpt lat="39.442190000000004" lon="-105.99907">
    <ele>3302.03</ele>
   </trkpt>
   <trkpt lat="39.44229" lon="-105.99935">
    <ele>3300.8700000000003</ele>
   </trkpt>
   <trkpt lat="39.44241" lon="-105.99961">
    <ele>3300.8700000000003</ele>
   </trkpt>
   <trkpt lat="39.44261" lon="-105.99974">
    <ele>3300.11</ele>
   </trkpt>
   <trkpt lat="39.44305000000001" lon="-105.99988">
    <ele>3297.75</ele>
   </trkpt>
   <trkpt lat="39.44358000007359" lon="-105.99992499966308">
    <ele>3296.0800000000004</ele>
   </trkpt>
   <trkpt lat="39.44411" lon="-105.99997">
    <ele>3292.94</ele>
   </trkpt>
   <trkpt lat="39.44494" lon="-106.00007000000001">
    <ele>3289.7000000000003</ele>
   </trkpt>
   <trkpt lat="39.44509" lon="-106.00023">
    <ele>3289.27</ele>
   </trkpt>
   <trkpt lat="39.445240000000005" lon="-106.00056000000001">
    <ele>3288.67</ele>
   </trkpt>
   <trkpt lat="39.44538" lon="-106.00078">
    <ele>3288.19</ele>
   </trkpt>
   <trkpt lat="39.44552" lon="-106.00091">
    <ele>3287.07</ele>
   </trkpt>
   <trkpt lat="39.44592" lon="-106.00104">
    <ele>3286.0700000000006</ele>
   </trkpt>
   <trkpt lat="39.44608" lon="-106.00114">
    <ele>3285.4700000000003</ele>
   </trkpt>
   <trkpt lat="39.446200000000005" lon="-106.00131">
    <ele>3285.2300000000005</ele>
   </trkpt>
   <trkpt lat="39.446310000000004" lon="-106.00158">
    <ele>3284.21</ele>
   </trkpt>
   <trkpt lat="39.446340000000006" lon="-106.00185">
    <ele>3283.88</ele>
   </trkpt>
   <trkpt lat="39.44633" lon="-106.00207">
    <ele>3282.92</ele>
   </trkpt>
   <trkpt lat="39.44623" lon="-106.00249000000001">
    <ele>3281.7300000000005</ele>
   </trkpt>
   <trkpt lat="39.446090000000005" lon="-106.00296">
    <ele>3280.65</ele>
   </trkpt>
   <trkpt lat="39.44606" lon="-106.00329">
    <ele>3279.6200000000003</ele>
   </trkpt>
   <trkpt lat="39.4461" lon="-106.00368">
    <ele>3278.1800000000003</ele>
   </trkpt>
   <trkpt lat="39.44628" lon="-106.0048">
    <ele>3274.56</ele>
   </trkpt>
   <trkpt lat="39.446310000000004" lon="-106.00516">
    <ele>3274.11</ele>
   </trkpt>
   <trkpt lat="39.44639" lon="-106.00538">
    <ele>3273.8000000000006</ele>
   </trkpt>
   <trkpt lat="39.4465" lon="-106.00556">
    <ele>3272.99</ele>
   </trkpt>
   <trkpt lat="39.446760000000005" lon="-106.00574">
    <ele>3271.78</ele>
   </trkpt>
   <trkpt lat="39.44695" lon="-106.00575">
    <ele>3270.84</ele>
   </trkpt>
   <trkpt lat="39.447070000000004" lon="-106.00574">
    <ele>3270.84</ele>
   </trkpt>
   <trkpt lat="39.447230000000005" lon="-106.00565">
    <ele>3270.5</ele>
   </trkpt>
   <trkpt lat="39.44771" lon="-106.00516">
    <ele>3268.15</ele>
   </trkpt>
   <trkpt lat="39.44791" lon="-106.00499">
    <ele>3267.6300000000006</ele>
   </trkpt>
   <trkpt lat="39.44821" lon="-106.00485">
    <ele>3265.75</ele>
   </trkpt>
   <trkpt lat="39.448780000000006" lon="-106.00467">
    <ele>3263.67</ele>
   </trkpt>
   <trkpt lat="39.44895" lon="-106.00464000000001">
    <ele>3262.8</ele>
   </trkpt>
   <trkpt lat="39.449380000000005" lon="-106.00502">
    <ele>3260.57</ele>
   </trkpt>
   <trkpt lat="39.449830000000006" lon="-106.0052">
    <ele>3259.31</ele>
   </trkpt>
   <trkpt lat="39.450030000000005" lon="-106.00543">
    <ele>3258.2200000000003</ele>
   </trkpt>
   <trkpt lat="39.45017" lon="-106.00567000000001">
    <ele>3257.65</ele>
   </trkpt>
   <trkpt lat="39.450250000000004" lon="-106.00596">
    <ele>3256.8900000000003</ele>
   </trkpt>
   <trkpt lat="39.45031" lon="-106.00623">
    <ele>3255.7000000000003</ele>
   </trkpt>
   <trkpt lat="39.450300000000006" lon="-106.00677">
    <ele>3254.8100000000004</ele>
   </trkpt>
   <trkpt lat="39.45036" lon="-106.00704">
    <ele>3254.1000000000004</ele>
   </trkpt>
   <trkpt lat="39.45044" lon="-106.00722">
    <ele>3253.48</ele>
   </trkpt>
   <trkpt lat="39.450590000000005" lon="-106.0074">
    <ele>3253.48</ele>
   </trkpt>
   <trkpt lat="39.4508" lon="-106.00755000000001">
    <ele>3252.2900000000004</ele>
   </trkpt>
   <trkpt lat="39.451150000000005" lon="-106.00762">
    <ele>3251.0800000000004</ele>
   </trkpt>
   <trkpt lat="39.45136" lon="-106.00771">
    <ele>3250.42</ele>
   </trkpt>
   <trkpt lat="39.45154" lon="-106.00784">
    <ele>3249.67</ele>
   </trkpt>
   <trkpt lat="39.451640000000005" lon="-106.00798">
    <ele>3249.2400000000002</ele>
   </trkpt>
   <trkpt lat="39.45176" lon="-106.00840000000001">
    <ele>3247.92</ele>
   </trkpt>
   <trkpt lat="39.45167" lon="-106.00941">
    <ele>3245.59</ele>
   </trkpt>
   <trkpt lat="39.4517" lon="-106.00982">
    <ele>3244.4900000000002</ele>
   </trkpt>
   <trkpt lat="39.45176" lon="-106.00999">
    <ele>3243.44</ele>
   </trkpt>
   <trkpt lat="39.45185" lon="-106.01014">
    <ele>3243.11</ele>
   </trkpt>
   <trkpt lat="39.45215" lon="-106.01049">
    <ele>3241.5200000000004</ele>
   </trkpt>
   <trkpt lat="39.45226" lon="-106.01067">
    <ele>3240.9900000000002</ele>
   </trkpt>
   <trkpt lat="39.452450000000006" lon="-106.01111">
    <ele>3239.92</ele>
   </trkpt>
   <trkpt lat="39.45261" lon="-106.01134">
    <ele>3239.07</ele>
   </trkpt>
   <trkpt lat="39.45304" lon="-106.01149000000001">
    <ele>3237.3</ele>
   </trkpt>
   <trkpt lat="39.45336" lon="-106.0117">
    <ele>3236.06</ele>
   </trkpt>
   <trkpt lat="39.45349" lon="-106.01187">
    <ele>3235.53</ele>
   </trkpt>
   <trkpt lat="39.453610000000005" lon="-106.01214">
    <ele>3234.63</ele>
   </trkpt>
   <trkpt lat="39.45369" lon="-106.01241">
    <ele>3234.63</ele>
   </trkpt>
   <trkpt lat="39.453700000000005" lon="-106.01277">
    <ele>3232.59</ele>
   </trkpt>
   <trkpt lat="39.453680000000006" lon="-106.01301000000001">
    <ele>3232.0</ele>
   </trkpt>
   <trkpt lat="39.45362" lon="-106.01326">
    <ele>3231.4800000000005</ele>
   </trkpt>
   <trkpt lat="39.453520000000005" lon="-106.01350000000001">
    <ele>3230.2400000000002</ele>
   </trkpt>
   <trkpt lat="39.453410000000005" lon="-106.01367">
    <ele>3229.76</ele>
   </trkpt>
   <trkpt lat="39.453190000000006" lon="-106.01386000000001">
    <ele>3228.9700000000003</ele>
   </trkpt>
   <trkpt lat="39.45291" lon="-106.01407">
    <ele>3228.9700000000003</ele>
   </trkpt>
   <trkpt lat="39.45268" lon="-106.01416">
    <ele>3228.0400000000004</ele>
   </trkpt>
   <trkpt lat="39.45197" lon="-106.01440000000001">
    <ele>3227.01</ele>
   </trkpt>
   <trkpt lat="39.45172" lon="-106.01456">
    <ele>3226.2000000000003</ele>
   </trkpt>
   <trkpt lat="39.451460000000004" lon="-106.01487">
    <ele>3224.6200000000003</ele>
   </trkpt>
   <trkpt lat="39.45139" lon="-106.01502">
    <ele>3223.85</ele>
   </trkpt>
   <trkpt lat="39.451350000000005" lon="-106.01523">
    <ele>3223.17</ele>
   </trkpt>
   <trkpt lat="39.45132" lon="-106.01613">
    <ele>3220.19</ele>
   </trkpt>
   <trkpt lat="39.45128000195009" lon="-106.01680500040072">
    <ele>3218.11</ele>
   </trkpt>
   <trkpt lat="39.451240000000006" lon="-106.01748">
    <ele>3215.3600000000006</ele>
   </trkpt>
   <trkpt lat="39.45127" lon="-106.01780000000001">
    <ele>3215.3600000000006</ele>
   </trkpt>
   <trkpt lat="39.451370000000004" lon="-106.01806">
    <ele>3214.2700000000004</ele>
   </trkpt>
   <trkpt lat="39.451530000000005" lon="-106.01825000000001">
    <ele>3213.54</ele>
   </trkpt>
   <trkpt lat="39.451880001485634" lon="-106.01882499722444">
    <ele>3210.61</ele>
   </trkpt>
   <trkpt lat="39.45223" lon="-106.0194">
    <ele>3209.11</ele>
   </trkpt>
   <trkpt lat="39.452420000000004" lon="-106.02007">
    <ele>3206.38</ele>
   </trkpt>
   <trkpt lat="39.452510000000004" lon="-106.0203">
    <ele>3205.75</ele>
   </trkpt>
   <trkpt lat="39.45257" lon="-106.02040000000001">
    <ele>3205.3300000000004</ele>
   </trkpt>
   <trkpt lat="39.4528" lon="-106.02065">
    <ele>3204.7200000000003</ele>
   </trkpt>
   <trkpt lat="39.45302" lon="-106.02078">
    <ele>3203.9700000000003</ele>
   </trkpt>
   <trkpt lat="39.45311" lon="-106.02087">
    <ele>3203.11</ele>
   </trkpt>
   <trkpt lat="39.453520000000005" lon="-106.02137">
    <ele>3199.53</ele>
   </trkpt>
   <trkpt lat="39.45387" lon="-106.02172">
    <ele>3199.53</ele>
   </trkpt>
   <trkpt lat="39.45436" lon="-106.02244">
    <ele>3196.28</ele>
   </trkpt>
   <trkpt lat="39.454480000000004" lon="-106.02268000000001">
    <ele>3195.3900000000003</ele>
   </trkpt>
   <trkpt lat="39.45508" lon="-106.02325">
    <ele>3192.1800000000003</ele>
   </trkpt>
   <trkpt lat="39.455310000000004" lon="-106.02351">
    <ele>3191.7500000000005</ele>
   </trkpt>
   <trkpt lat="39.45552" lon="-106.02365">
    <ele>3191.15</ele>
   </trkpt>
   <trkpt lat="39.45591" lon="-106.0237">
    <ele>3189.57</ele>
   </trkpt>
   <trkpt lat="39.45609" lon="-106.02378">
    <ele>3189.1300000000006</ele>
   </trkpt>
   <trkpt lat="39.45624" lon="-106.02398000000001">
    <ele>3188.3800000000006</ele>
   </trkpt>
   <trkpt lat="39.4564" lon="-106.02433">
    <ele>3187.3500000000004</ele>
   </trkpt>
   <trkpt lat="39.45651" lon="-106.02468">
    <ele>3186.3</ele>
   </trkpt>
   <trkpt lat="39.45671" lon="-106.02481">
    <ele>3185.3700000000003</ele>
   </trkpt>
   <trkpt lat="39.45685" lon="-106.02499">
    <ele>3185.07</ele>
   </trkpt>
   <trkpt lat="39.45702" lon="-106.02513">
    <ele>3184.5000000000005</ele>
   </trkpt>
   <trkpt lat="39.45738" lon="-106.02523000000001">
    <ele>3182.6900000000005</ele>
   </trkpt>
   <trkpt lat="39.457550000000005" lon="-106.02541000000001">
    <ele>3181.92</ele>
   </trkpt>
   <trkpt lat="39.4577" lon="-106.02562">
    <ele>3181.51</ele>
   </trkpt>
   <trkpt lat="39.45794" lon="-106.0258">
    <ele>3180.6400000000003</ele>
   </trkpt>
   <trkpt lat="39.45834" lon="-106.02602">
    <ele>3178.9300000000003</ele>
   </trkpt>
   <trkpt lat="39.458510000000004" lon="-106.02617000000001">
    <ele>3178.6900000000005</ele>
   </trkpt>
   <trkpt lat="39.45875" lon="-106.02629">
    <ele>3177.5800000000004</ele>
   </trkpt>
   <trkpt lat="39.458980000000004" lon="-106.02633000000002">
    <ele>3176.6500000000005</ele>
   </trkpt>
   <trkpt lat="39.45931" lon="-106.0262">
    <ele>3175.88</ele>
   </trkpt>
   <trkpt lat="39.45946" lon="-106.02603">
    <ele>3175.04</ele>
   </trkpt>
   <trkpt lat="39.45964" lon="-106.02557">
    <ele>3172.69</ele>
   </trkpt>
   <trkpt lat="39.459810000000004" lon="-106.02522">
    <ele>3171.59</ele>
   </trkpt>
   <trkpt lat="39.4604" lon="-106.02464">
    <ele>3171.4</ele>
   </trkpt>
   <trkpt lat="39.46052" lon="-106.02438000000001">
    <ele>3170.37</ele>
   </trkpt>
   <trkpt lat="39.460570000000004" lon="-106.02405">
    <ele>3168.48</ele>
   </trkpt>
   <trkpt lat="39.46059" lon="-106.02351">
    <ele>3166.8700000000003</ele>
   </trkpt>
   <trkpt lat="39.460640000000005" lon="-106.02311">
    <ele>3165.6700000000005</ele>
   </trkpt>
   <trkpt lat="39.46078" lon="-106.02276">
    <ele>3164.9500000000003</ele>
   </trkpt>
   <trkpt lat="39.461310000000005" lon="-106.02226">
    <ele>3162.31</ele>
   </trkpt>
   <trkpt lat="39.46164" lon="-106.02204">
    <ele>3160.67</ele>
   </trkpt>
   <trkpt lat="39.4622" lon="-106.02182">
    <ele>3157.9300000000003</ele>
   </trkpt>
   <trkpt lat="39.46217" lon="-106.0219">
    <ele>3156.67</ele>
   </trkpt>
   <trkpt lat="39.461960000000005" lon="-106.02208">
    <ele>3154.6000000000004</ele>
   </trkpt>
   <trkpt lat="39.4619" lon="-106.02219000000001">
    <ele>3154.6000000000004</ele>
   </trkpt>
   <trkpt lat="39.461800000000004" lon="-106.02263">
    <ele>3151.39</ele>
   </trkpt>
   <trkpt lat="39.461870000000005" lon="-106.02268000000001">
    <ele>3149.62</ele>
   </trkpt>
   <trkpt lat="39.46224" lon="-106.02248">
    <ele>3145.8500000000004</ele>
   </trkpt>
   <trkpt lat="39.46237" lon="-106.02249">
    <ele>3145.0700000000006</ele>
   </trkpt>
   <trkpt lat="39.46257000000001" lon="-106.02241000000001">
    <ele>3143.73</ele>
   </trkpt>
   <trkpt lat="39.462720000000004" lon="-106.02241000000001">
    <ele>3140.87</ele>
   </trkpt>
   <trkpt lat="39.463080000000005" lon="-106.02257">
    <ele>3138.91</ele>
   </trkpt>
   <trkpt lat="39.46336" lon="-106.02277000000001">
    <ele>3137.35</ele>
   </trkpt>
   <trkpt lat="39.463550000000005" lon="-106.0228">
    <ele>3137.2400000000002</ele>
   </trkpt>
   <trkpt lat="39.463680000000004" lon="-106.0228">
    <ele>3137.09</ele>
   </trkpt>
   <trkpt lat="39.463730000000005" lon="-106.02275">
    <ele>3136.8600000000006</ele>
   </trkpt>
   <trkpt lat="39.46378" lon="-106.02257">
    <ele>3136.1200000000003</ele>
   </trkpt>
   <trkpt lat="39.46383" lon="-106.02248">
    <ele>3134.34</ele>
   </trkpt>
   <trkpt lat="39.46407000000001" lon="-106.02217">
    <ele>3132.3</ele>
   </trkpt>
   <trkpt lat="39.46419" lon="-106.02210000000001">
    <ele>3132.9500000000003</ele>
   </trkpt>
   <trkpt lat="39.464310000000005" lon="-106.02217">
    <ele>3134.71</ele>
   </trkpt>
   <trkpt lat="39.46437" lon="-106.0224">
    <ele>3136.7700000000004</ele>
   </trkpt>
   <trkpt lat="39.4645" lon="-106.02266">
    <ele>3137.8</ele>
   </trkpt>
   <trkpt lat="39.464690000000004" lon="-106.0229">
    <ele>3136.53</ele>
   </trkpt>
   <trkpt lat="39.464780000000005" lon="-106.02295000000001">
    <ele>3136.09</ele>
   </trkpt>
   <trkpt lat="39.465050000000005" lon="-106.02302">
    <ele>3132.7700000000004</ele>
   </trkpt>
   <trkpt lat="39.464980000000004" lon="-106.02343">
    <ele>3128.23</ele>
   </trkpt>
   <trkpt lat="39.464830000000006" lon="-106.02356">
    <ele>3127.13</ele>
   </trkpt>
   <trkpt lat="39.46501000000001" lon="-106.02374">
    <ele>3123.6</ele>
   </trkpt>
   <trkpt lat="39.46558" lon="-106.02383">
    <ele>3119.6</ele>
   </trkpt>
   <trkpt lat="39.465970000000006" lon="-106.02423">
    <ele>3116.23</ele>
   </trkpt>
   <trkpt lat="39.46618" lon="-106.02454">
    <ele>3115.19</ele>
   </trkpt>
   <trkpt lat="39.46627" lon="-106.02463">
    <ele>3114.53</ele>
   </trkpt>
   <trkpt lat="39.466370000000005" lon="-106.02463">
    <ele>3113.8800000000006</ele>
   </trkpt>
   <trkpt lat="39.466440000000006" lon="-106.02454">
    <ele>3113.44</ele>
   </trkpt>
   <trkpt lat="39.46651000000001" lon="-106.02455">
    <ele>3111.9100000000003</ele>
   </trkpt>
   <trkpt lat="39.466640000000005" lon="-106.02472">
    <ele>3110.7500000000005</ele>
   </trkpt>
   <trkpt lat="39.46669" lon="-106.02481">
    <ele>3110.2000000000003</ele>
   </trkpt>
   <trkpt lat="39.4667" lon="-106.02487">
    <ele>3110.2000000000003</ele>
   </trkpt>
   <trkpt lat="39.46669" lon="-106.02499">
    <ele>3108.7000000000003</ele>
   </trkpt>
   <trkpt lat="39.46665" lon="-106.02509">
    <ele>3108.7000000000003</ele>
   </trkpt>
   <trkpt lat="39.466590000000004" lon="-106.02519000000001">
    <ele>3108.05</ele>
   </trkpt>
   <trkpt lat="39.46643" lon="-106.02536">
    <ele>3105.8100000000004</ele>
   </trkpt>
   <trkpt lat="39.46616" lon="-106.02550000000001">
    <ele>3103.67</ele>
   </trkpt>
   <trkpt lat="39.46594" lon="-106.02544">
    <ele>3098.86</ele>
   </trkpt>
   <trkpt lat="39.465900000000005" lon="-106.02548">
    <ele>3098.86</ele>
   </trkpt>
   <trkpt lat="39.46595000000001" lon="-106.02562">
    <ele>3096.71</ele>
   </trkpt>
   <trkpt lat="39.46611" lon="-106.02584">
    <ele>3094.4500000000003</ele>
   </trkpt>
   <trkpt lat="39.466190000000005" lon="-106.02589">
    <ele>3094.1400000000003</ele>
   </trkpt>
   <trkpt lat="39.466530000000006" lon="-106.02590000000001">
    <ele>3091.51</ele>
   </trkpt>
   <trkpt lat="39.46667" lon="-106.02594">
    <ele>3090.2400000000002</ele>
   </trkpt>
   <trkpt lat="39.466640000000005" lon="-106.02598">
    <ele>3090.2400000000002</ele>
   </trkpt>
   <trkpt lat="39.466550000000005" lon="-106.02604000000001">
    <ele>3088.2500000000005</ele>
   </trkpt>
   <trkpt lat="39.46638" lon="-106.02625">
    <ele>3085.58</ele>
   </trkpt>
   <trkpt lat="39.46631" lon="-106.0263">
    <ele>3084.7000000000003</ele>
   </trkpt>
   <trkpt lat="39.466190000000005" lon="-106.02634">
    <ele>3083.69</ele>
   </trkpt>
   <trkpt lat="39.46607" lon="-106.02634">
    <ele>3082.8900000000003</ele>
   </trkpt>
   <trkpt lat="39.465920000000004" lon="-106.02638">
    <ele>3081.7400000000002</ele>
   </trkpt>
   <trkpt lat="39.465920000000004" lon="-106.02647">
    <ele>3081.25</ele>
   </trkpt>
   <trkpt lat="39.46598" lon="-106.02656">
    <ele>3078.4900000000002</ele>
   </trkpt>
   <trkpt lat="39.46636" lon="-106.02665">
    <ele>3075.7700000000004</ele>
   </trkpt>
   <trkpt lat="39.466530000000006" lon="-106.0266">
    <ele>3074.34</ele>
   </trkpt>
   <trkpt lat="39.466590000000004" lon="-106.0266">
    <ele>3073.6800000000003</ele>
   </trkpt>
   <trkpt lat="39.4666" lon="-106.02665">
    <ele>3073.6800000000003</ele>
   </trkpt>
   <trkpt lat="39.466550000000005" lon="-106.02675">
    <ele>3070.8700000000003</ele>
   </trkpt>
   <trkpt lat="39.466480000000004" lon="-106.02680000000001">
    <ele>3070.2900000000004</ele>
   </trkpt>
   <trkpt lat="39.46616" lon="-106.02696">
    <ele>3067.06</ele>
   </trkpt>
   <trkpt lat="39.466080000000005" lon="-106.02705">
    <ele>3066.1600000000003</ele>
   </trkpt>
   <trkpt lat="39.46611" lon="-106.0271">
    <ele>3066.1600000000003</ele>
   </trkpt>
   <trkpt lat="39.46658" lon="-106.02706">
    <ele>3061.43</ele>
   </trkpt>
   <trkpt lat="39.46681" lon="-106.02692">
    <ele>3058.61</ele>
   </trkpt>
   <trkpt lat="39.46699" lon="-106.02689000000001">
    <ele>3057.86</ele>
   </trkpt>
   <trkpt lat="39.46705" lon="-106.02693000000001">
    <ele>3056.4900000000002</ele>
   </trkpt>
   <trkpt lat="39.467490000000005" lon="-106.02759">
    <ele>3048.4500000000003</ele>
   </trkpt>
   <trkpt lat="39.46748" lon="-106.02764">
    <ele>3047.7400000000002</ele>
   </trkpt>
   <trkpt lat="39.46714" lon="-106.02764">
    <ele>3041.8100000000004</ele>
   </trkpt>
   <trkpt lat="39.46716" lon="-106.02769">
    <ele>3041.8100000000004</ele>
   </trkpt>
   <trkpt lat="39.46752" lon="-106.02808">
    <ele>3036.07</ele>
   </trkpt>
   <trkpt lat="39.467530000000004" lon="-106.02817">
    <ele>3034.6200000000003</ele>
   </trkpt>
   <trkpt lat="39.46746" lon="-106.02835">
    <ele>3033.6200000000003</ele>
   </trkpt>
   <trkpt lat="39.46737" lon="-106.02844">
    <ele>3032.01</ele>
   </trkpt>
   <trkpt lat="39.46723" lon="-106.02839">
    <ele>3030.4300000000003</ele>
   </trkpt>
   <trkpt lat="39.46705" lon="-106.02817">
    <ele>3027.84</ele>
   </trkpt>
   <trkpt lat="39.46694" lon="-106.02817">
    <ele>3027.8300000000004</ele>
   </trkpt>
   <trkpt lat="39.466820000000006" lon="-106.02819000000001">
    <ele>3027.94</ele>
   </trkpt>
   <trkpt lat="39.46667" lon="-106.02813">
    <ele>3027.3</ele>
   </trkpt>
   <trkpt lat="39.466620000000006" lon="-106.02817">
    <ele>3026.88</ele>
   </trkpt>
   <trkpt lat="39.466640000000005" lon="-106.02826">
    <ele>3024.84</ele>
   </trkpt>
   <trkpt lat="39.46676" lon="-106.02848">
    <ele>3023.42</ele>
   </trkpt>
   <trkpt lat="39.466770000000004" lon="-106.02862">
    <ele>3022.2300000000005</ele>
   </trkpt>
   <trkpt lat="39.46689000000001" lon="-106.02884">
    <ele>3017.5400000000004</ele>
   </trkpt>
   <trkpt lat="39.466820000000006" lon="-106.02894">
    <ele>3016.78</ele>
   </trkpt>
   <trkpt lat="39.46683" lon="-106.02898">
    <ele>3016.14</ele>
   </trkpt>
   <trkpt lat="39.466930000000005" lon="-106.02902">
    <ele>3015.3</ele>
   </trkpt>
   <trkpt lat="39.467090000000006" lon="-106.02902">
    <ele>3014.21</ele>
   </trkpt>
   <trkpt lat="39.467150000000004" lon="-106.02903">
    <ele>3013.7500000000005</ele>
   </trkpt>
   <trkpt lat="39.46714" lon="-106.02907">
    <ele>3013.1500000000005</ele>
   </trkpt>
   <trkpt lat="39.4669" lon="-106.0292">
    <ele>3008.29</ele>
   </trkpt>
   <trkpt lat="39.46679" lon="-106.0293">
    <ele>3005.8900000000003</ele>
   </trkpt>
   <trkpt lat="39.46672" lon="-106.02942">
    <ele>3004.57</ele>
   </trkpt>
   <trkpt lat="39.466680000000004" lon="-106.02951">
    <ele>3003.6400000000003</ele>
   </trkpt>
   <trkpt lat="39.46663" lon="-106.02982000000002">
    <ele>3002.21</ele>
   </trkpt>
   <trkpt lat="39.46683" lon="-106.02979">
    <ele>3001.79</ele>
   </trkpt>
   <trkpt lat="39.46744" lon="-106.02979">
    <ele>3002.92</ele>
   </trkpt>
   <trkpt lat="39.46748" lon="-106.03001">
    <ele>3001.4900000000002</ele>
   </trkpt>
   <trkpt lat="39.467530000000004" lon="-106.03015">
    <ele>3000.8</ele>
   </trkpt>
   <trkpt lat="39.46772" lon="-106.03045">
    <ele>2998.73</ele>
   </trkpt>
   <trkpt lat="39.46792000000001" lon="-106.0306">
    <ele>2998.73</ele>
   </trkpt>
   <trkpt lat="39.46819" lon="-106.03072">
    <ele>2996.2700000000004</ele>
   </trkpt>
   <trkpt lat="39.46893" lon="-106.03082">
    <ele>2993.1</ele>
   </trkpt>
   <trkpt lat="39.469150000000006" lon="-106.0309">
    <ele>2990.2000000000003</ele>
   </trkpt>
   <trkpt lat="39.46932" lon="-106.03104">
    <ele>2990.2000000000003</ele>
   </trkpt>
   <trkpt lat="39.469640000000005" lon="-106.03139">
    <ele>2987.74</ele>
   </trkpt>
   <trkpt lat="39.47016" lon="-106.03203">
    <ele>2984.9300000000003</ele>
   </trkpt>
   <trkpt lat="39.470380000000006" lon="-106.03239">
    <ele>2982.39</ele>
   </trkpt>
   <trkpt lat="39.470685001887425" lon="-106.03305499707113">
    <ele>2979.3100000000004</ele>
   </trkpt>
   <trkpt lat="39.47099" lon="-106.03372">
    <ele>2976.09</ele>
   </trkpt>
   <trkpt lat="39.47146751245679" lon="-106.03470497970392">
    <ele>2973.03</ele>
   </trkpt>
   <trkpt lat="39.471945016604174" lon="-106.03568997292803">
    <ele>2968.8700000000003</ele>
   </trkpt>
   <trkpt lat="39.47242251244189" lon="-106.03667497967247">
    <ele>2964.6000000000004</ele>
   </trkpt>
   <trkpt lat="39.4729" lon="-106.03766">
    <ele>2961.0800000000004</ele>
   </trkpt>
   <trkpt lat="39.47272" lon="-106.03785">
    <ele>2959.69</ele>
   </trkpt>
   <trkpt lat="39.472820000000006" lon="-106.03808000000001">
    <ele>2959.61</ele>
   </trkpt>
   <trkpt lat="39.472640000000006" lon="-106.03822000000001">
    <ele>2959.54</ele>
   </trkpt>
  </trkseg>
 </trk>
</gpx>
