<?xml version="1.0" encoding="UTF-8"?>
<gpx creator="StravaGPX" version="1.1" xmlns="http://www.topografix.com/GPX/1/1" xmlns:xsi="http://www.w3.org/2001/XMLSchema-instance" xsi:schemaLocation="http://www.topografix.com/GPX/1/1 http://www.topografix.com/GPX/1/1/gpx.xsd">
 <metadata>
  <name>15.43 mi Leadville Run Route</name>
  <author>
   <name>Timothy Belliveau &amp; Lily</name>
   <link href="https://www.strava.com/athletes/48078590"/>
  </author>
  <copyright author="OpenStreetMap contributors">
   <year>2020</year>
   <license>https://www.openstreetmap.org/copyright</license>
  </copyright>
  <link href="https://www.strava.com/routes/3542536233312872652"/>
 </metadata>
 <trk>
  <name>15.43 mi Leadville Run Route</name>
  <link href="https://www.strava.com/routes/3542536233312872652"/>
  <type>running</type>
  <trkseg>
   <trkpt lat="39.264770000000006" lon="-106.33909000000001">
    <ele>2981.8900000000003</ele>
   </trkpt>
   <trkpt lat="39.26442" lon="-106.33921000000001">
    <ele>2981.7000000000003</ele>
   </trkpt>
   <trkpt lat="39.26395" lon="-106.33973">
    <ele>2980.8700000000003</ele>
   </trkpt>
   <trkpt lat="39.26388" lon="-106.33990000000001">
    <ele>2980.76</ele>
   </trkpt>
   <trkpt lat="39.26404" lon="-106.34054">
    <ele>2979.5200000000004</ele>
   </trkpt>
   <trkpt lat="39.264070000000004" lon="-106.34073000000001">
    <ele>2979.33</ele>
   </trkpt>
   <trkpt lat="39.26408" lon="-106.34121">
    <ele>2979.33</ele>
   </trkpt>
   <trkpt lat="39.264160000000004" lon="-106.34156000000002">
    <ele>2979.4900000000002</ele>
   </trkpt>
   <trkpt lat="39.26415" lon="-106.34155000000001">
    <ele>2979.4900000000002</ele>
   </trkpt>
   <trkpt lat="39.26422" lon="-106.3417">
    <ele>2979.4900000000002</ele>
   </trkpt>
   <trkpt lat="39.264390000000006" lon="-106.34193">
    <ele>2979.76</ele>
   </trkpt>
   <trkpt lat="39.26473" lon="-106.34228">
    <ele>2980.9300000000003</ele>
   </trkpt>
   <trkpt lat="39.264920000000004" lon="-106.34251">
    <ele>2981.88</ele>
   </trkpt>
   <trkpt lat="39.26507" lon="-106.34273">
    <ele>2982.32</ele>
   </trkpt>
   <trkpt lat="39.26540000000001" lon="-106.34332">
    <ele>2983.2400000000002</ele>
   </trkpt>
   <trkpt lat="39.26549" lon="-106.34358">
    <ele>2983.9100000000003</ele>
   </trkpt>
   <trkpt lat="39.265530000000005" lon="-106.3438">
    <ele>2984.4000000000005</ele>
   </trkpt>
   <trkpt lat="39.265530000000005" lon="-106.34434">
    <ele>2985.6900000000005</ele>
   </trkpt>
   <trkpt lat="39.2655" lon="-106.34492">
    <ele>2988.78</ele>
   </trkpt>
   <trkpt lat="39.26536" lon="-106.34577">
    <ele>2993.43</ele>
   </trkpt>
   <trkpt lat="39.26536" lon="-106.34591">
    <ele>2994.05</ele>
   </trkpt>
   <trkpt lat="39.26538" lon="-106.34609">
    <ele>2994.92</ele>
   </trkpt>
   <trkpt lat="39.26545" lon="-106.34636">
    <ele>2996.57</ele>
   </trkpt>
   <trkpt lat="39.26579" lon="-106.34725">
    <ele>3002.3</ele>
   </trkpt>
   <trkpt lat="39.26586" lon="-106.34757">
    <ele>3003.94</ele>
   </trkpt>
   <trkpt lat="39.2659" lon="-106.34789">
    <ele>3006.2300000000005</ele>
   </trkpt>
   <trkpt lat="39.26587000000001" lon="-106.34871000000001">
    <ele>3010.8300000000004</ele>
   </trkpt>
   <trkpt lat="39.26587000000001" lon="-106.34872000000001">
    <ele>3010.8300000000004</ele>
   </trkpt>
   <trkpt lat="39.2659" lon="-106.34913">
    <ele>3012.3</ele>
   </trkpt>
   <trkpt lat="39.265330000000006" lon="-106.34895">
    <ele>3013.1200000000003</ele>
   </trkpt>
   <trkpt lat="39.26482" lon="-106.3486">
    <ele>3015.06</ele>
   </trkpt>
   <trkpt lat="39.264340000000004" lon="-106.34824">
    <ele>3013.26</ele>
   </trkpt>
   <trkpt lat="39.263760000000005" lon="-106.34758000000001">
    <ele>3009.2400000000002</ele>
   </trkpt>
   <trkpt lat="39.26333000022391" lon="-106.34734999858782">
    <ele>3006.4</ele>
   </trkpt>
   <trkpt lat="39.2629" lon="-106.34712">
    <ele>3003.7200000000003</ele>
   </trkpt>
   <trkpt lat="39.26268" lon="-106.34708">
    <ele>3002.05</ele>
   </trkpt>
   <trkpt lat="39.262480000000004" lon="-106.34712">
    <ele>3000.5200000000004</ele>
   </trkpt>
   <trkpt lat="39.262240000000006" lon="-106.34721">
    <ele>2999.13</ele>
   </trkpt>
   <trkpt lat="39.26187" lon="-106.34743">
    <ele>2996.96</ele>
   </trkpt>
   <trkpt lat="39.26155" lon="-106.34771">
    <ele>2995.47</ele>
   </trkpt>
   <trkpt lat="39.26142" lon="-106.34778000000001">
    <ele>2995.2400000000002</ele>
   </trkpt>
   <trkpt lat="39.261430000000004" lon="-106.34778000000001">
    <ele>2995.2400000000002</ele>
   </trkpt>
   <trkpt lat="39.26126" lon="-106.34782000000001">
    <ele>2994.94</ele>
   </trkpt>
   <trkpt lat="39.26109" lon="-106.34779">
    <ele>2994.42</ele>
   </trkpt>
   <trkpt lat="39.26088" lon="-106.3477">
    <ele>2993.78</ele>
   </trkpt>
   <trkpt lat="39.26037" lon="-106.34731000000001">
    <ele>2994.3</ele>
   </trkpt>
   <trkpt lat="39.260250000000006" lon="-106.34725">
    <ele>2994.3</ele>
   </trkpt>
   <trkpt lat="39.26008" lon="-106.34725">
    <ele>2994.79</ele>
   </trkpt>
   <trkpt lat="39.25988" lon="-106.3473">
    <ele>2995.35</ele>
   </trkpt>
   <trkpt lat="39.25963" lon="-106.34739">
    <ele>2995.88</ele>
   </trkpt>
   <trkpt lat="39.25936" lon="-106.34739">
    <ele>2996.55</ele>
   </trkpt>
   <trkpt lat="39.259130000000006" lon="-106.34734">
    <ele>2997.32</ele>
   </trkpt>
   <trkpt lat="39.258900000000004" lon="-106.34722000000001">
    <ele>2997.94</ele>
   </trkpt>
   <trkpt lat="39.258720000000004" lon="-106.34721">
    <ele>2997.94</ele>
   </trkpt>
   <trkpt lat="39.258520000000004" lon="-106.34726">
    <ele>2998.7700000000004</ele>
   </trkpt>
   <trkpt lat="39.257920000000006" lon="-106.34783">
    <ele>3001.4</ele>
   </trkpt>
   <trkpt lat="39.25771" lon="-106.34797">
    <ele>3002.13</ele>
   </trkpt>
   <trkpt lat="39.257380000000005" lon="-106.34815">
    <ele>3002.46</ele>
   </trkpt>
   <trkpt lat="39.257130000000004" lon="-106.34837">
    <ele>3002.6400000000003</ele>
   </trkpt>
   <trkpt lat="39.25696000000001" lon="-106.34873">
    <ele>3003.48</ele>
   </trkpt>
   <trkpt lat="39.25668" lon="-106.34945">
    <ele>3005.1500000000005</ele>
   </trkpt>
   <trkpt lat="39.25647" lon="-106.3498">
    <ele>3007.29</ele>
   </trkpt>
   <trkpt lat="39.2561" lon="-106.3503">
    <ele>3009.05</ele>
   </trkpt>
   <trkpt lat="39.25585" lon="-106.35125000000001">
    <ele>3010.73</ele>
   </trkpt>
   <trkpt lat="39.25562000200236" lon="-106.35194500247032">
    <ele>3012.42</ele>
   </trkpt>
   <trkpt lat="39.255390000000006" lon="-106.35264000000001">
    <ele>3014.76</ele>
   </trkpt>
   <trkpt lat="39.25542" lon="-106.35361">
    <ele>3018.61</ele>
   </trkpt>
   <trkpt lat="39.25536" lon="-106.35402">
    <ele>3019.3100000000004</ele>
   </trkpt>
   <trkpt lat="39.255010000000006" lon="-106.35495">
    <ele>3021.59</ele>
   </trkpt>
   <trkpt lat="39.25493" lon="-106.3554">
    <ele>3022.25</ele>
   </trkpt>
   <trkpt lat="39.25482" lon="-106.35562">
    <ele>3022.78</ele>
   </trkpt>
   <trkpt lat="39.25466" lon="-106.35577">
    <ele>3023.1800000000003</ele>
   </trkpt>
   <trkpt lat="39.25453" lon="-106.35585">
    <ele>3023.9300000000003</ele>
   </trkpt>
   <trkpt lat="39.25412" lon="-106.35594">
    <ele>3024.57</ele>
   </trkpt>
   <trkpt lat="39.25397" lon="-106.35594">
    <ele>3024.41</ele>
   </trkpt>
   <trkpt lat="39.253840000000004" lon="-106.35598">
    <ele>3024.11</ele>
   </trkpt>
   <trkpt lat="39.2535" lon="-106.35625">
    <ele>3022.76</ele>
   </trkpt>
   <trkpt lat="39.253150000000005" lon="-106.35634">
    <ele>3020.35</ele>
   </trkpt>
   <trkpt lat="39.25283" lon="-106.35635">
    <ele>3019.1000000000004</ele>
   </trkpt>
   <trkpt lat="39.25271" lon="-106.35639">
    <ele>3018.54</ele>
   </trkpt>
   <trkpt lat="39.252500000000005" lon="-106.35667000000001">
    <ele>3017.65</ele>
   </trkpt>
   <trkpt lat="39.252460000000006" lon="-106.35683">
    <ele>3017.65</ele>
   </trkpt>
   <trkpt lat="39.25245" lon="-106.35706">
    <ele>3017.44</ele>
   </trkpt>
   <trkpt lat="39.252500000000005" lon="-106.35770000000001">
    <ele>3017.4700000000003</ele>
   </trkpt>
   <trkpt lat="39.252590000000005" lon="-106.35806000000001">
    <ele>3017.53</ele>
   </trkpt>
   <trkpt lat="39.25282" lon="-106.35877">
    <ele>3018.6800000000003</ele>
   </trkpt>
   <trkpt lat="39.252860000000005" lon="-106.35903">
    <ele>3019.02</ele>
   </trkpt>
   <trkpt lat="39.253060000000005" lon="-106.35974">
    <ele>3020.82</ele>
   </trkpt>
   <trkpt lat="39.25314000158493" lon="-106.36034999925754">
    <ele>3024.2000000000003</ele>
   </trkpt>
   <trkpt lat="39.253220000000006" lon="-106.36096">
    <ele>3025.52</ele>
   </trkpt>
   <trkpt lat="39.253220000000006" lon="-106.36098000000001">
    <ele>3025.52</ele>
   </trkpt>
   <trkpt lat="39.25327" lon="-106.36127">
    <ele>3026.06</ele>
   </trkpt>
   <trkpt lat="39.253890000000006" lon="-106.36128000000001">
    <ele>3027.53</ele>
   </trkpt>
   <trkpt lat="39.2539" lon="-106.36128000000001">
    <ele>3027.53</ele>
   </trkpt>
   <trkpt lat="39.254355000214396" lon="-106.3612949999097">
    <ele>3027.4700000000003</ele>
   </trkpt>
   <trkpt lat="39.254810000000006" lon="-106.36131">
    <ele>3027.15</ele>
   </trkpt>
   <trkpt lat="39.255140000000004" lon="-106.36144">
    <ele>3028.1600000000003</ele>
   </trkpt>
   <trkpt lat="39.25546000000001" lon="-106.36149">
    <ele>3027.9900000000002</ele>
   </trkpt>
   <trkpt lat="39.255630000000004" lon="-106.36141">
    <ele>3027.69</ele>
   </trkpt>
   <trkpt lat="39.255970000000005" lon="-106.36097000000001">
    <ele>3026.18</ele>
   </trkpt>
   <trkpt lat="39.25632" lon="-106.36059">
    <ele>3024.55</ele>
   </trkpt>
   <trkpt lat="39.25693500129286" lon="-106.36003000495612">
    <ele>3022.81</ele>
   </trkpt>
   <trkpt lat="39.25755" lon="-106.35947">
    <ele>3022.4100000000003</ele>
   </trkpt>
   <trkpt lat="39.25797" lon="-106.35920000000002">
    <ele>3022.15</ele>
   </trkpt>
   <trkpt lat="39.258010000000006" lon="-106.35934">
    <ele>3020.89</ele>
   </trkpt>
   <trkpt lat="39.258230000000005" lon="-106.35961">
    <ele>3019.2400000000002</ele>
   </trkpt>
   <trkpt lat="39.25827" lon="-106.35971">
    <ele>3018.28</ele>
   </trkpt>
   <trkpt lat="39.258250000000004" lon="-106.35990000000001">
    <ele>3016.1300000000006</ele>
   </trkpt>
   <trkpt lat="39.25824" lon="-106.35991000000001">
    <ele>3016.1300000000006</ele>
   </trkpt>
   <trkpt lat="39.258190000000006" lon="-106.36006">
    <ele>3014.99</ele>
   </trkpt>
   <trkpt lat="39.25797" lon="-106.36046">
    <ele>3013.7500000000005</ele>
   </trkpt>
   <trkpt lat="39.25793" lon="-106.36068">
    <ele>3013.37</ele>
   </trkpt>
   <trkpt lat="39.258050000000004" lon="-106.36073">
    <ele>3012.9</ele>
   </trkpt>
   <trkpt lat="39.25818" lon="-106.36064">
    <ele>3012.59</ele>
   </trkpt>
   <trkpt lat="39.2586" lon="-106.36021000000001">
    <ele>3012.57</ele>
   </trkpt>
   <trkpt lat="39.25882" lon="-106.36006">
    <ele>3012.38</ele>
   </trkpt>
   <trkpt lat="39.25894" lon="-106.35988">
    <ele>3011.9700000000003</ele>
   </trkpt>
   <trkpt lat="39.25905" lon="-106.35949000000001">
    <ele>3012.1900000000005</ele>
   </trkpt>
   <trkpt lat="39.259330000000006" lon="-106.35907">
    <ele>3013.13</ele>
   </trkpt>
   <trkpt lat="39.25945" lon="-106.35862">
    <ele>3013.1500000000005</ele>
   </trkpt>
   <trkpt lat="39.25954" lon="-106.35844">
    <ele>3012.78</ele>
   </trkpt>
   <trkpt lat="39.25965" lon="-106.35832">
    <ele>3012.55</ele>
   </trkpt>
   <trkpt lat="39.25997" lon="-106.35818">
    <ele>3012.69</ele>
   </trkpt>
   <trkpt lat="39.26015" lon="-106.35804">
    <ele>3012.6600000000003</ele>
   </trkpt>
   <trkpt lat="39.26034000000001" lon="-106.35782">
    <ele>3012.1000000000004</ele>
   </trkpt>
   <trkpt lat="39.26042" lon="-106.35786">
    <ele>3012.1000000000004</ele>
   </trkpt>
   <trkpt lat="39.260470000000005" lon="-106.35794000000001">
    <ele>3011.88</ele>
   </trkpt>
   <trkpt lat="39.260650000000005" lon="-106.35804">
    <ele>3012.1600000000003</ele>
   </trkpt>
   <trkpt lat="39.260740000000006" lon="-106.35818">
    <ele>3012.7400000000002</ele>
   </trkpt>
   <trkpt lat="39.26086" lon="-106.35849">
    <ele>3013.11</ele>
   </trkpt>
   <trkpt lat="39.260940000000005" lon="-106.3585">
    <ele>3013.17</ele>
   </trkpt>
   <trkpt lat="39.261100000000006" lon="-106.35835000000002">
    <ele>3013.11</ele>
   </trkpt>
   <trkpt lat="39.261250000000004" lon="-106.35813">
    <ele>3012.71</ele>
   </trkpt>
   <trkpt lat="39.26138" lon="-106.35797000000001">
    <ele>3012.0600000000004</ele>
   </trkpt>
   <trkpt lat="39.26187" lon="-106.35782">
    <ele>3011.8</ele>
   </trkpt>
   <trkpt lat="39.26218" lon="-106.35764">
    <ele>3011.4300000000003</ele>
   </trkpt>
   <trkpt lat="39.26239" lon="-106.35728">
    <ele>3012.11</ele>
   </trkpt>
   <trkpt lat="39.262420000000006" lon="-106.35701">
    <ele>3011.9500000000003</ele>
   </trkpt>
   <trkpt lat="39.26254" lon="-106.35683">
    <ele>3011.88</ele>
   </trkpt>
   <trkpt lat="39.262640000000005" lon="-106.35657">
    <ele>3012.14</ele>
   </trkpt>
   <trkpt lat="39.262660000000004" lon="-106.35638000000002">
    <ele>3012.15</ele>
   </trkpt>
   <trkpt lat="39.262820000000005" lon="-106.35594">
    <ele>3011.4</ele>
   </trkpt>
   <trkpt lat="39.262840000000004" lon="-106.3558">
    <ele>3011.4500000000003</ele>
   </trkpt>
   <trkpt lat="39.26278000000001" lon="-106.35571">
    <ele>3011.67</ele>
   </trkpt>
   <trkpt lat="39.26306" lon="-106.35545">
    <ele>3010.7000000000003</ele>
   </trkpt>
   <trkpt lat="39.263220000000004" lon="-106.3554">
    <ele>3010.85</ele>
   </trkpt>
   <trkpt lat="39.2635" lon="-106.35559">
    <ele>3012.2200000000003</ele>
   </trkpt>
   <trkpt lat="39.2637" lon="-106.35558">
    <ele>3012.8100000000004</ele>
   </trkpt>
   <trkpt lat="39.263940000000005" lon="-106.35545">
    <ele>3012.8100000000004</ele>
   </trkpt>
   <trkpt lat="39.26424" lon="-106.35523">
    <ele>3012.69</ele>
   </trkpt>
   <trkpt lat="39.26458" lon="-106.35477">
    <ele>3012.01</ele>
   </trkpt>
   <trkpt lat="39.26485" lon="-106.35455">
    <ele>3011.9100000000003</ele>
   </trkpt>
   <trkpt lat="39.264970000000005" lon="-106.35452000000001">
    <ele>3012.2200000000003</ele>
   </trkpt>
   <trkpt lat="39.26523" lon="-106.35451">
    <ele>3012.3400000000006</ele>
   </trkpt>
   <trkpt lat="39.265330000000006" lon="-106.35446">
    <ele>3012.1300000000006</ele>
   </trkpt>
   <trkpt lat="39.265690000000006" lon="-106.35402">
    <ele>3011.7900000000004</ele>
   </trkpt>
   <trkpt lat="39.26578000000001" lon="-106.35397">
    <ele>3011.8600000000006</ele>
   </trkpt>
   <trkpt lat="39.26633" lon="-106.35383">
    <ele>3011.54</ele>
   </trkpt>
   <trkpt lat="39.2668" lon="-106.35355000000001">
    <ele>3012.0400000000004</ele>
   </trkpt>
   <trkpt lat="39.26719000000001" lon="-106.35321">
    <ele>3011.9700000000003</ele>
   </trkpt>
   <trkpt lat="39.267610000000005" lon="-106.35303">
    <ele>3012.01</ele>
   </trkpt>
   <trkpt lat="39.26793" lon="-106.35307">
    <ele>3011.9200000000005</ele>
   </trkpt>
   <trkpt lat="39.26811" lon="-106.35318000000001">
    <ele>3012.32</ele>
   </trkpt>
   <trkpt lat="39.268190000000004" lon="-106.35325">
    <ele>3012.32</ele>
   </trkpt>
   <trkpt lat="39.268440000000005" lon="-106.35334">
    <ele>3013.05</ele>
   </trkpt>
   <trkpt lat="39.268570000000004" lon="-106.35334">
    <ele>3012.9700000000003</ele>
   </trkpt>
   <trkpt lat="39.2687" lon="-106.35326">
    <ele>3012.5400000000004</ele>
   </trkpt>
   <trkpt lat="39.268840000000004" lon="-106.35325">
    <ele>3011.94</ele>
   </trkpt>
   <trkpt lat="39.26896" lon="-106.35317">
    <ele>3011.75</ele>
   </trkpt>
   <trkpt lat="39.26919" lon="-106.35316">
    <ele>3011.7400000000002</ele>
   </trkpt>
   <trkpt lat="39.26937" lon="-106.35321">
    <ele>3012.0400000000004</ele>
   </trkpt>
   <trkpt lat="39.26962" lon="-106.35318000000001">
    <ele>3011.6800000000003</ele>
   </trkpt>
   <trkpt lat="39.269850000000005" lon="-106.35298">
    <ele>3011.27</ele>
   </trkpt>
   <trkpt lat="39.26997" lon="-106.35303">
    <ele>3011.2500000000005</ele>
   </trkpt>
   <trkpt lat="39.270070000000004" lon="-106.35312">
    <ele>3011.3</ele>
   </trkpt>
   <trkpt lat="39.270320000000005" lon="-106.35379">
    <ele>3011.88</ele>
   </trkpt>
   <trkpt lat="39.27051" lon="-106.35406">
    <ele>3011.9100000000003</ele>
   </trkpt>
   <trkpt lat="39.270700000000005" lon="-106.35421000000001">
    <ele>3012.26</ele>
   </trkpt>
   <trkpt lat="39.27105" lon="-106.35428">
    <ele>3012.0600000000004</ele>
   </trkpt>
   <trkpt lat="39.27121" lon="-106.35428">
    <ele>3011.8500000000004</ele>
   </trkpt>
   <trkpt lat="39.271330000000006" lon="-106.35421000000001">
    <ele>3011.9300000000003</ele>
   </trkpt>
   <trkpt lat="39.271440000000005" lon="-106.35424">
    <ele>3011.9300000000003</ele>
   </trkpt>
   <trkpt lat="39.27159" lon="-106.35429">
    <ele>3011.75</ele>
   </trkpt>
   <trkpt lat="39.271930000000005" lon="-106.35451">
    <ele>3012.09</ele>
   </trkpt>
   <trkpt lat="39.272110000000005" lon="-106.35477">
    <ele>3011.82</ele>
   </trkpt>
   <trkpt lat="39.27232" lon="-106.35487">
    <ele>3012.02</ele>
   </trkpt>
   <trkpt lat="39.27243" lon="-106.35497000000001">
    <ele>3012.0000000000005</ele>
   </trkpt>
   <trkpt lat="39.27264" lon="-106.35509">
    <ele>3011.8300000000004</ele>
   </trkpt>
   <trkpt lat="39.27272000000001" lon="-106.35522">
    <ele>3011.7100000000005</ele>
   </trkpt>
   <trkpt lat="39.273210000000006" lon="-106.35571">
    <ele>3012.07</ele>
   </trkpt>
   <trkpt lat="39.27356" lon="-106.35589">
    <ele>3012.1600000000003</ele>
   </trkpt>
   <trkpt lat="39.273770000000006" lon="-106.35603">
    <ele>3012.3700000000003</ele>
   </trkpt>
   <trkpt lat="39.273900000000005" lon="-106.35609000000001">
    <ele>3011.9300000000003</ele>
   </trkpt>
   <trkpt lat="39.274170000000005" lon="-106.35638000000002">
    <ele>3012.23</ele>
   </trkpt>
   <trkpt lat="39.27445" lon="-106.3571">
    <ele>3012.3300000000004</ele>
   </trkpt>
   <trkpt lat="39.27465" lon="-106.35741000000002">
    <ele>3012.48</ele>
   </trkpt>
   <trkpt lat="39.27479" lon="-106.35765">
    <ele>3012.48</ele>
   </trkpt>
   <trkpt lat="39.27499" lon="-106.35791">
    <ele>3012.65</ele>
   </trkpt>
   <trkpt lat="39.27526" lon="-106.35814">
    <ele>3012.48</ele>
   </trkpt>
   <trkpt lat="39.27534" lon="-106.35827">
    <ele>3012.6100000000006</ele>
   </trkpt>
   <trkpt lat="39.2755" lon="-106.35837000000001">
    <ele>3013.31</ele>
   </trkpt>
   <trkpt lat="39.27554000000001" lon="-106.35853">
    <ele>3014.67</ele>
   </trkpt>
   <trkpt lat="39.27555" lon="-106.35872">
    <ele>3015.13</ele>
   </trkpt>
   <trkpt lat="39.27561" lon="-106.35903">
    <ele>3015.23</ele>
   </trkpt>
   <trkpt lat="39.27582" lon="-106.35979">
    <ele>3014.73</ele>
   </trkpt>
   <trkpt lat="39.27606" lon="-106.36074">
    <ele>3015.9200000000005</ele>
   </trkpt>
   <trkpt lat="39.27609" lon="-106.36091">
    <ele>3016.4700000000003</ele>
   </trkpt>
   <trkpt lat="39.27629" lon="-106.36118">
    <ele>3016.21</ele>
   </trkpt>
   <trkpt lat="39.276340000000005" lon="-106.36136">
    <ele>3016.3700000000003</ele>
   </trkpt>
   <trkpt lat="39.276410000000006" lon="-106.36203">
    <ele>3016.6600000000003</ele>
   </trkpt>
   <trkpt lat="39.27647" lon="-106.36244">
    <ele>3014.55</ele>
   </trkpt>
   <trkpt lat="39.27646" lon="-106.36274">
    <ele>3014.24</ele>
   </trkpt>
   <trkpt lat="39.27648000000001" lon="-106.36303000000001">
    <ele>3014.5000000000005</ele>
   </trkpt>
   <trkpt lat="39.27648000000001" lon="-106.36364">
    <ele>3013.92</ele>
   </trkpt>
   <trkpt lat="39.276450000000004" lon="-106.36382">
    <ele>3014.2900000000004</ele>
   </trkpt>
   <trkpt lat="39.276540000000004" lon="-106.36409">
    <ele>3015.08</ele>
   </trkpt>
   <trkpt lat="39.27655" lon="-106.3644">
    <ele>3014.82</ele>
   </trkpt>
   <trkpt lat="39.27649" lon="-106.36503">
    <ele>3014.9100000000003</ele>
   </trkpt>
   <trkpt lat="39.27648000000001" lon="-106.36529">
    <ele>3015.6200000000003</ele>
   </trkpt>
   <trkpt lat="39.27642" lon="-106.36552">
    <ele>3015.6600000000003</ele>
   </trkpt>
   <trkpt lat="39.276390000000006" lon="-106.36574">
    <ele>3015.57</ele>
   </trkpt>
   <trkpt lat="39.2764" lon="-106.36619">
    <ele>3015.33</ele>
   </trkpt>
   <trkpt lat="39.276430000000005" lon="-106.36642">
    <ele>3015.6200000000003</ele>
   </trkpt>
   <trkpt lat="39.276390000000006" lon="-106.36664">
    <ele>3015.54</ele>
   </trkpt>
   <trkpt lat="39.276340000000005" lon="-106.36677">
    <ele>3015.08</ele>
   </trkpt>
   <trkpt lat="39.27626" lon="-106.36746000000001">
    <ele>3014.52</ele>
   </trkpt>
   <trkpt lat="39.276250000000005" lon="-106.36779000000001">
    <ele>3013.86</ele>
   </trkpt>
   <trkpt lat="39.27628" lon="-106.36829">
    <ele>3015.03</ele>
   </trkpt>
   <trkpt lat="39.276250000000005" lon="-106.36865">
    <ele>3014.99</ele>
   </trkpt>
   <trkpt lat="39.276250000000005" lon="-106.3695">
    <ele>3015.9700000000003</ele>
   </trkpt>
   <trkpt lat="39.2762" lon="-106.36986">
    <ele>3015.6600000000003</ele>
   </trkpt>
   <trkpt lat="39.27622" lon="-106.37026">
    <ele>3014.58</ele>
   </trkpt>
   <trkpt lat="39.27617" lon="-106.37053">
    <ele>3014.09</ele>
   </trkpt>
   <trkpt lat="39.27608" lon="-106.37085">
    <ele>3013.4100000000003</ele>
   </trkpt>
   <trkpt lat="39.27608" lon="-106.37134">
    <ele>3016.29</ele>
   </trkpt>
   <trkpt lat="39.276140000000005" lon="-106.37156">
    <ele>3016.2000000000003</ele>
   </trkpt>
   <trkpt lat="39.27615" lon="-106.37174">
    <ele>3016.14</ele>
   </trkpt>
   <trkpt lat="39.27602" lon="-106.37214">
    <ele>3015.94</ele>
   </trkpt>
   <trkpt lat="39.276" lon="-106.37268">
    <ele>3017.7400000000002</ele>
   </trkpt>
   <trkpt lat="39.275980000000004" lon="-106.37286">
    <ele>3017.79</ele>
   </trkpt>
   <trkpt lat="39.27591" lon="-106.37313">
    <ele>3017.46</ele>
   </trkpt>
   <trkpt lat="39.27597" lon="-106.37412">
    <ele>3016.96</ele>
   </trkpt>
   <trkpt lat="39.275920000000006" lon="-106.37425">
    <ele>3016.11</ele>
   </trkpt>
   <trkpt lat="39.27591" lon="-106.37434">
    <ele>3016.0000000000005</ele>
   </trkpt>
   <trkpt lat="39.275920000000006" lon="-106.37457">
    <ele>3016.4900000000002</ele>
   </trkpt>
   <trkpt lat="39.27586" lon="-106.37492">
    <ele>3017.01</ele>
   </trkpt>
   <trkpt lat="39.2759" lon="-106.37498000000001">
    <ele>3016.83</ele>
   </trkpt>
   <trkpt lat="39.27595" lon="-106.37519">
    <ele>3015.9</ele>
   </trkpt>
   <trkpt lat="39.275890000000004" lon="-106.37543000000001">
    <ele>3015.94</ele>
   </trkpt>
   <trkpt lat="39.27584" lon="-106.37555">
    <ele>3016.28</ele>
   </trkpt>
   <trkpt lat="39.275850000000005" lon="-106.37564">
    <ele>3016.5</ele>
   </trkpt>
   <trkpt lat="39.275780000000005" lon="-106.37613">
    <ele>3019.02</ele>
   </trkpt>
   <trkpt lat="39.27581" lon="-106.37622">
    <ele>3020.6000000000004</ele>
   </trkpt>
   <trkpt lat="39.27581" lon="-106.37631">
    <ele>3020.96</ele>
   </trkpt>
   <trkpt lat="39.27584" lon="-106.37636">
    <ele>3021.28</ele>
   </trkpt>
   <trkpt lat="39.27584" lon="-106.37659000000001">
    <ele>3022.4300000000003</ele>
   </trkpt>
   <trkpt lat="39.275870000000005" lon="-106.37693000000002">
    <ele>3025.46</ele>
   </trkpt>
   <trkpt lat="39.275850000000005" lon="-106.37707">
    <ele>3025.91</ele>
   </trkpt>
   <trkpt lat="39.275870000000005" lon="-106.37717">
    <ele>3026.32</ele>
   </trkpt>
   <trkpt lat="39.275850000000005" lon="-106.37747">
    <ele>3028.3300000000004</ele>
   </trkpt>
   <trkpt lat="39.27586" lon="-106.3777">
    <ele>3030.53</ele>
   </trkpt>
   <trkpt lat="39.27581" lon="-106.3781">
    <ele>3030.31</ele>
   </trkpt>
   <trkpt lat="39.27579" lon="-106.37913">
    <ele>3030.75</ele>
   </trkpt>
   <trkpt lat="39.27572" lon="-106.37958">
    <ele>3028.09</ele>
   </trkpt>
   <trkpt lat="39.2757" lon="-106.38007">
    <ele>3025.86</ele>
   </trkpt>
   <trkpt lat="39.27563000000001" lon="-106.38102">
    <ele>3023.5200000000004</ele>
   </trkpt>
   <trkpt lat="39.27555" lon="-106.38138000000001">
    <ele>3023.4500000000003</ele>
   </trkpt>
   <trkpt lat="39.275560000000006" lon="-106.38152000000001">
    <ele>3023.3100000000004</ele>
   </trkpt>
   <trkpt lat="39.27544" lon="-106.38173">
    <ele>3022.42</ele>
   </trkpt>
   <trkpt lat="39.27535" lon="-106.38271">
    <ele>3016.2400000000002</ele>
   </trkpt>
   <trkpt lat="39.27526" lon="-106.38325">
    <ele>3014.69</ele>
   </trkpt>
   <trkpt lat="39.27525" lon="-106.38347">
    <ele>3015.67</ele>
   </trkpt>
   <trkpt lat="39.275180000000006" lon="-106.38365">
    <ele>3015.75</ele>
   </trkpt>
   <trkpt lat="39.27503" lon="-106.38383">
    <ele>3014.96</ele>
   </trkpt>
   <trkpt lat="39.274890000000006" lon="-106.38406">
    <ele>3014.54</ele>
   </trkpt>
   <trkpt lat="39.2747" lon="-106.38473">
    <ele>3015.55</ele>
   </trkpt>
   <trkpt lat="39.274620000000006" lon="-106.38513">
    <ele>3015.13</ele>
   </trkpt>
   <trkpt lat="39.274530000000006" lon="-106.3854">
    <ele>3015.34</ele>
   </trkpt>
   <trkpt lat="39.2745" lon="-106.38607">
    <ele>3016.0600000000004</ele>
   </trkpt>
   <trkpt lat="39.274440000000006" lon="-106.38616">
    <ele>3015.9</ele>
   </trkpt>
   <trkpt lat="39.27443" lon="-106.38653000000001">
    <ele>3015.5600000000004</ele>
   </trkpt>
   <trkpt lat="39.27438" lon="-106.38683">
    <ele>3014.9500000000003</ele>
   </trkpt>
   <trkpt lat="39.27449" lon="-106.38723">
    <ele>3016.6000000000004</ele>
   </trkpt>
   <trkpt lat="39.27458" lon="-106.38799">
    <ele>3017.6000000000004</ele>
   </trkpt>
   <trkpt lat="39.27459" lon="-106.38810000000001">
    <ele>3017.38</ele>
   </trkpt>
   <trkpt lat="39.27454" lon="-106.38822">
    <ele>3016.2500000000005</ele>
   </trkpt>
   <trkpt lat="39.27454" lon="-106.38868000000001">
    <ele>3015.33</ele>
   </trkpt>
   <trkpt lat="39.274640000000005" lon="-106.38943">
    <ele>3016.7300000000005</ele>
   </trkpt>
   <trkpt lat="39.2747" lon="-106.38969">
    <ele>3017.4500000000003</ele>
   </trkpt>
   <trkpt lat="39.274660000000004" lon="-106.38978">
    <ele>3017.6200000000003</ele>
   </trkpt>
   <trkpt lat="39.27483" lon="-106.39037">
    <ele>3020.1200000000003</ele>
   </trkpt>
   <trkpt lat="39.274865001779396" lon="-106.39101499968282">
    <ele>3018.5000000000005</ele>
   </trkpt>
   <trkpt lat="39.2749" lon="-106.39166">
    <ele>3018.33</ele>
   </trkpt>
   <trkpt lat="39.27499" lon="-106.39212">
    <ele>3019.96</ele>
   </trkpt>
   <trkpt lat="39.27501" lon="-106.39256">
    <ele>3021.6000000000004</ele>
   </trkpt>
   <trkpt lat="39.275150000000004" lon="-106.39307000000001">
    <ele>3025.4800000000005</ele>
   </trkpt>
   <trkpt lat="39.27516000000001" lon="-106.39324">
    <ele>3025.98</ele>
   </trkpt>
   <trkpt lat="39.27528" lon="-106.39337">
    <ele>3026.32</ele>
   </trkpt>
   <trkpt lat="39.275310000000005" lon="-106.39363">
    <ele>3025.9</ele>
   </trkpt>
   <trkpt lat="39.275240000000004" lon="-106.3939">
    <ele>3023.6500000000005</ele>
   </trkpt>
   <trkpt lat="39.27534" lon="-106.39395">
    <ele>3023.4400000000005</ele>
   </trkpt>
   <trkpt lat="39.275380000000006" lon="-106.39413">
    <ele>3024.6000000000004</ele>
   </trkpt>
   <trkpt lat="39.275380000000006" lon="-106.39466">
    <ele>3024.6700000000005</ele>
   </trkpt>
   <trkpt lat="39.27544" lon="-106.39493">
    <ele>3023.34</ele>
   </trkpt>
   <trkpt lat="39.27544" lon="-106.39507">
    <ele>3021.9900000000002</ele>
   </trkpt>
   <trkpt lat="39.27539" lon="-106.39538">
    <ele>3020.6000000000004</ele>
   </trkpt>
   <trkpt lat="39.275450000000006" lon="-106.39552">
    <ele>3020.23</ele>
   </trkpt>
   <trkpt lat="39.27548" lon="-106.39596">
    <ele>3019.5800000000004</ele>
   </trkpt>
   <trkpt lat="39.27546" lon="-106.39605">
    <ele>3020.29</ele>
   </trkpt>
   <trkpt lat="39.27535" lon="-106.39619">
    <ele>3020.82</ele>
   </trkpt>
   <trkpt lat="39.27534" lon="-106.39665000000001">
    <ele>3018.6400000000003</ele>
   </trkpt>
   <trkpt lat="39.2753" lon="-106.39695">
    <ele>3017.34</ele>
   </trkpt>
   <trkpt lat="39.27521" lon="-106.39708">
    <ele>3017.04</ele>
   </trkpt>
   <trkpt lat="39.27517" lon="-106.39726">
    <ele>3016.83</ele>
   </trkpt>
   <trkpt lat="39.27512" lon="-106.3974">
    <ele>3016.83</ele>
   </trkpt>
   <trkpt lat="39.27512" lon="-106.39784">
    <ele>3017.3</ele>
   </trkpt>
   <trkpt lat="39.27508" lon="-106.39811">
    <ele>3016.77</ele>
   </trkpt>
   <trkpt lat="39.275110000000005" lon="-106.39901">
    <ele>3016.4600000000005</ele>
   </trkpt>
   <trkpt lat="39.275220000000004" lon="-106.39954">
    <ele>3017.2700000000004</ele>
   </trkpt>
   <trkpt lat="39.27534" lon="-106.39999">
    <ele>3018.15</ele>
   </trkpt>
   <trkpt lat="39.27543" lon="-106.40044">
    <ele>3017.25</ele>
   </trkpt>
   <trkpt lat="39.275490000000005" lon="-106.40090000000001">
    <ele>3017.26</ele>
   </trkpt>
   <trkpt lat="39.27553" lon="-106.40104000000001">
    <ele>3017.43</ele>
   </trkpt>
   <trkpt lat="39.275560000000006" lon="-106.40138">
    <ele>3017.5</ele>
   </trkpt>
   <trkpt lat="39.27555" lon="-106.40156">
    <ele>3017.09</ele>
   </trkpt>
   <trkpt lat="39.275710000000004" lon="-106.40232">
    <ele>3014.67</ele>
   </trkpt>
   <trkpt lat="39.27582" lon="-106.40277">
    <ele>3015.8500000000004</ele>
   </trkpt>
   <trkpt lat="39.276" lon="-106.40313">
    <ele>3019.19</ele>
   </trkpt>
   <trkpt lat="39.27609" lon="-106.40335">
    <ele>3020.2400000000002</ele>
   </trkpt>
   <trkpt lat="39.27615" lon="-106.40341000000001">
    <ele>3020.82</ele>
   </trkpt>
   <trkpt lat="39.27619" lon="-106.40353">
    <ele>3021.02</ele>
   </trkpt>
   <trkpt lat="39.276250000000005" lon="-106.40384">
    <ele>3020.9100000000003</ele>
   </trkpt>
   <trkpt lat="39.27635" lon="-106.40411">
    <ele>3019.7000000000003</ele>
   </trkpt>
   <trkpt lat="39.27631" lon="-106.40438">
    <ele>3019.21</ele>
   </trkpt>
   <trkpt lat="39.276340000000005" lon="-106.40474">
    <ele>3017.2400000000002</ele>
   </trkpt>
   <trkpt lat="39.276520000000005" lon="-106.40536">
    <ele>3018.2900000000004</ele>
   </trkpt>
   <trkpt lat="39.27655" lon="-106.40554">
    <ele>3018.53</ele>
   </trkpt>
   <trkpt lat="39.276540000000004" lon="-106.40572">
    <ele>3019.19</ele>
   </trkpt>
   <trkpt lat="39.27662" lon="-106.40604">
    <ele>3019.4700000000003</ele>
   </trkpt>
   <trkpt lat="39.276680000000006" lon="-106.40613">
    <ele>3019.0400000000004</ele>
   </trkpt>
   <trkpt lat="39.27676" lon="-106.4064">
    <ele>3018.04</ele>
   </trkpt>
   <trkpt lat="39.276830000000004" lon="-106.40695000000001">
    <ele>3014.6</ele>
   </trkpt>
   <trkpt lat="39.276830000000004" lon="-106.40748">
    <ele>3014.07</ele>
   </trkpt>
   <trkpt lat="39.2768" lon="-106.40769">
    <ele>3015.6200000000003</ele>
   </trkpt>
   <trkpt lat="39.27685" lon="-106.40819">
    <ele>3016.6000000000004</ele>
   </trkpt>
   <trkpt lat="39.276810000000005" lon="-106.40877">
    <ele>3015.88</ele>
   </trkpt>
   <trkpt lat="39.27682" lon="-106.40913">
    <ele>3015.69</ele>
   </trkpt>
   <trkpt lat="39.27689" lon="-106.40945">
    <ele>3016.9500000000003</ele>
   </trkpt>
   <trkpt lat="39.276900000000005" lon="-106.4098">
    <ele>3016.83</ele>
   </trkpt>
   <trkpt lat="39.27694" lon="-106.40989">
    <ele>3016.7200000000003</ele>
   </trkpt>
   <trkpt lat="39.277010000000004" lon="-106.41047">
    <ele>3015.51</ele>
   </trkpt>
   <trkpt lat="39.277080000000005" lon="-106.41075000000001">
    <ele>3015.35</ele>
   </trkpt>
   <trkpt lat="39.277060000000006" lon="-106.41133">
    <ele>3014.0800000000004</ele>
   </trkpt>
   <trkpt lat="39.27711" lon="-106.41145">
    <ele>3014.21</ele>
   </trkpt>
   <trkpt lat="39.27713000000001" lon="-106.41172">
    <ele>3014.66</ele>
   </trkpt>
   <trkpt lat="39.277170000000005" lon="-106.41192000000001">
    <ele>3015.5000000000005</ele>
   </trkpt>
   <trkpt lat="39.277190000000004" lon="-106.41227">
    <ele>3017.07</ele>
   </trkpt>
   <trkpt lat="39.277170000000005" lon="-106.41245">
    <ele>3017.25</ele>
   </trkpt>
   <trkpt lat="39.277190000000004" lon="-106.41267">
    <ele>3017.01</ele>
   </trkpt>
   <trkpt lat="39.27714" lon="-106.41307">
    <ele>3015.23</ele>
   </trkpt>
   <trkpt lat="39.277120000000004" lon="-106.41351">
    <ele>3015.76</ele>
   </trkpt>
   <trkpt lat="39.27716" lon="-106.41365">
    <ele>3015.9200000000005</ele>
   </trkpt>
   <trkpt lat="39.277190000000004" lon="-106.41405">
    <ele>3016.57</ele>
   </trkpt>
   <trkpt lat="39.277060000000006" lon="-106.41499">
    <ele>3016.28</ele>
   </trkpt>
   <trkpt lat="39.276990000000005" lon="-106.41535">
    <ele>3016.5800000000004</ele>
   </trkpt>
   <trkpt lat="39.277" lon="-106.41566">
    <ele>3016.3400000000006</ele>
   </trkpt>
   <trkpt lat="39.27693" lon="-106.41589">
    <ele>3016.71</ele>
   </trkpt>
   <trkpt lat="39.27693" lon="-106.41606">
    <ele>3016.76</ele>
   </trkpt>
   <trkpt lat="39.276880000000006" lon="-106.41653000000001">
    <ele>3017.91</ele>
   </trkpt>
   <trkpt lat="39.27689" lon="-106.41678">
    <ele>3018.05</ele>
   </trkpt>
   <trkpt lat="39.27684" lon="-106.41711000000001">
    <ele>3017.13</ele>
   </trkpt>
   <trkpt lat="39.276790000000005" lon="-106.41777">
    <ele>3015.27</ele>
   </trkpt>
   <trkpt lat="39.276770000000006" lon="-106.41786">
    <ele>3015.27</ele>
   </trkpt>
   <trkpt lat="39.27678" lon="-106.41809">
    <ele>3014.9</ele>
   </trkpt>
   <trkpt lat="39.276740000000004" lon="-106.41892000000001">
    <ele>3014.01</ele>
   </trkpt>
   <trkpt lat="39.27675" lon="-106.41915">
    <ele>3013.91</ele>
   </trkpt>
   <trkpt lat="39.27678" lon="-106.41938">
    <ele>3014.07</ele>
   </trkpt>
   <trkpt lat="39.276770000000006" lon="-106.41953000000001">
    <ele>3014.06</ele>
   </trkpt>
   <trkpt lat="39.27695000000001" lon="-106.42002000000001">
    <ele>3014.05</ele>
   </trkpt>
   <trkpt lat="39.276990000000005" lon="-106.42018">
    <ele>3013.67</ele>
   </trkpt>
   <trkpt lat="39.277170000000005" lon="-106.42054">
    <ele>3013.8700000000003</ele>
   </trkpt>
   <trkpt lat="39.277300000000004" lon="-106.42072">
    <ele>3013.9900000000002</ele>
   </trkpt>
   <trkpt lat="39.27732" lon="-106.42099">
    <ele>3014.3700000000003</ele>
   </trkpt>
   <trkpt lat="39.277440000000006" lon="-106.42118">
    <ele>3015.5000000000005</ele>
   </trkpt>
   <trkpt lat="39.277460000000005" lon="-106.42126">
    <ele>3015.8300000000004</ele>
   </trkpt>
   <trkpt lat="39.27745" lon="-106.42135">
    <ele>3015.9200000000005</ele>
   </trkpt>
   <trkpt lat="39.27749" lon="-106.42153">
    <ele>3016.63</ele>
   </trkpt>
   <trkpt lat="39.277620000000006" lon="-106.42177000000001">
    <ele>3019.27</ele>
   </trkpt>
   <trkpt lat="39.27772" lon="-106.42189">
    <ele>3021.2400000000002</ele>
   </trkpt>
   <trkpt lat="39.27778" lon="-106.42215">
    <ele>3023.19</ele>
   </trkpt>
   <trkpt lat="39.278090000000006" lon="-106.42269">
    <ele>3028.6700000000005</ele>
   </trkpt>
   <trkpt lat="39.278110000000005" lon="-106.42287">
    <ele>3029.4900000000002</ele>
   </trkpt>
   <trkpt lat="39.278090000000006" lon="-106.42311000000001">
    <ele>3029.28</ele>
   </trkpt>
   <trkpt lat="39.278110000000005" lon="-106.42333">
    <ele>3028.82</ele>
   </trkpt>
   <trkpt lat="39.2781" lon="-106.42363">
    <ele>3027.01</ele>
   </trkpt>
   <trkpt lat="39.27821" lon="-106.42385">
    <ele>3025.2200000000003</ele>
   </trkpt>
   <trkpt lat="39.278200000000005" lon="-106.42395">
    <ele>3025.51</ele>
   </trkpt>
   <trkpt lat="39.278150000000004" lon="-106.42408">
    <ele>3025.76</ele>
   </trkpt>
   <trkpt lat="39.27814" lon="-106.42421">
    <ele>3026.63</ele>
   </trkpt>
   <trkpt lat="39.278110000000005" lon="-106.42427">
    <ele>3027.1600000000003</ele>
   </trkpt>
   <trkpt lat="39.27812" lon="-106.42448">
    <ele>3030.25</ele>
   </trkpt>
   <trkpt lat="39.27816" lon="-106.42466">
    <ele>3032.0600000000004</ele>
   </trkpt>
   <trkpt lat="39.278150000000004" lon="-106.42475">
    <ele>3032.3700000000003</ele>
   </trkpt>
   <trkpt lat="39.27807000000001" lon="-106.42493">
    <ele>3032.17</ele>
   </trkpt>
   <trkpt lat="39.27807000000001" lon="-106.42502">
    <ele>3031.6200000000003</ele>
   </trkpt>
   <trkpt lat="39.27794" lon="-106.42511">
    <ele>3030.8300000000004</ele>
   </trkpt>
   <trkpt lat="39.2779" lon="-106.42526000000001">
    <ele>3029.9</ele>
   </trkpt>
   <trkpt lat="39.2779" lon="-106.42552">
    <ele>3028.51</ele>
   </trkpt>
   <trkpt lat="39.27788" lon="-106.42561">
    <ele>3028.2400000000002</ele>
   </trkpt>
   <trkpt lat="39.277950000000004" lon="-106.42587">
    <ele>3026.6800000000003</ele>
   </trkpt>
   <trkpt lat="39.27805" lon="-106.42605">
    <ele>3023.6</ele>
   </trkpt>
   <trkpt lat="39.27819" lon="-106.42655">
    <ele>3017.63</ele>
   </trkpt>
   <trkpt lat="39.278240000000004" lon="-106.42686">
    <ele>3016.3100000000004</ele>
   </trkpt>
   <trkpt lat="39.278240000000004" lon="-106.42704">
    <ele>3015.28</ele>
   </trkpt>
   <trkpt lat="39.27823" lon="-106.42712">
    <ele>3015.06</ele>
   </trkpt>
   <trkpt lat="39.27817" lon="-106.42721">
    <ele>3014.88</ele>
   </trkpt>
   <trkpt lat="39.278130000000004" lon="-106.42766">
    <ele>3013.7500000000005</ele>
   </trkpt>
   <trkpt lat="39.278150000000004" lon="-106.42784">
    <ele>3013.6800000000003</ele>
   </trkpt>
   <trkpt lat="39.278220000000005" lon="-106.42797">
    <ele>3013.82</ele>
   </trkpt>
   <trkpt lat="39.278240000000004" lon="-106.42815">
    <ele>3013.7400000000002</ele>
   </trkpt>
   <trkpt lat="39.278220000000005" lon="-106.42834">
    <ele>3013.79</ele>
   </trkpt>
   <trkpt lat="39.278150000000004" lon="-106.42851">
    <ele>3014.04</ele>
   </trkpt>
   <trkpt lat="39.27814" lon="-106.42878">
    <ele>3013.85</ele>
   </trkpt>
   <trkpt lat="39.278110000000005" lon="-106.42896">
    <ele>3013.4700000000003</ele>
   </trkpt>
   <trkpt lat="39.27805" lon="-106.42915">
    <ele>3013.4800000000005</ele>
   </trkpt>
   <trkpt lat="39.277950000000004" lon="-106.42933000000001">
    <ele>3013.9300000000003</ele>
   </trkpt>
   <trkpt lat="39.277930000000005" lon="-106.42985">
    <ele>3014.11</ele>
   </trkpt>
   <trkpt lat="39.277910000000006" lon="-106.42994">
    <ele>3014.15</ele>
   </trkpt>
   <trkpt lat="39.27785" lon="-106.42999">
    <ele>3014.12</ele>
   </trkpt>
   <trkpt lat="39.277820000000006" lon="-106.43017">
    <ele>3013.94</ele>
   </trkpt>
   <trkpt lat="39.277820000000006" lon="-106.43023000000001">
    <ele>3013.94</ele>
   </trkpt>
   <trkpt lat="39.27788" lon="-106.4304">
    <ele>3013.7</ele>
   </trkpt>
   <trkpt lat="39.277890000000006" lon="-106.43057">
    <ele>3013.4800000000005</ele>
   </trkpt>
   <trkpt lat="39.27785" lon="-106.43056000000001">
    <ele>3013.71</ele>
   </trkpt>
   <trkpt lat="39.277910000000006" lon="-106.43067">
    <ele>3013.71</ele>
   </trkpt>
   <trkpt lat="39.2779" lon="-106.43088">
    <ele>3013.8</ele>
   </trkpt>
   <trkpt lat="39.277800000000006" lon="-106.43102">
    <ele>3013.9300000000003</ele>
   </trkpt>
   <trkpt lat="39.27774" lon="-106.43112">
    <ele>3013.9300000000003</ele>
   </trkpt>
   <trkpt lat="39.278110000000005" lon="-106.43209">
    <ele>3015.4500000000003</ele>
   </trkpt>
   <trkpt lat="39.27845500452468" lon="-106.4331199948907">
    <ele>3015.78</ele>
   </trkpt>
   <trkpt lat="39.278800000000004" lon="-106.43415">
    <ele>3016.71</ele>
   </trkpt>
   <trkpt lat="39.27882" lon="-106.43433">
    <ele>3017.07</ele>
   </trkpt>
   <trkpt lat="39.278780000000005" lon="-106.43447">
    <ele>3017.07</ele>
   </trkpt>
   <trkpt lat="39.27902" lon="-106.4346">
    <ele>3018.15</ele>
   </trkpt>
   <trkpt lat="39.279160000000005" lon="-106.43482">
    <ele>3018.15</ele>
   </trkpt>
   <trkpt lat="39.27924" lon="-106.435">
    <ele>3019.11</ele>
   </trkpt>
   <trkpt lat="39.27952500308991" lon="-106.43584999654203">
    <ele>3020.5400000000004</ele>
   </trkpt>
   <trkpt lat="39.279810000000005" lon="-106.4367">
    <ele>3022.4100000000003</ele>
   </trkpt>
   <trkpt lat="39.279990000000005" lon="-106.43738">
    <ele>3023.78</ele>
   </trkpt>
   <trkpt lat="39.280260000000006" lon="-106.43818">
    <ele>3025.84</ele>
   </trkpt>
   <trkpt lat="39.2805750027182" lon="-106.43898999613208">
    <ele>3027.1800000000003</ele>
   </trkpt>
   <trkpt lat="39.28089000000001" lon="-106.4398">
    <ele>3029.9500000000003</ele>
   </trkpt>
   <trkpt lat="39.28099" lon="-106.44038">
    <ele>3031.6500000000005</ele>
   </trkpt>
   <trkpt lat="39.281220000000005" lon="-106.44114">
    <ele>3035.15</ele>
   </trkpt>
   <trkpt lat="39.281380001760475" lon="-106.44178499845125">
    <ele>3036.68</ele>
   </trkpt>
   <trkpt lat="39.28154" lon="-106.44243">
    <ele>3037.5400000000004</ele>
   </trkpt>
   <trkpt lat="39.281620000000004" lon="-106.44292000000002">
    <ele>3038.46</ele>
   </trkpt>
   <trkpt lat="39.28154" lon="-106.44243">
    <ele>3037.3500000000004</ele>
   </trkpt>
   <trkpt lat="39.28138000179794" lon="-106.44178499860223">
    <ele>3036.2500000000005</ele>
   </trkpt>
   <trkpt lat="39.281220000000005" lon="-106.44114">
    <ele>3034.7100000000005</ele>
   </trkpt>
   <trkpt lat="39.28099" lon="-106.44038">
    <ele>3030.88</ele>
   </trkpt>
   <trkpt lat="39.28089000000001" lon="-106.4398">
    <ele>3029.1200000000003</ele>
   </trkpt>
   <trkpt lat="39.280575002893634" lon="-106.43898999658317">
    <ele>3027.1800000000003</ele>
   </trkpt>
   <trkpt lat="39.280260000000006" lon="-106.43818">
    <ele>3025.4800000000005</ele>
   </trkpt>
   <trkpt lat="39.279990000000005" lon="-106.43738">
    <ele>3023.3800000000006</ele>
   </trkpt>
   <trkpt lat="39.279810000000005" lon="-106.4367">
    <ele>3021.8700000000003</ele>
   </trkpt>
   <trkpt lat="39.27952500308981" lon="-106.43584999654176">
    <ele>3020.5400000000004</ele>
   </trkpt>
   <trkpt lat="39.27924" lon="-106.435">
    <ele>3019.11</ele>
   </trkpt>
   <trkpt lat="39.279160000000005" lon="-106.43482">
    <ele>3018.15</ele>
   </trkpt>
   <trkpt lat="39.27902" lon="-106.4346">
    <ele>3017.8100000000004</ele>
   </trkpt>
   <trkpt lat="39.278780000000005" lon="-106.43447">
    <ele>3017.07</ele>
   </trkpt>
   <trkpt lat="39.27882" lon="-106.43433">
    <ele>3016.71</ele>
   </trkpt>
   <trkpt lat="39.278800000000004" lon="-106.43415">
    <ele>3016.71</ele>
   </trkpt>
   <trkpt lat="39.2784550045494" lon="-106.43311999496449">
    <ele>3015.78</ele>
   </trkpt>
   <trkpt lat="39.278110000000005" lon="-106.43209">
    <ele>3015.05</ele>
   </trkpt>
   <trkpt lat="39.27774" lon="-106.43112">
    <ele>3013.9300000000003</ele>
   </trkpt>
   <trkpt lat="39.27761" lon="-106.43084">
    <ele>3013.46</ele>
   </trkpt>
   <trkpt lat="39.277640000000005" lon="-106.43066">
    <ele>3013.3500000000004</ele>
   </trkpt>
   <trkpt lat="39.27769" lon="-106.43062">
    <ele>3013.3300000000004</ele>
   </trkpt>
   <trkpt lat="39.27785" lon="-106.43056000000001">
    <ele>3013.4800000000005</ele>
   </trkpt>
   <trkpt lat="39.277890000000006" lon="-106.43057">
    <ele>3013.7</ele>
   </trkpt>
   <trkpt lat="39.27788" lon="-106.4304">
    <ele>3013.8900000000003</ele>
   </trkpt>
   <trkpt lat="39.277820000000006" lon="-106.43023000000001">
    <ele>3014.0200000000004</ele>
   </trkpt>
   <trkpt lat="39.277820000000006" lon="-106.43017">
    <ele>3014.0200000000004</ele>
   </trkpt>
   <trkpt lat="39.27785" lon="-106.42999">
    <ele>3014.15</ele>
   </trkpt>
   <trkpt lat="39.277910000000006" lon="-106.42994">
    <ele>3014.11</ele>
   </trkpt>
   <trkpt lat="39.277930000000005" lon="-106.42985">
    <ele>3013.9500000000003</ele>
   </trkpt>
   <trkpt lat="39.277950000000004" lon="-106.42933000000001">
    <ele>3013.85</ele>
   </trkpt>
   <trkpt lat="39.27805" lon="-106.42915">
    <ele>3013.4100000000003</ele>
   </trkpt>
   <trkpt lat="39.278110000000005" lon="-106.42896">
    <ele>3013.85</ele>
   </trkpt>
   <trkpt lat="39.27814" lon="-106.42878">
    <ele>3014.05</ele>
   </trkpt>
   <trkpt lat="39.278150000000004" lon="-106.42851">
    <ele>3013.79</ele>
   </trkpt>
   <trkpt lat="39.278220000000005" lon="-106.42834">
    <ele>3013.7400000000002</ele>
   </trkpt>
   <trkpt lat="39.278240000000004" lon="-106.42815">
    <ele>3013.8700000000003</ele>
   </trkpt>
   <trkpt lat="39.278220000000005" lon="-106.42797">
    <ele>3013.6800000000003</ele>
   </trkpt>
   <trkpt lat="39.27817" lon="-106.42789">
    <ele>3013.63</ele>
   </trkpt>
   <trkpt lat="39.27817" lon="-106.42788">
    <ele>3013.63</ele>
   </trkpt>
   <trkpt lat="39.278150000000004" lon="-106.42784">
    <ele>3013.63</ele>
   </trkpt>
   <trkpt lat="39.278130000000004" lon="-106.42766">
    <ele>3013.86</ele>
   </trkpt>
   <trkpt lat="39.27817" lon="-106.42721">
    <ele>3015.06</ele>
   </trkpt>
   <trkpt lat="39.27823" lon="-106.42712">
    <ele>3015.28</ele>
   </trkpt>
   <trkpt lat="39.278240000000004" lon="-106.42704">
    <ele>3016.3100000000004</ele>
   </trkpt>
   <trkpt lat="39.278240000000004" lon="-106.42686">
    <ele>3016.89</ele>
   </trkpt>
   <trkpt lat="39.27819" lon="-106.42655">
    <ele>3019.28</ele>
   </trkpt>
   <trkpt lat="39.27805" lon="-106.42605">
    <ele>3025.9500000000003</ele>
   </trkpt>
   <trkpt lat="39.277950000000004" lon="-106.42587">
    <ele>3027.3100000000004</ele>
   </trkpt>
   <trkpt lat="39.27788" lon="-106.42561">
    <ele>3028.51</ele>
   </trkpt>
   <trkpt lat="39.2779" lon="-106.42552">
    <ele>3029.09</ele>
   </trkpt>
   <trkpt lat="39.2779" lon="-106.42526000000001">
    <ele>3030.58</ele>
   </trkpt>
   <trkpt lat="39.27794" lon="-106.42511">
    <ele>3031.39</ele>
   </trkpt>
   <trkpt lat="39.27807000000001" lon="-106.42502">
    <ele>3032.17</ele>
   </trkpt>
   <trkpt lat="39.27807000000001" lon="-106.42493">
    <ele>3032.3900000000003</ele>
   </trkpt>
   <trkpt lat="39.278150000000004" lon="-106.42475">
    <ele>3031.5900000000006</ele>
   </trkpt>
   <trkpt lat="39.27816" lon="-106.42466">
    <ele>3030.9700000000003</ele>
   </trkpt>
   <trkpt lat="39.27812" lon="-106.42448">
    <ele>3028.62</ele>
   </trkpt>
   <trkpt lat="39.278110000000005" lon="-106.42427">
    <ele>3026.2300000000005</ele>
   </trkpt>
   <trkpt lat="39.27814" lon="-106.42421">
    <ele>3025.9500000000003</ele>
   </trkpt>
   <trkpt lat="39.278150000000004" lon="-106.42408">
    <ele>3025.51</ele>
   </trkpt>
   <trkpt lat="39.278200000000005" lon="-106.42395">
    <ele>3025.2200000000003</ele>
   </trkpt>
   <trkpt lat="39.27821" lon="-106.42385">
    <ele>3025.2200000000003</ele>
   </trkpt>
   <trkpt lat="39.2781" lon="-106.42363">
    <ele>3027.9200000000005</ele>
   </trkpt>
   <trkpt lat="39.278110000000005" lon="-106.42333">
    <ele>3029.1200000000003</ele>
   </trkpt>
   <trkpt lat="39.278090000000006" lon="-106.42311000000001">
    <ele>3029.53</ele>
   </trkpt>
   <trkpt lat="39.278110000000005" lon="-106.42287">
    <ele>3029.01</ele>
   </trkpt>
   <trkpt lat="39.278090000000006" lon="-106.42269">
    <ele>3027.5200000000004</ele>
   </trkpt>
   <trkpt lat="39.27778" lon="-106.42215">
    <ele>3022.09</ele>
   </trkpt>
   <trkpt lat="39.27772" lon="-106.42189">
    <ele>3020.6400000000003</ele>
   </trkpt>
   <trkpt lat="39.277620000000006" lon="-106.42177000000001">
    <ele>3018.05</ele>
   </trkpt>
   <trkpt lat="39.27749" lon="-106.42153">
    <ele>3016.0400000000004</ele>
   </trkpt>
   <trkpt lat="39.27745" lon="-106.42135">
    <ele>3015.8300000000004</ele>
   </trkpt>
   <trkpt lat="39.277460000000005" lon="-106.42126">
    <ele>3015.5000000000005</ele>
   </trkpt>
   <trkpt lat="39.277440000000006" lon="-106.42118">
    <ele>3014.86</ele>
   </trkpt>
   <trkpt lat="39.27732" lon="-106.42099">
    <ele>3014.2300000000005</ele>
   </trkpt>
   <trkpt lat="39.277300000000004" lon="-106.42072">
    <ele>3013.98</ele>
   </trkpt>
   <trkpt lat="39.277170000000005" lon="-106.42054">
    <ele>3013.63</ele>
   </trkpt>
   <trkpt lat="39.276990000000005" lon="-106.42018">
    <ele>3013.7500000000005</ele>
   </trkpt>
   <trkpt lat="39.27695000000001" lon="-106.42002000000001">
    <ele>3014.12</ele>
   </trkpt>
   <trkpt lat="39.276770000000006" lon="-106.41953000000001">
    <ele>3014.06</ele>
   </trkpt>
   <trkpt lat="39.27678" lon="-106.41938">
    <ele>3014.04</ele>
   </trkpt>
   <trkpt lat="39.27675" lon="-106.41915">
    <ele>3013.94</ele>
   </trkpt>
   <trkpt lat="39.276740000000004" lon="-106.41892000000001">
    <ele>3014.34</ele>
   </trkpt>
   <trkpt lat="39.27678" lon="-106.41809">
    <ele>3015.06</ele>
   </trkpt>
   <trkpt lat="39.276770000000006" lon="-106.41786">
    <ele>3015.3700000000003</ele>
   </trkpt>
   <trkpt lat="39.276790000000005" lon="-106.41777">
    <ele>3015.3700000000003</ele>
   </trkpt>
   <trkpt lat="39.27684" lon="-106.41711000000001">
    <ele>3017.4</ele>
   </trkpt>
   <trkpt lat="39.27689" lon="-106.41678">
    <ele>3018.05</ele>
   </trkpt>
   <trkpt lat="39.276880000000006" lon="-106.41653000000001">
    <ele>3017.5400000000004</ele>
   </trkpt>
   <trkpt lat="39.27693" lon="-106.41606">
    <ele>3016.7400000000002</ele>
   </trkpt>
   <trkpt lat="39.27693" lon="-106.41589">
    <ele>3016.63</ele>
   </trkpt>
   <trkpt lat="39.277" lon="-106.41566">
    <ele>3016.55</ele>
   </trkpt>
   <trkpt lat="39.276990000000005" lon="-106.41535">
    <ele>3016.5800000000004</ele>
   </trkpt>
   <trkpt lat="39.277060000000006" lon="-106.41499">
    <ele>3016.35</ele>
   </trkpt>
   <trkpt lat="39.277190000000004" lon="-106.41405">
    <ele>3016.57</ele>
   </trkpt>
   <trkpt lat="39.27716" lon="-106.41365">
    <ele>3015.88</ele>
   </trkpt>
   <trkpt lat="39.277120000000004" lon="-106.41351">
    <ele>3015.5800000000004</ele>
   </trkpt>
   <trkpt lat="39.27714" lon="-106.41307">
    <ele>3015.44</ele>
   </trkpt>
   <trkpt lat="39.277190000000004" lon="-106.41267">
    <ele>3017.13</ele>
   </trkpt>
   <trkpt lat="39.277170000000005" lon="-106.41245">
    <ele>3017.19</ele>
   </trkpt>
   <trkpt lat="39.277190000000004" lon="-106.41227">
    <ele>3016.9</ele>
   </trkpt>
   <trkpt lat="39.277170000000005" lon="-106.41192000000001">
    <ele>3015.5000000000005</ele>
   </trkpt>
   <trkpt lat="39.27713000000001" lon="-106.41172">
    <ele>3014.66</ele>
   </trkpt>
   <trkpt lat="39.27711" lon="-106.41145">
    <ele>3014.0800000000004</ele>
   </trkpt>
   <trkpt lat="39.277060000000006" lon="-106.41133">
    <ele>3014.2200000000003</ele>
   </trkpt>
   <trkpt lat="39.277080000000005" lon="-106.41075000000001">
    <ele>3015.4300000000003</ele>
   </trkpt>
   <trkpt lat="39.277010000000004" lon="-106.41047">
    <ele>3015.57</ele>
   </trkpt>
   <trkpt lat="39.27694" lon="-106.40989">
    <ele>3016.83</ele>
   </trkpt>
   <trkpt lat="39.276900000000005" lon="-106.4098">
    <ele>3016.8100000000004</ele>
   </trkpt>
   <trkpt lat="39.27689" lon="-106.40945">
    <ele>3016.7900000000004</ele>
   </trkpt>
   <trkpt lat="39.27682" lon="-106.40913">
    <ele>3015.4700000000003</ele>
   </trkpt>
   <trkpt lat="39.276810000000005" lon="-106.40877">
    <ele>3016.02</ele>
   </trkpt>
   <trkpt lat="39.27685" lon="-106.40819">
    <ele>3016.82</ele>
   </trkpt>
   <trkpt lat="39.2768" lon="-106.40769">
    <ele>3014.07</ele>
   </trkpt>
   <trkpt lat="39.276830000000004" lon="-106.40748">
    <ele>3014.06</ele>
   </trkpt>
   <trkpt lat="39.276830000000004" lon="-106.40695000000001">
    <ele>3015.78</ele>
   </trkpt>
   <trkpt lat="39.27676" lon="-106.4064">
    <ele>3018.33</ele>
   </trkpt>
   <trkpt lat="39.276680000000006" lon="-106.40613">
    <ele>3019.3700000000003</ele>
   </trkpt>
   <trkpt lat="39.27662" lon="-106.40604">
    <ele>3019.51</ele>
   </trkpt>
   <trkpt lat="39.276540000000004" lon="-106.40572">
    <ele>3018.66</ele>
   </trkpt>
   <trkpt lat="39.27655" lon="-106.40554">
    <ele>3018.53</ele>
   </trkpt>
   <trkpt lat="39.276520000000005" lon="-106.40536">
    <ele>3017.9600000000005</ele>
   </trkpt>
   <trkpt lat="39.276340000000005" lon="-106.40474">
    <ele>3018.05</ele>
   </trkpt>
   <trkpt lat="39.27631" lon="-106.40438">
    <ele>3019.4300000000003</ele>
   </trkpt>
   <trkpt lat="39.27635" lon="-106.40411">
    <ele>3020.0000000000005</ele>
   </trkpt>
   <trkpt lat="39.276250000000005" lon="-106.40384">
    <ele>3020.96</ele>
   </trkpt>
   <trkpt lat="39.27619" lon="-106.40353">
    <ele>3020.82</ele>
   </trkpt>
   <trkpt lat="39.27615" lon="-106.40341000000001">
    <ele>3020.2400000000002</ele>
   </trkpt>
   <trkpt lat="39.27609" lon="-106.40335">
    <ele>3019.5200000000004</ele>
   </trkpt>
   <trkpt lat="39.276" lon="-106.40313">
    <ele>3018.31</ele>
   </trkpt>
   <trkpt lat="39.27582" lon="-106.40277">
    <ele>3015.1000000000004</ele>
   </trkpt>
   <trkpt lat="39.275710000000004" lon="-106.40232">
    <ele>3014.8</ele>
   </trkpt>
   <trkpt lat="39.27555" lon="-106.40156">
    <ele>3017.4</ele>
   </trkpt>
   <trkpt lat="39.275560000000006" lon="-106.40138">
    <ele>3017.5600000000004</ele>
   </trkpt>
   <trkpt lat="39.27553" lon="-106.40104000000001">
    <ele>3017.26</ele>
   </trkpt>
   <trkpt lat="39.275490000000005" lon="-106.40090000000001">
    <ele>3017.2000000000003</ele>
   </trkpt>
   <trkpt lat="39.27543" lon="-106.40044">
    <ele>3018.06</ele>
   </trkpt>
   <trkpt lat="39.27534" lon="-106.39999">
    <ele>3018.28</ele>
   </trkpt>
   <trkpt lat="39.275220000000004" lon="-106.39954">
    <ele>3016.8100000000004</ele>
   </trkpt>
   <trkpt lat="39.275110000000005" lon="-106.39901">
    <ele>3016.8</ele>
   </trkpt>
   <trkpt lat="39.27508" lon="-106.39811">
    <ele>3016.9300000000003</ele>
   </trkpt>
   <trkpt lat="39.27512" lon="-106.39784">
    <ele>3017.37</ele>
   </trkpt>
   <trkpt lat="39.27512" lon="-106.3974">
    <ele>3016.83</ele>
   </trkpt>
   <trkpt lat="39.27517" lon="-106.39726">
    <ele>3016.92</ele>
   </trkpt>
   <trkpt lat="39.27521" lon="-106.39708">
    <ele>3017.2200000000003</ele>
   </trkpt>
   <trkpt lat="39.2753" lon="-106.39695">
    <ele>3017.6800000000003</ele>
   </trkpt>
   <trkpt lat="39.27534" lon="-106.39665000000001">
    <ele>3020.1900000000005</ele>
   </trkpt>
   <trkpt lat="39.27535" lon="-106.39619">
    <ele>3020.51</ele>
   </trkpt>
   <trkpt lat="39.27546" lon="-106.39605">
    <ele>3019.5800000000004</ele>
   </trkpt>
   <trkpt lat="39.27548" lon="-106.39596">
    <ele>3019.4100000000003</ele>
   </trkpt>
   <trkpt lat="39.275450000000006" lon="-106.39552">
    <ele>3020.6000000000004</ele>
   </trkpt>
   <trkpt lat="39.27539" lon="-106.39538">
    <ele>3020.9100000000003</ele>
   </trkpt>
   <trkpt lat="39.27544" lon="-106.39507">
    <ele>3022.42</ele>
   </trkpt>
   <trkpt lat="39.27544" lon="-106.39493">
    <ele>3023.76</ele>
   </trkpt>
   <trkpt lat="39.275380000000006" lon="-106.39466">
    <ele>3025.02</ele>
   </trkpt>
   <trkpt lat="39.275380000000006" lon="-106.39413">
    <ele>3023.94</ele>
   </trkpt>
   <trkpt lat="39.27534" lon="-106.39395">
    <ele>3023.4500000000003</ele>
   </trkpt>
   <trkpt lat="39.275240000000004" lon="-106.3939">
    <ele>3024.03</ele>
   </trkpt>
   <trkpt lat="39.275310000000005" lon="-106.39363">
    <ele>3026.34</ele>
   </trkpt>
   <trkpt lat="39.27528" lon="-106.39337">
    <ele>3026.0800000000004</ele>
   </trkpt>
   <trkpt lat="39.27516000000001" lon="-106.39324">
    <ele>3025.7200000000003</ele>
   </trkpt>
   <trkpt lat="39.275150000000004" lon="-106.39307000000001">
    <ele>3024.68</ele>
   </trkpt>
   <trkpt lat="39.27501" lon="-106.39256">
    <ele>3021.04</ele>
   </trkpt>
   <trkpt lat="39.27499" lon="-106.39212">
    <ele>3019.7200000000003</ele>
   </trkpt>
   <trkpt lat="39.2749" lon="-106.39166">
    <ele>3018.3</ele>
   </trkpt>
   <trkpt lat="39.27486500177885" lon="-106.39101499967276">
    <ele>3018.9700000000003</ele>
   </trkpt>
   <trkpt lat="39.27483" lon="-106.39037">
    <ele>3020.21</ele>
   </trkpt>
   <trkpt lat="39.274660000000004" lon="-106.38978">
    <ele>3017.4500000000003</ele>
   </trkpt>
   <trkpt lat="39.2747" lon="-106.38969">
    <ele>3016.89</ele>
   </trkpt>
   <trkpt lat="39.274640000000005" lon="-106.38943">
    <ele>3016.7400000000002</ele>
   </trkpt>
   <trkpt lat="39.27454" lon="-106.38868000000001">
    <ele>3015.32</ele>
   </trkpt>
   <trkpt lat="39.27454" lon="-106.38822">
    <ele>3017.38</ele>
   </trkpt>
   <trkpt lat="39.27459" lon="-106.38810000000001">
    <ele>3017.6000000000004</ele>
   </trkpt>
   <trkpt lat="39.27458" lon="-106.38799">
    <ele>3017.9300000000003</ele>
   </trkpt>
   <trkpt lat="39.27449" lon="-106.38723">
    <ele>3016.4300000000003</ele>
   </trkpt>
   <trkpt lat="39.27438" lon="-106.38683">
    <ele>3014.9100000000003</ele>
   </trkpt>
   <trkpt lat="39.27443" lon="-106.38653000000001">
    <ele>3015.8300000000004</ele>
   </trkpt>
   <trkpt lat="39.274440000000006" lon="-106.38616">
    <ele>3016.0600000000004</ele>
   </trkpt>
   <trkpt lat="39.2745" lon="-106.38607">
    <ele>3016.09</ele>
   </trkpt>
   <trkpt lat="39.274530000000006" lon="-106.3854">
    <ele>3015.11</ele>
   </trkpt>
   <trkpt lat="39.274620000000006" lon="-106.38513">
    <ele>3015.2400000000002</ele>
   </trkpt>
   <trkpt lat="39.2747" lon="-106.38473">
    <ele>3015.03</ele>
   </trkpt>
   <trkpt lat="39.274890000000006" lon="-106.38406">
    <ele>3014.75</ele>
   </trkpt>
   <trkpt lat="39.27503" lon="-106.38383">
    <ele>3015.4900000000002</ele>
   </trkpt>
   <trkpt lat="39.275180000000006" lon="-106.38365">
    <ele>3015.7700000000004</ele>
   </trkpt>
   <trkpt lat="39.27525" lon="-106.38347">
    <ele>3015.2500000000005</ele>
   </trkpt>
   <trkpt lat="39.27526" lon="-106.38325">
    <ele>3014.33</ele>
   </trkpt>
   <trkpt lat="39.27535" lon="-106.38271">
    <ele>3016.57</ele>
   </trkpt>
   <trkpt lat="39.27544" lon="-106.38173">
    <ele>3022.7700000000004</ele>
   </trkpt>
   <trkpt lat="39.275560000000006" lon="-106.38152000000001">
    <ele>3023.5000000000005</ele>
   </trkpt>
   <trkpt lat="39.27555" lon="-106.38138000000001">
    <ele>3023.27</ele>
   </trkpt>
   <trkpt lat="39.27563000000001" lon="-106.38102">
    <ele>3023.5200000000004</ele>
   </trkpt>
   <trkpt lat="39.2757" lon="-106.38007">
    <ele>3026.88</ele>
   </trkpt>
   <trkpt lat="39.27572" lon="-106.37958">
    <ele>3028.57</ele>
   </trkpt>
   <trkpt lat="39.27579" lon="-106.37913">
    <ele>3030.85</ele>
   </trkpt>
   <trkpt lat="39.27581" lon="-106.3781">
    <ele>3030.3700000000003</ele>
   </trkpt>
   <trkpt lat="39.27586" lon="-106.3777">
    <ele>3029.78</ele>
   </trkpt>
   <trkpt lat="39.275850000000005" lon="-106.37747">
    <ele>3027.88</ele>
   </trkpt>
   <trkpt lat="39.275870000000005" lon="-106.37717">
    <ele>3025.91</ele>
   </trkpt>
   <trkpt lat="39.275850000000005" lon="-106.37707">
    <ele>3025.46</ele>
   </trkpt>
   <trkpt lat="39.275870000000005" lon="-106.37693000000002">
    <ele>3024.01</ele>
   </trkpt>
   <trkpt lat="39.27584" lon="-106.37659000000001">
    <ele>3021.28</ele>
   </trkpt>
   <trkpt lat="39.27584" lon="-106.37636">
    <ele>3020.6000000000004</ele>
   </trkpt>
   <trkpt lat="39.27581" lon="-106.37631">
    <ele>3020.6000000000004</ele>
   </trkpt>
   <trkpt lat="39.27581" lon="-106.37622">
    <ele>3019.02</ele>
   </trkpt>
   <trkpt lat="39.275780000000005" lon="-106.37613">
    <ele>3019.02</ele>
   </trkpt>
   <trkpt lat="39.275850000000005" lon="-106.37564">
    <ele>3016.28</ele>
   </trkpt>
   <trkpt lat="39.27584" lon="-106.37555">
    <ele>3015.94</ele>
   </trkpt>
   <trkpt lat="39.275890000000004" lon="-106.37543000000001">
    <ele>3015.7700000000004</ele>
   </trkpt>
   <trkpt lat="39.27595" lon="-106.37519">
    <ele>3016.6100000000006</ele>
   </trkpt>
   <trkpt lat="39.2759" lon="-106.37498000000001">
    <ele>3017.01</ele>
   </trkpt>
   <trkpt lat="39.27586" lon="-106.37492">
    <ele>3016.89</ele>
   </trkpt>
   <trkpt lat="39.275920000000006" lon="-106.37457">
    <ele>3016.0400000000004</ele>
   </trkpt>
   <trkpt lat="39.27591" lon="-106.37434">
    <ele>3016.29</ele>
   </trkpt>
   <trkpt lat="39.275920000000006" lon="-106.37425">
    <ele>3016.29</ele>
   </trkpt>
   <trkpt lat="39.27597" lon="-106.37412">
    <ele>3017.23</ele>
   </trkpt>
   <trkpt lat="39.27591" lon="-106.37313">
    <ele>3017.4800000000005</ele>
   </trkpt>
   <trkpt lat="39.275980000000004" lon="-106.37286">
    <ele>3017.8300000000004</ele>
   </trkpt>
   <trkpt lat="39.276" lon="-106.37268">
    <ele>3017.7400000000002</ele>
   </trkpt>
   <trkpt lat="39.27602" lon="-106.37214">
    <ele>3015.42</ele>
   </trkpt>
   <trkpt lat="39.27615" lon="-106.37174">
    <ele>3016.2500000000005</ele>
   </trkpt>
   <trkpt lat="39.276140000000005" lon="-106.37156">
    <ele>3016.21</ele>
   </trkpt>
   <trkpt lat="39.27608" lon="-106.37134">
    <ele>3016.1900000000005</ele>
   </trkpt>
   <trkpt lat="39.27608" lon="-106.37085">
    <ele>3013.2700000000004</ele>
   </trkpt>
   <trkpt lat="39.27617" lon="-106.37053">
    <ele>3014.4400000000005</ele>
   </trkpt>
   <trkpt lat="39.27622" lon="-106.37026">
    <ele>3014.69</ele>
   </trkpt>
   <trkpt lat="39.2762" lon="-106.36986">
    <ele>3015.7300000000005</ele>
   </trkpt>
   <trkpt lat="39.276250000000005" lon="-106.3695">
    <ele>3015.78</ele>
   </trkpt>
   <trkpt lat="39.276250000000005" lon="-106.36865">
    <ele>3014.9800000000005</ele>
   </trkpt>
   <trkpt lat="39.27628" lon="-106.36829">
    <ele>3015.03</ele>
   </trkpt>
   <trkpt lat="39.276250000000005" lon="-106.36779000000001">
    <ele>3013.86</ele>
   </trkpt>
   <trkpt lat="39.27626" lon="-106.36746000000001">
    <ele>3014.7400000000002</ele>
   </trkpt>
   <trkpt lat="39.276340000000005" lon="-106.36677">
    <ele>3015.54</ele>
   </trkpt>
   <trkpt lat="39.276390000000006" lon="-106.36664">
    <ele>3015.6600000000003</ele>
   </trkpt>
   <trkpt lat="39.276430000000005" lon="-106.36642">
    <ele>3015.3700000000003</ele>
   </trkpt>
   <trkpt lat="39.2764" lon="-106.36619">
    <ele>3015.3700000000003</ele>
   </trkpt>
   <trkpt lat="39.276390000000006" lon="-106.36574">
    <ele>3015.57</ele>
   </trkpt>
   <trkpt lat="39.27642" lon="-106.36552">
    <ele>3015.6600000000003</ele>
   </trkpt>
   <trkpt lat="39.27648000000001" lon="-106.36529">
    <ele>3015.38</ele>
   </trkpt>
   <trkpt lat="39.27649" lon="-106.36503">
    <ele>3014.8300000000004</ele>
   </trkpt>
   <trkpt lat="39.27655" lon="-106.3644">
    <ele>3014.86</ele>
   </trkpt>
   <trkpt lat="39.276540000000004" lon="-106.36409">
    <ele>3014.94</ele>
   </trkpt>
   <trkpt lat="39.276450000000004" lon="-106.36382">
    <ele>3013.9600000000005</ele>
   </trkpt>
   <trkpt lat="39.27648000000001" lon="-106.36364">
    <ele>3013.9500000000003</ele>
   </trkpt>
   <trkpt lat="39.27648000000001" lon="-106.36303000000001">
    <ele>3014.45</ele>
   </trkpt>
   <trkpt lat="39.27646" lon="-106.36274">
    <ele>3014.33</ele>
   </trkpt>
   <trkpt lat="39.27647" lon="-106.36244">
    <ele>3015.02</ele>
   </trkpt>
   <trkpt lat="39.276410000000006" lon="-106.36203">
    <ele>3016.9400000000005</ele>
   </trkpt>
   <trkpt lat="39.276340000000005" lon="-106.36136">
    <ele>3016.21</ele>
   </trkpt>
   <trkpt lat="39.27629" lon="-106.36118">
    <ele>3016.4600000000005</ele>
   </trkpt>
   <trkpt lat="39.27609" lon="-106.36091">
    <ele>3016.4700000000003</ele>
   </trkpt>
   <trkpt lat="39.27606" lon="-106.36074">
    <ele>3015.9200000000005</ele>
   </trkpt>
   <trkpt lat="39.27582" lon="-106.35979">
    <ele>3014.39</ele>
   </trkpt>
   <trkpt lat="39.27561" lon="-106.35903">
    <ele>3015.3700000000003</ele>
   </trkpt>
   <trkpt lat="39.27555" lon="-106.35872">
    <ele>3014.67</ele>
   </trkpt>
   <trkpt lat="39.27554000000001" lon="-106.35853">
    <ele>3013.55</ele>
   </trkpt>
   <trkpt lat="39.2755" lon="-106.35837000000001">
    <ele>3012.9</ele>
   </trkpt>
   <trkpt lat="39.27534" lon="-106.35827">
    <ele>3012.5200000000004</ele>
   </trkpt>
   <trkpt lat="39.27526" lon="-106.35814">
    <ele>3012.48</ele>
   </trkpt>
   <trkpt lat="39.27499" lon="-106.35791">
    <ele>3012.51</ele>
   </trkpt>
   <trkpt lat="39.27479" lon="-106.35765">
    <ele>3012.48</ele>
   </trkpt>
   <trkpt lat="39.27465" lon="-106.35741000000002">
    <ele>3012.3</ele>
   </trkpt>
   <trkpt lat="39.27445" lon="-106.3571">
    <ele>3012.5</ele>
   </trkpt>
   <trkpt lat="39.274170000000005" lon="-106.35638000000002">
    <ele>3011.8900000000003</ele>
   </trkpt>
   <trkpt lat="39.273900000000005" lon="-106.35609000000001">
    <ele>3012.28</ele>
   </trkpt>
   <trkpt lat="39.273770000000006" lon="-106.35603">
    <ele>3012.41</ele>
   </trkpt>
   <trkpt lat="39.27356" lon="-106.35589">
    <ele>3012.1200000000003</ele>
   </trkpt>
   <trkpt lat="39.273210000000006" lon="-106.35571">
    <ele>3011.9200000000005</ele>
   </trkpt>
   <trkpt lat="39.27272000000001" lon="-106.35522">
    <ele>3011.8300000000004</ele>
   </trkpt>
   <trkpt lat="39.27264" lon="-106.35509">
    <ele>3011.87</ele>
   </trkpt>
   <trkpt lat="39.27243" lon="-106.35497000000001">
    <ele>3012.02</ele>
   </trkpt>
   <trkpt lat="39.27232" lon="-106.35487">
    <ele>3011.9800000000005</ele>
   </trkpt>
   <trkpt lat="39.272110000000005" lon="-106.35477">
    <ele>3011.8500000000004</ele>
   </trkpt>
   <trkpt lat="39.271930000000005" lon="-106.35451">
    <ele>3011.9900000000002</ele>
   </trkpt>
   <trkpt lat="39.27159" lon="-106.35429">
    <ele>3011.8900000000003</ele>
   </trkpt>
   <trkpt lat="39.271440000000005" lon="-106.35424">
    <ele>3011.9300000000003</ele>
   </trkpt>
   <trkpt lat="39.271330000000006" lon="-106.35421000000001">
    <ele>3011.8500000000004</ele>
   </trkpt>
   <trkpt lat="39.27121" lon="-106.35428">
    <ele>3011.88</ele>
   </trkpt>
   <trkpt lat="39.27105" lon="-106.35428">
    <ele>3012.08</ele>
   </trkpt>
   <trkpt lat="39.270700000000005" lon="-106.35421000000001">
    <ele>3012.28</ele>
   </trkpt>
   <trkpt lat="39.27051" lon="-106.35406">
    <ele>3011.84</ele>
   </trkpt>
   <trkpt lat="39.270320000000005" lon="-106.35379">
    <ele>3011.9800000000005</ele>
   </trkpt>
   <trkpt lat="39.270070000000004" lon="-106.35312">
    <ele>3011.2599999999998</ele>
   </trkpt>
   <trkpt lat="39.26997" lon="-106.35303">
    <ele>3011.27</ele>
   </trkpt>
   <trkpt lat="39.269850000000005" lon="-106.35298">
    <ele>3011.27</ele>
   </trkpt>
   <trkpt lat="39.26962" lon="-106.35318000000001">
    <ele>3011.7400000000002</ele>
   </trkpt>
   <trkpt lat="39.26937" lon="-106.35321">
    <ele>3012.02</ele>
   </trkpt>
   <trkpt lat="39.26919" lon="-106.35316">
    <ele>3011.7000000000003</ele>
   </trkpt>
   <trkpt lat="39.26896" lon="-106.35317">
    <ele>3011.94</ele>
   </trkpt>
   <trkpt lat="39.268840000000004" lon="-106.35325">
    <ele>3012.5400000000004</ele>
   </trkpt>
   <trkpt lat="39.2687" lon="-106.35326">
    <ele>3012.8800000000006</ele>
   </trkpt>
   <trkpt lat="39.268570000000004" lon="-106.35334">
    <ele>3013.05</ele>
   </trkpt>
   <trkpt lat="39.268440000000005" lon="-106.35334">
    <ele>3012.9700000000003</ele>
   </trkpt>
   <trkpt lat="39.268190000000004" lon="-106.35325">
    <ele>3012.32</ele>
   </trkpt>
   <trkpt lat="39.26811" lon="-106.35318000000001">
    <ele>3012.01</ele>
   </trkpt>
   <trkpt lat="39.26793" lon="-106.35307">
    <ele>3011.84</ele>
   </trkpt>
   <trkpt lat="39.267610000000005" lon="-106.35303">
    <ele>3012.01</ele>
   </trkpt>
   <trkpt lat="39.26719000000001" lon="-106.35321">
    <ele>3012.0600000000004</ele>
   </trkpt>
   <trkpt lat="39.2668" lon="-106.35355000000001">
    <ele>3012.0400000000004</ele>
   </trkpt>
   <trkpt lat="39.2665" lon="-106.35352">
    <ele>3014.42</ele>
   </trkpt>
   <trkpt lat="39.26637" lon="-106.35334">
    <ele>3015.8300000000004</ele>
   </trkpt>
   <trkpt lat="39.266310000000004" lon="-106.35331000000001">
    <ele>3015.8300000000004</ele>
   </trkpt>
   <trkpt lat="39.26621" lon="-106.35334">
    <ele>3017.13</ele>
   </trkpt>
   <trkpt lat="39.266160000000006" lon="-106.35334">
    <ele>3017.13</ele>
   </trkpt>
   <trkpt lat="39.26614" lon="-106.35325">
    <ele>3017.43</ele>
   </trkpt>
   <trkpt lat="39.266200000000005" lon="-106.35307">
    <ele>3018.25</ele>
   </trkpt>
   <trkpt lat="39.266290000000005" lon="-106.35294">
    <ele>3019.81</ele>
   </trkpt>
   <trkpt lat="39.266380000000005" lon="-106.35271">
    <ele>3020.36</ele>
   </trkpt>
   <trkpt lat="39.26637" lon="-106.35264000000001">
    <ele>3021.3500000000004</ele>
   </trkpt>
   <trkpt lat="39.26634000000001" lon="-106.35262">
    <ele>3021.3500000000004</ele>
   </trkpt>
   <trkpt lat="39.266290000000005" lon="-106.35263">
    <ele>3021.3500000000004</ele>
   </trkpt>
   <trkpt lat="39.266200000000005" lon="-106.35276">
    <ele>3022.42</ele>
   </trkpt>
   <trkpt lat="39.266180000000006" lon="-106.35276">
    <ele>3022.61</ele>
   </trkpt>
   <trkpt lat="39.26621" lon="-106.35258">
    <ele>3023.07</ele>
   </trkpt>
   <trkpt lat="39.266420000000004" lon="-106.35222">
    <ele>3023.67</ele>
   </trkpt>
   <trkpt lat="39.26646" lon="-106.352">
    <ele>3024.38</ele>
   </trkpt>
   <trkpt lat="39.266450000000006" lon="-106.35181000000001">
    <ele>3025.05</ele>
   </trkpt>
   <trkpt lat="39.26648" lon="-106.35177">
    <ele>3025.11</ele>
   </trkpt>
   <trkpt lat="39.2665" lon="-106.35164">
    <ele>3025.1200000000003</ele>
   </trkpt>
   <trkpt lat="39.266510000000004" lon="-106.35162000000001">
    <ele>3025.1200000000003</ele>
   </trkpt>
   <trkpt lat="39.26655" lon="-106.35143000000001">
    <ele>3025.01</ele>
   </trkpt>
   <trkpt lat="39.26662" lon="-106.35121000000001">
    <ele>3024.4000000000005</ele>
   </trkpt>
   <trkpt lat="39.26662" lon="-106.35099000000001">
    <ele>3023.9</ele>
   </trkpt>
   <trkpt lat="39.26662" lon="-106.35097">
    <ele>3023.78</ele>
   </trkpt>
   <trkpt lat="39.266630000000006" lon="-106.35083">
    <ele>3023.26</ele>
   </trkpt>
   <trkpt lat="39.26653" lon="-106.35025">
    <ele>3019.3100000000004</ele>
   </trkpt>
   <trkpt lat="39.26628" lon="-106.3499">
    <ele>3015.9100000000003</ele>
   </trkpt>
   <trkpt lat="39.26615" lon="-106.34958">
    <ele>3014.28</ele>
   </trkpt>
   <trkpt lat="39.26605" lon="-106.3495">
    <ele>3013.2100000000005</ele>
   </trkpt>
   <trkpt lat="39.26597" lon="-106.34951000000001">
    <ele>3013.2100000000005</ele>
   </trkpt>
   <trkpt lat="39.265910000000005" lon="-106.34955000000001">
    <ele>3012.48</ele>
   </trkpt>
   <trkpt lat="39.26587000000001" lon="-106.34954">
    <ele>3012.48</ele>
   </trkpt>
   <trkpt lat="39.265820000000005" lon="-106.34949">
    <ele>3012.1600000000003</ele>
   </trkpt>
   <trkpt lat="39.26579" lon="-106.34934000000001">
    <ele>3011.7900000000004</ele>
   </trkpt>
   <trkpt lat="39.265750000000004" lon="-106.34908000000001">
    <ele>3011.6600000000003</ele>
   </trkpt>
   <trkpt lat="39.2659" lon="-106.34913">
    <ele>3012.3</ele>
   </trkpt>
   <trkpt lat="39.26587000000001" lon="-106.34878">
    <ele>3011.51</ele>
   </trkpt>
   <trkpt lat="39.2659" lon="-106.34789">
    <ele>3006.2300000000005</ele>
   </trkpt>
   <trkpt lat="39.26586" lon="-106.34757">
    <ele>3003.94</ele>
   </trkpt>
   <trkpt lat="39.26579" lon="-106.34725">
    <ele>3002.3</ele>
   </trkpt>
   <trkpt lat="39.26545" lon="-106.34636">
    <ele>2996.57</ele>
   </trkpt>
   <trkpt lat="39.26538" lon="-106.34609">
    <ele>2994.92</ele>
   </trkpt>
   <trkpt lat="39.26536" lon="-106.34591">
    <ele>2994.05</ele>
   </trkpt>
   <trkpt lat="39.26536" lon="-106.34577">
    <ele>2993.43</ele>
   </trkpt>
   <trkpt lat="39.2655" lon="-106.34492">
    <ele>2988.78</ele>
   </trkpt>
   <trkpt lat="39.265530000000005" lon="-106.34434">
    <ele>2985.6900000000005</ele>
   </trkpt>
   <trkpt lat="39.265530000000005" lon="-106.3438">
    <ele>2984.4000000000005</ele>
   </trkpt>
   <trkpt lat="39.26549" lon="-106.34358">
    <ele>2983.9100000000003</ele>
   </trkpt>
   <trkpt lat="39.26540000000001" lon="-106.34332">
    <ele>2983.2400000000002</ele>
   </trkpt>
   <trkpt lat="39.26507" lon="-106.34273">
    <ele>2982.32</ele>
   </trkpt>
   <trkpt lat="39.264920000000004" lon="-106.34251">
    <ele>2981.88</ele>
   </trkpt>
   <trkpt lat="39.26473" lon="-106.34228">
    <ele>2980.9300000000003</ele>
   </trkpt>
   <trkpt lat="39.264390000000006" lon="-106.34193">
    <ele>2979.76</ele>
   </trkpt>
   <trkpt lat="39.26422" lon="-106.3417">
    <ele>2979.4900000000002</ele>
   </trkpt>
   <trkpt lat="39.264160000000004" lon="-106.34156000000002">
    <ele>2979.4900000000002</ele>
   </trkpt>
   <trkpt lat="39.26408" lon="-106.34121">
    <ele>2979.33</ele>
   </trkpt>
   <trkpt lat="39.264070000000004" lon="-106.34073000000001">
    <ele>2979.33</ele>
   </trkpt>
   <trkpt lat="39.26395" lon="-106.34014">
    <ele>2980.6100000000006</ele>
   </trkpt>
   <trkpt lat="39.26388" lon="-106.33990000000001">
    <ele>2980.76</ele>
   </trkpt>
   <trkpt lat="39.26395" lon="-106.33973">
    <ele>2980.8700000000003</ele>
   </trkpt>
   <trkpt lat="39.26442" lon="-106.33921000000001">
    <ele>2981.7000000000003</ele>
   </trkpt>
   <trkpt lat="39.264770000000006" lon="-106.33909000000001">
    <ele>2981.8900000000003</ele>
   </trkpt>
  </trkseg>
 </trk>
</gpx>
