<?xml version="1.0" encoding="UTF-8"?>
<gpx xmlns="http://www.topografix.com/GPX/1/1" version="1.1" creator="marathon-training/canyonlands-2026">
 <metadata>
  <name>Oct 4 Dress Rehearsal - Marshall Mesa / Doudy Draw x2</name>
  <desc>Two laps of the MTB Project "Marshall Mesa - Doudy Draw Loops" route (10.04 mi, 874 ft each). Lap 1 easy HR 125-145. 60 s stop at the car. Lap 2 at race effort HR 150-156 (7:35-7:50). Source geometry: https://www.mtbproject.com/trail/520343/marshall-mesa-doudy-draw-loops</desc>
 </metadata>
 <wpt lat="39.938078" lon="-105.256563"><ele>1725.79</ele><name>Doudy Draw TH - start / aid stop / finish</name></wpt>
 <trk>
  <name>Oct 4 Dress Rehearsal - 2 laps</name>
  <trkseg>
   <trkpt lat="39.938078" lon="-105.256563"><ele>1725.79</ele></trkpt>
   <trkpt lat="39.936921" lon="-105.256177"><ele>1727.01</ele></trkpt>
   <trkpt lat="39.936728" lon="-105.256024"><ele>1728.42</ele></trkpt>
   <trkpt lat="39.935846" lon="-105.255683"><ele>1729.93</ele></trkpt>
   <trkpt lat="39.935578" lon="-105.255638"><ele>1731.49</ele></trkpt>
   <trkpt lat="39.935226" lon="-105.255521"><ele>1733.16</ele></trkpt>
   <trkpt lat="39.93493" lon="-105.25553"><ele>1734.98</ele></trkpt>
   <trkpt lat="39.934648" lon="-105.255485"><ele>1736.9</ele></trkpt>
   <trkpt lat="39.93442" lon="-105.255548"><ele>1738.78</ele></trkpt>
   <trkpt lat="39.933732" lon="-105.255584"><ele>1740.52</ele></trkpt>
   <trkpt lat="39.933587" lon="-105.255656"><ele>1742.08</ele></trkpt>
   <trkpt lat="39.933346" lon="-105.25588"><ele>1743.42</ele></trkpt>
   <trkpt lat="39.933256" lon="-105.255871"><ele>1744.42</ele></trkpt>
   <trkpt lat="39.933181" lon="-105.255979"><ele>1745.06</ele></trkpt>
   <trkpt lat="39.933008" lon="-105.256033"><ele>1745.52</ele></trkpt>
   <trkpt lat="39.932967" lon="-105.255997"><ele>1745.96</ele></trkpt>
   <trkpt lat="39.93285" lon="-105.256186"><ele>1746.52</ele></trkpt>
   <trkpt lat="39.932657" lon="-105.256258"><ele>1747.27</ele></trkpt>
   <trkpt lat="39.932581" lon="-105.256581"><ele>1748.16</ele></trkpt>
   <trkpt lat="39.932237" lon="-105.256599"><ele>1749.11</ele></trkpt>
   <trkpt lat="39.931927" lon="-105.25677"><ele>1750.03</ele></trkpt>
   <trkpt lat="39.931817" lon="-105.256931"><ele>1750.94</ele></trkpt>
   <trkpt lat="39.931596" lon="-105.256949"><ele>1751.78</ele></trkpt>
   <trkpt lat="39.931197" lon="-105.257255"><ele>1752.49</ele></trkpt>
   <trkpt lat="39.931011" lon="-105.257434"><ele>1753.37</ele></trkpt>
   <trkpt lat="39.930887" lon="-105.257668"><ele>1754.47</ele></trkpt>
   <trkpt lat="39.930776" lon="-105.258198"><ele>1755.56</ele></trkpt>
   <trkpt lat="39.930611" lon="-105.258288"><ele>1756.6</ele></trkpt>
   <trkpt lat="39.930528" lon="-105.25818"><ele>1757.6</ele></trkpt>
   <trkpt lat="39.930398" lon="-105.257803"><ele>1758.57</ele></trkpt>
   <trkpt lat="39.930336" lon="-105.257443"><ele>1759.61</ele></trkpt>
   <trkpt lat="39.930225" lon="-105.257381"><ele>1760.78</ele></trkpt>
   <trkpt lat="39.930067" lon="-105.257201"><ele>1762.09</ele></trkpt>
   <trkpt lat="39.929888" lon="-105.256779"><ele>1763.59</ele></trkpt>
   <trkpt lat="39.92975" lon="-105.256698"><ele>1765.33</ele></trkpt>
   <trkpt lat="39.929399" lon="-105.256815"><ele>1767.38</ele></trkpt>
   <trkpt lat="39.92891" lon="-105.256833"><ele>1769.78</ele></trkpt>
   <trkpt lat="39.928297" lon="-105.256788"><ele>1772.49</ele></trkpt>
   <trkpt lat="39.927959" lon="-105.256626"><ele>1775.39</ele></trkpt>
   <trkpt lat="39.927367" lon="-105.256967"><ele>1778.36</ele></trkpt>
   <trkpt lat="39.926698" lon="-105.257767"><ele>1781.32</ele></trkpt>
   <trkpt lat="39.926547" lon="-105.257758"><ele>1784.3</ele></trkpt>
   <trkpt lat="39.92643" lon="-105.257524"><ele>1787.4</ele></trkpt>
   <trkpt lat="39.926216" lon="-105.257605"><ele>1790.24</ele></trkpt>
   <trkpt lat="39.925837" lon="-105.257866"><ele>1792.65</ele></trkpt>
   <trkpt lat="39.925637" lon="-105.257955"><ele>1795.67</ele></trkpt>
   <trkpt lat="39.924949" lon="-105.258719"><ele>1799.3</ele></trkpt>
   <trkpt lat="39.924446" lon="-105.258997"><ele>1802.72</ele></trkpt>
   <trkpt lat="39.924101" lon="-105.259366"><ele>1806.03</ele></trkpt>
   <trkpt lat="39.923895" lon="-105.25968"><ele>1809.04</ele></trkpt>
   <trkpt lat="39.923833" lon="-105.260129"><ele>1811.59</ele></trkpt>
   <trkpt lat="39.923529" lon="-105.26057"><ele>1813.71</ele></trkpt>
   <trkpt lat="39.92333" lon="-105.261073"><ele>1815.28</ele></trkpt>
   <trkpt lat="39.923102" lon="-105.261603"><ele>1816.6</ele></trkpt>
   <trkpt lat="39.923426" lon="-105.26189"><ele>1818.08</ele></trkpt>
   <trkpt lat="39.923467" lon="-105.26224"><ele>1819.68</ele></trkpt>
   <trkpt lat="39.923247" lon="-105.26286"><ele>1821.48</ele></trkpt>
   <trkpt lat="39.923226" lon="-105.263121"><ele>1823.38</ele></trkpt>
   <trkpt lat="39.92333" lon="-105.263139"><ele>1825.24</ele></trkpt>
   <trkpt lat="39.923626" lon="-105.262788"><ele>1827.22</ele></trkpt>
   <trkpt lat="39.923805" lon="-105.262788"><ele>1829.47</ele></trkpt>
   <trkpt lat="39.923791" lon="-105.263031"><ele>1831.63</ele></trkpt>
   <trkpt lat="39.923647" lon="-105.263121"><ele>1833.51</ele></trkpt>
   <trkpt lat="39.923536" lon="-105.263229"><ele>1835.81</ele></trkpt>
   <trkpt lat="39.922847" lon="-105.26366"><ele>1838.48</ele></trkpt>
   <trkpt lat="39.922558" lon="-105.263983"><ele>1841.24</ele></trkpt>
   <trkpt lat="39.922406" lon="-105.264486"><ele>1844.09</ele></trkpt>
   <trkpt lat="39.922041" lon="-105.264935"><ele>1846.91</ele></trkpt>
   <trkpt lat="39.921711" lon="-105.265124"><ele>1849.49</ele></trkpt>
   <trkpt lat="39.921807" lon="-105.264405"><ele>1851.57</ele></trkpt>
   <trkpt lat="39.921786" lon="-105.263965"><ele>1853.32</ele></trkpt>
   <trkpt lat="39.921711" lon="-105.263588"><ele>1854.89</ele></trkpt>
   <trkpt lat="39.921435" lon="-105.263264"><ele>1856.38</ele></trkpt>
   <trkpt lat="39.921125" lon="-105.263076"><ele>1858.01</ele></trkpt>
   <trkpt lat="39.921036" lon="-105.262869"><ele>1859.84</ele></trkpt>
   <trkpt lat="39.92107" lon="-105.262447"><ele>1861.83</ele></trkpt>
   <trkpt lat="39.920856" lon="-105.26242"><ele>1863.9</ele></trkpt>
   <trkpt lat="39.920195" lon="-105.262959"><ele>1865.91</ele></trkpt>
   <trkpt lat="39.920009" lon="-105.263247"><ele>1867.73</ele></trkpt>
   <trkpt lat="39.919568" lon="-105.26357"><ele>1869.28</ele></trkpt>
   <trkpt lat="39.919361" lon="-105.263579"><ele>1870.64</ele></trkpt>
   <trkpt lat="39.918817" lon="-105.263839"><ele>1871.71</ele></trkpt>
   <trkpt lat="39.918721" lon="-105.263588"><ele>1872.6</ele></trkpt>
   <trkpt lat="39.9187" lon="-105.263255"><ele>1873.61</ele></trkpt>
   <trkpt lat="39.918617" lon="-105.263058"><ele>1874.85</ele></trkpt>
   <trkpt lat="39.918218" lon="-105.26322"><ele>1876.96</ele></trkpt>
   <trkpt lat="39.917756" lon="-105.263507"><ele>1879.01</ele></trkpt>
   <trkpt lat="39.917377" lon="-105.263525"><ele>1880.92</ele></trkpt>
   <trkpt lat="39.917398" lon="-105.263543"><ele>1883.84</ele></trkpt>
   <trkpt lat="39.917088" lon="-105.264154"><ele>1887.01</ele></trkpt>
   <trkpt lat="39.916647" lon="-105.265115"><ele>1890.09</ele></trkpt>
   <trkpt lat="39.917005" lon="-105.265456"><ele>1893.04</ele></trkpt>
   <trkpt lat="39.917136" lon="-105.265825"><ele>1895.53</ele></trkpt>
   <trkpt lat="39.917412" lon="-105.265977"><ele>1897.54</ele></trkpt>
   <trkpt lat="39.917722" lon="-105.26622"><ele>1898.58</ele></trkpt>
   <trkpt lat="39.917977" lon="-105.266498"><ele>1898.84</ele></trkpt>
   <trkpt lat="39.918397" lon="-105.2671"><ele>1899.07</ele></trkpt>
   <trkpt lat="39.919637" lon="-105.268385"><ele>1899.27</ele></trkpt>
   <trkpt lat="39.919926" lon="-105.268771"><ele>1898.43</ele></trkpt>
   <trkpt lat="39.920429" lon="-105.268609"><ele>1896.59</ele></trkpt>
   <trkpt lat="39.920567" lon="-105.268663"><ele>1894.54</ele></trkpt>
   <trkpt lat="39.921036" lon="-105.268421"><ele>1892.26</ele></trkpt>
   <trkpt lat="39.921449" lon="-105.268466"><ele>1890.04</ele></trkpt>
   <trkpt lat="39.921649" lon="-105.268295"><ele>1887.9</ele></trkpt>
   <trkpt lat="39.921986" lon="-105.268547"><ele>1885.82</ele></trkpt>
   <trkpt lat="39.922262" lon="-105.268394"><ele>1883.77</ele></trkpt>
   <trkpt lat="39.922847" lon="-105.268277"><ele>1881.69</ele></trkpt>
   <trkpt lat="39.923082" lon="-105.268268"><ele>1879.48</ele></trkpt>
   <trkpt lat="39.92397" lon="-105.2686"><ele>1877.1</ele></trkpt>
   <trkpt lat="39.924225" lon="-105.268466"><ele>1874.55</ele></trkpt>
   <trkpt lat="39.924728" lon="-105.268556"><ele>1871.9</ele></trkpt>
   <trkpt lat="39.925017" lon="-105.268511"><ele>1869.24</ele></trkpt>
   <trkpt lat="39.926547" lon="-105.267828"><ele>1866.68</ele></trkpt>
   <trkpt lat="39.926636" lon="-105.267397"><ele>1864.3</ele></trkpt>
   <trkpt lat="39.926609" lon="-105.26622"><ele>1862.15</ele></trkpt>
   <trkpt lat="39.926726" lon="-105.265798"><ele>1860.25</ele></trkpt>
   <trkpt lat="39.926657" lon="-105.265591"><ele>1858.48</ele></trkpt>
   <trkpt lat="39.926078" lon="-105.265753"><ele>1857.02</ele></trkpt>
   <trkpt lat="39.92592" lon="-105.265555"><ele>1855.9</ele></trkpt>
   <trkpt lat="39.925548" lon="-105.265888"><ele>1854.84</ele></trkpt>
   <trkpt lat="39.925176" lon="-105.265995"><ele>1853.8</ele></trkpt>
   <trkpt lat="39.924701" lon="-105.266436"><ele>1852.68</ele></trkpt>
   <trkpt lat="39.92428" lon="-105.266678"><ele>1851.38</ele></trkpt>
   <trkpt lat="39.924129" lon="-105.266489"><ele>1850</ele></trkpt>
   <trkpt lat="39.923771" lon="-105.266453"><ele>1848.33</ele></trkpt>
   <trkpt lat="39.923957" lon="-105.266103"><ele>1846</ele></trkpt>
   <trkpt lat="39.924418" lon="-105.26463"><ele>1843.36</ele></trkpt>
   <trkpt lat="39.924577" lon="-105.264315"><ele>1840.72</ele></trkpt>
   <trkpt lat="39.92479" lon="-105.263768"><ele>1838.11</ele></trkpt>
   <trkpt lat="39.924797" lon="-105.263139"><ele>1835.62</ele></trkpt>
   <trkpt lat="39.924577" lon="-105.262699"><ele>1833.28</ele></trkpt>
   <trkpt lat="39.924246" lon="-105.262546"><ele>1831.03</ele></trkpt>
   <trkpt lat="39.923846" lon="-105.262878"><ele>1829.45</ele></trkpt>
   <trkpt lat="39.923771" lon="-105.262797"><ele>1828.25</ele></trkpt>
   <trkpt lat="39.923702" lon="-105.26277"><ele>1826.69</ele></trkpt>
   <trkpt lat="39.923364" lon="-105.263094"><ele>1825.51</ele></trkpt>
   <trkpt lat="39.923254" lon="-105.263166"><ele>1825.28</ele></trkpt>
   <trkpt lat="39.923247" lon="-105.262959"><ele>1825.2</ele></trkpt>
   <trkpt lat="39.923288" lon="-105.262743"><ele>1824.33</ele></trkpt>
   <trkpt lat="39.923454" lon="-105.262339"><ele>1822.7</ele></trkpt>
   <trkpt lat="39.923495" lon="-105.262079"><ele>1821.14</ele></trkpt>
   <trkpt lat="39.923447" lon="-105.261935"><ele>1820.65</ele></trkpt>
   <trkpt lat="39.923357" lon="-105.261818"><ele>1820.97</ele></trkpt>
   <trkpt lat="39.923144" lon="-105.261683"><ele>1819.41</ele></trkpt>
   <trkpt lat="39.923095" lon="-105.261594"><ele>1816.39</ele></trkpt>
   <trkpt lat="39.923529" lon="-105.26057"><ele>1814.11</ele></trkpt>
   <trkpt lat="39.923826" lon="-105.26012"><ele>1812.23</ele></trkpt>
   <trkpt lat="39.923908" lon="-105.259662"><ele>1810.96</ele></trkpt>
   <trkpt lat="39.923536" lon="-105.259761"><ele>1810.38</ele></trkpt>
   <trkpt lat="39.922737" lon="-105.259743"><ele>1810.8</ele></trkpt>
   <trkpt lat="39.922021" lon="-105.259824"><ele>1812.09</ele></trkpt>
   <trkpt lat="39.921146" lon="-105.259626"><ele>1814.48</ele></trkpt>
   <trkpt lat="39.919416" lon="-105.259483"><ele>1818.61</ele></trkpt>
   <trkpt lat="39.91881" lon="-105.259671"><ele>1824.16</ele></trkpt>
   <trkpt lat="39.917708" lon="-105.259644"><ele>1831.79</ele></trkpt>
   <trkpt lat="39.917529" lon="-105.259725"><ele>1839.21</ele></trkpt>
   <trkpt lat="39.917522" lon="-105.259545"><ele>1844.1</ele></trkpt>
   <trkpt lat="39.919017" lon="-105.258674"><ele>1847.77</ele></trkpt>
   <trkpt lat="39.919644" lon="-105.258539"><ele>1850.7</ele></trkpt>
   <trkpt lat="39.920126" lon="-105.258108"><ele>1852.97</ele></trkpt>
   <trkpt lat="39.92127" lon="-105.256994"><ele>1854.68</ele></trkpt>
   <trkpt lat="39.922131" lon="-105.256401"><ele>1856.07</ele></trkpt>
   <trkpt lat="39.922441" lon="-105.255997"><ele>1857.54</ele></trkpt>
   <trkpt lat="39.923068" lon="-105.254919"><ele>1858.92</ele></trkpt>
   <trkpt lat="39.922937" lon="-105.255099"><ele>1860.26</ele></trkpt>
   <trkpt lat="39.922696" lon="-105.255144"><ele>1861.82</ele></trkpt>
   <trkpt lat="39.922296" lon="-105.255889"><ele>1863.41</ele></trkpt>
   <trkpt lat="39.921786" lon="-105.256356"><ele>1865.22</ele></trkpt>
   <trkpt lat="39.920601" lon="-105.257075"><ele>1867.36</ele></trkpt>
   <trkpt lat="39.920057" lon="-105.256779"><ele>1869.53</ele></trkpt>
   <trkpt lat="39.919678" lon="-105.256662"><ele>1871.29</ele></trkpt>
   <trkpt lat="39.919306" lon="-105.256698"><ele>1873.32</ele></trkpt>
   <trkpt lat="39.917777" lon="-105.257542"><ele>1875.31</ele></trkpt>
   <trkpt lat="39.917336" lon="-105.257866"><ele>1876.98</ele></trkpt>
   <trkpt lat="39.916881" lon="-105.258988"><ele>1878.68</ele></trkpt>
   <trkpt lat="39.916502" lon="-105.259222"><ele>1879.66</ele></trkpt>
   <trkpt lat="39.915937" lon="-105.259321"><ele>1880.24</ele></trkpt>
   <trkpt lat="39.915358" lon="-105.259213"><ele>1880.82</ele></trkpt>
   <trkpt lat="39.91511" lon="-105.258953"><ele>1881.71</ele></trkpt>
   <trkpt lat="39.91438" lon="-105.257479"><ele>1881.62</ele></trkpt>
   <trkpt lat="39.914022" lon="-105.256806"><ele>1880.18</ele></trkpt>
   <trkpt lat="39.914001" lon="-105.256123"><ele>1878.96</ele></trkpt>
   <trkpt lat="39.914091" lon="-105.255683"><ele>1877.74</ele></trkpt>
   <trkpt lat="39.914111" lon="-105.255476"><ele>1875.49</ele></trkpt>
   <trkpt lat="39.914029" lon="-105.253949"><ele>1872.78</ele></trkpt>
   <trkpt lat="39.914035" lon="-105.252062"><ele>1870.42</ele></trkpt>
   <trkpt lat="39.914035" lon="-105.250176"><ele>1868.22</ele></trkpt>
   <trkpt lat="39.914366" lon="-105.249556"><ele>1866.6</ele></trkpt>
   <trkpt lat="39.915028" lon="-105.248936"><ele>1865.14</ele></trkpt>
   <trkpt lat="39.915538" lon="-105.248595"><ele>1863.57</ele></trkpt>
   <trkpt lat="39.915758" lon="-105.248604"><ele>1862.29</ele></trkpt>
   <trkpt lat="39.915999" lon="-105.248838"><ele>1861.2</ele></trkpt>
   <trkpt lat="39.916158" lon="-105.248811"><ele>1860.29</ele></trkpt>
   <trkpt lat="39.916419" lon="-105.248317"><ele>1859.3</ele></trkpt>
   <trkpt lat="39.916626" lon="-105.248325"><ele>1858.2</ele></trkpt>
   <trkpt lat="39.917646" lon="-105.248829"><ele>1857.2</ele></trkpt>
   <trkpt lat="39.918355" lon="-105.248676"><ele>1856.24</ele></trkpt>
   <trkpt lat="39.918555" lon="-105.248514"><ele>1855.31</ele></trkpt>
   <trkpt lat="39.918927" lon="-105.248766"><ele>1854.53</ele></trkpt>
   <trkpt lat="39.918976" lon="-105.249044"><ele>1853.88</ele></trkpt>
   <trkpt lat="39.91901" lon="-105.249529"><ele>1853.05</ele></trkpt>
   <trkpt lat="39.919499" lon="-105.249197"><ele>1852</ele></trkpt>
   <trkpt lat="39.91954" lon="-105.248811"><ele>1850.86</ele></trkpt>
   <trkpt lat="39.919768" lon="-105.248047"><ele>1849.59</ele></trkpt>
   <trkpt lat="39.920278" lon="-105.247265"><ele>1848.18</ele></trkpt>
   <trkpt lat="39.920601" lon="-105.246888"><ele>1846.62</ele></trkpt>
   <trkpt lat="39.920877" lon="-105.246762"><ele>1844.89</ele></trkpt>
   <trkpt lat="39.921166" lon="-105.246744"><ele>1842.93</ele></trkpt>
   <trkpt lat="39.921277" lon="-105.246547"><ele>1840.63</ele></trkpt>
   <trkpt lat="39.922117" lon="-105.245397"><ele>1837.87</ele></trkpt>
   <trkpt lat="39.922365" lon="-105.244436"><ele>1834.7</ele></trkpt>
   <trkpt lat="39.922627" lon="-105.242415"><ele>1831.43</ele></trkpt>
   <trkpt lat="39.922627" lon="-105.241804"><ele>1828.36</ele></trkpt>
   <trkpt lat="39.922896" lon="-105.240618"><ele>1825.64</ele></trkpt>
   <trkpt lat="39.923027" lon="-105.240196"><ele>1823.34</ele></trkpt>
   <trkpt lat="39.923116" lon="-105.239396"><ele>1822.17</ele></trkpt>
   <trkpt lat="39.923219" lon="-105.239037"><ele>1822.6</ele></trkpt>
   <trkpt lat="39.923571" lon="-105.239037"><ele>1824.1</ele></trkpt>
   <trkpt lat="39.923509" lon="-105.239558"><ele>1827.81</ele></trkpt>
   <trkpt lat="39.923557" lon="-105.240708"><ele>1832.51</ele></trkpt>
   <trkpt lat="39.923509" lon="-105.241696"><ele>1835.98</ele></trkpt>
   <trkpt lat="39.923247" lon="-105.243178"><ele>1838.57</ele></trkpt>
   <trkpt lat="39.923178" lon="-105.244139"><ele>1840.48</ele></trkpt>
   <trkpt lat="39.923226" lon="-105.245145"><ele>1842.11</ele></trkpt>
   <trkpt lat="39.923371" lon="-105.245873"><ele>1843.73</ele></trkpt>
   <trkpt lat="39.92335" lon="-105.246583"><ele>1845.43</ele></trkpt>
   <trkpt lat="39.923247" lon="-105.247589"><ele>1847.35</ele></trkpt>
   <trkpt lat="39.923288" lon="-105.248469"><ele>1849.78</ele></trkpt>
   <trkpt lat="39.923302" lon="-105.250284"><ele>1852.45</ele></trkpt>
   <trkpt lat="39.923316" lon="-105.252098"><ele>1854.69</ele></trkpt>
   <trkpt lat="39.923247" lon="-105.254183"><ele>1856.25</ele></trkpt>
   <trkpt lat="39.923137" lon="-105.254677"><ele>1857.35</ele></trkpt>
   <trkpt lat="39.922799" lon="-105.255395"><ele>1857.67</ele></trkpt>
   <trkpt lat="39.922441" lon="-105.255997"><ele>1857.07</ele></trkpt>
   <trkpt lat="39.922131" lon="-105.256401"><ele>1856.05</ele></trkpt>
   <trkpt lat="39.92127" lon="-105.256994"><ele>1854.75</ele></trkpt>
   <trkpt lat="39.920126" lon="-105.258108"><ele>1853.12</ele></trkpt>
   <trkpt lat="39.919616" lon="-105.258548"><ele>1851.07</ele></trkpt>
   <trkpt lat="39.91901" lon="-105.258665"><ele>1848.25</ele></trkpt>
   <trkpt lat="39.917522" lon="-105.259545"><ele>1845.57</ele></trkpt>
   <trkpt lat="39.917418" lon="-105.259644"><ele>1843.38</ele></trkpt>
   <trkpt lat="39.917529" lon="-105.259725"><ele>1838.2</ele></trkpt>
   <trkpt lat="39.917708" lon="-105.259644"><ele>1830.69</ele></trkpt>
   <trkpt lat="39.91881" lon="-105.259671"><ele>1824.01</ele></trkpt>
   <trkpt lat="39.919416" lon="-105.259483"><ele>1818.45</ele></trkpt>
   <trkpt lat="39.921146" lon="-105.259626"><ele>1814.64</ele></trkpt>
   <trkpt lat="39.922021" lon="-105.259824"><ele>1812.22</ele></trkpt>
   <trkpt lat="39.922737" lon="-105.259743"><ele>1810.8</ele></trkpt>
   <trkpt lat="39.923536" lon="-105.259761"><ele>1809.73</ele></trkpt>
   <trkpt lat="39.923826" lon="-105.259599"><ele>1808.04</ele></trkpt>
   <trkpt lat="39.924101" lon="-105.259366"><ele>1805.64</ele></trkpt>
   <trkpt lat="39.924446" lon="-105.258997"><ele>1802.62</ele></trkpt>
   <trkpt lat="39.924949" lon="-105.258719"><ele>1799</ele></trkpt>
   <trkpt lat="39.925637" lon="-105.257955"><ele>1795.57</ele></trkpt>
   <trkpt lat="39.925837" lon="-105.257866"><ele>1792.96</ele></trkpt>
   <trkpt lat="39.926216" lon="-105.257605"><ele>1790.29</ele></trkpt>
   <trkpt lat="39.92643" lon="-105.257524"><ele>1787.29</ele></trkpt>
   <trkpt lat="39.926547" lon="-105.257758"><ele>1784.3</ele></trkpt>
   <trkpt lat="39.926698" lon="-105.257767"><ele>1781.33</ele></trkpt>
   <trkpt lat="39.927367" lon="-105.256967"><ele>1778.33</ele></trkpt>
   <trkpt lat="39.927959" lon="-105.256626"><ele>1775.34</ele></trkpt>
   <trkpt lat="39.928297" lon="-105.256788"><ele>1772.43</ele></trkpt>
   <trkpt lat="39.92891" lon="-105.256833"><ele>1769.74</ele></trkpt>
   <trkpt lat="39.929399" lon="-105.256815"><ele>1767.38</ele></trkpt>
   <trkpt lat="39.92975" lon="-105.256698"><ele>1765.36</ele></trkpt>
   <trkpt lat="39.929888" lon="-105.256779"><ele>1763.62</ele></trkpt>
   <trkpt lat="39.930067" lon="-105.257201"><ele>1762.12</ele></trkpt>
   <trkpt lat="39.930225" lon="-105.257381"><ele>1760.79</ele></trkpt>
   <trkpt lat="39.930336" lon="-105.257443"><ele>1759.63</ele></trkpt>
   <trkpt lat="39.930398" lon="-105.257803"><ele>1758.61</ele></trkpt>
   <trkpt lat="39.930528" lon="-105.25818"><ele>1757.62</ele></trkpt>
   <trkpt lat="39.930611" lon="-105.258288"><ele>1756.61</ele></trkpt>
   <trkpt lat="39.930776" lon="-105.258198"><ele>1755.55</ele></trkpt>
   <trkpt lat="39.930887" lon="-105.257668"><ele>1754.39</ele></trkpt>
   <trkpt lat="39.931011" lon="-105.257434"><ele>1753.06</ele></trkpt>
   <trkpt lat="39.931438" lon="-105.257066"><ele>1752.18</ele></trkpt>
   <trkpt lat="39.931596" lon="-105.256949"><ele>1751.65</ele></trkpt>
   <trkpt lat="39.931817" lon="-105.256931"><ele>1750.87</ele></trkpt>
   <trkpt lat="39.931927" lon="-105.25677"><ele>1750.01</ele></trkpt>
   <trkpt lat="39.932237" lon="-105.256599"><ele>1749.08</ele></trkpt>
   <trkpt lat="39.932581" lon="-105.256581"><ele>1748.12</ele></trkpt>
   <trkpt lat="39.932657" lon="-105.256258"><ele>1747.24</ele></trkpt>
   <trkpt lat="39.93285" lon="-105.256186"><ele>1746.54</ele></trkpt>
   <trkpt lat="39.932967" lon="-105.255997"><ele>1746.01</ele></trkpt>
   <trkpt lat="39.933008" lon="-105.256033"><ele>1745.59</ele></trkpt>
   <trkpt lat="39.933181" lon="-105.255979"><ele>1745.14</ele></trkpt>
   <trkpt lat="39.933256" lon="-105.255871"><ele>1744.44</ele></trkpt>
   <trkpt lat="39.933346" lon="-105.25588"><ele>1743.39</ele></trkpt>
   <trkpt lat="39.933587" lon="-105.255656"><ele>1742.05</ele></trkpt>
   <trkpt lat="39.933732" lon="-105.255584"><ele>1740.5</ele></trkpt>
   <trkpt lat="39.93442" lon="-105.255548"><ele>1738.74</ele></trkpt>
   <trkpt lat="39.934648" lon="-105.255485"><ele>1736.84</ele></trkpt>
   <trkpt lat="39.93493" lon="-105.25553"><ele>1734.94</ele></trkpt>
   <trkpt lat="39.935226" lon="-105.255521"><ele>1733.16</ele></trkpt>
   <trkpt lat="39.935578" lon="-105.255638"><ele>1731.51</ele></trkpt>
   <trkpt lat="39.935846" lon="-105.255683"><ele>1729.92</ele></trkpt>
   <trkpt lat="39.936728" lon="-105.256024"><ele>1728.39</ele></trkpt>
   <trkpt lat="39.936921" lon="-105.256177"><ele>1726.97</ele></trkpt>
   <trkpt lat="39.937306" lon="-105.256294"><ele>1725.85</ele></trkpt>
   <trkpt lat="39.938071" lon="-105.256626"><ele>1725.24</ele></trkpt>
   <trkpt lat="39.938078" lon="-105.256563"><ele>1725.79</ele></trkpt>
   <trkpt lat="39.936921" lon="-105.256177"><ele>1727.01</ele></trkpt>
   <trkpt lat="39.936728" lon="-105.256024"><ele>1728.42</ele></trkpt>
   <trkpt lat="39.935846" lon="-105.255683"><ele>1729.93</ele></trkpt>
   <trkpt lat="39.935578" lon="-105.255638"><ele>1731.49</ele></trkpt>
   <trkpt lat="39.935226" lon="-105.255521"><ele>1733.16</ele></trkpt>
   <trkpt lat="39.93493" lon="-105.25553"><ele>1734.98</ele></trkpt>
   <trkpt lat="39.934648" lon="-105.255485"><ele>1736.9</ele></trkpt>
   <trkpt lat="39.93442" lon="-105.255548"><ele>1738.78</ele></trkpt>
   <trkpt lat="39.933732" lon="-105.255584"><ele>1740.52</ele></trkpt>
   <trkpt lat="39.933587" lon="-105.255656"><ele>1742.08</ele></trkpt>
   <trkpt lat="39.933346" lon="-105.25588"><ele>1743.42</ele></trkpt>
   <trkpt lat="39.933256" lon="-105.255871"><ele>1744.42</ele></trkpt>
   <trkpt lat="39.933181" lon="-105.255979"><ele>1745.06</ele></trkpt>
   <trkpt lat="39.933008" lon="-105.256033"><ele>1745.52</ele></trkpt>
   <trkpt lat="39.932967" lon="-105.255997"><ele>1745.96</ele></trkpt>
   <trkpt lat="39.93285" lon="-105.256186"><ele>1746.52</ele></trkpt>
   <trkpt lat="39.932657" lon="-105.256258"><ele>1747.27</ele></trkpt>
   <trkpt lat="39.932581" lon="-105.256581"><ele>1748.16</ele></trkpt>
   <trkpt lat="39.932237" lon="-105.256599"><ele>1749.11</ele></trkpt>
   <trkpt lat="39.931927" lon="-105.25677"><ele>1750.03</ele></trkpt>
   <trkpt lat="39.931817" lon="-105.256931"><ele>1750.94</ele></trkpt>
   <trkpt lat="39.931596" lon="-105.256949"><ele>1751.78</ele></trkpt>
   <trkpt lat="39.931197" lon="-105.257255"><ele>1752.49</ele></trkpt>
   <trkpt lat="39.931011" lon="-105.257434"><ele>1753.37</ele></trkpt>
   <trkpt lat="39.930887" lon="-105.257668"><ele>1754.47</ele></trkpt>
   <trkpt lat="39.930776" lon="-105.258198"><ele>1755.56</ele></trkpt>
   <trkpt lat="39.930611" lon="-105.258288"><ele>1756.6</ele></trkpt>
   <trkpt lat="39.930528" lon="-105.25818"><ele>1757.6</ele></trkpt>
   <trkpt lat="39.930398" lon="-105.257803"><ele>1758.57</ele></trkpt>
   <trkpt lat="39.930336" lon="-105.257443"><ele>1759.61</ele></trkpt>
   <trkpt lat="39.930225" lon="-105.257381"><ele>1760.78</ele></trkpt>
   <trkpt lat="39.930067" lon="-105.257201"><ele>1762.09</ele></trkpt>
   <trkpt lat="39.929888" lon="-105.256779"><ele>1763.59</ele></trkpt>
   <trkpt lat="39.92975" lon="-105.256698"><ele>1765.33</ele></trkpt>
   <trkpt lat="39.929399" lon="-105.256815"><ele>1767.38</ele></trkpt>
   <trkpt lat="39.92891" lon="-105.256833"><ele>1769.78</ele></trkpt>
   <trkpt lat="39.928297" lon="-105.256788"><ele>1772.49</ele></trkpt>
   <trkpt lat="39.927959" lon="-105.256626"><ele>1775.39</ele></trkpt>
   <trkpt lat="39.927367" lon="-105.256967"><ele>1778.36</ele></trkpt>
   <trkpt lat="39.926698" lon="-105.257767"><ele>1781.32</ele></trkpt>
   <trkpt lat="39.926547" lon="-105.257758"><ele>1784.3</ele></trkpt>
   <trkpt lat="39.92643" lon="-105.257524"><ele>1787.4</ele></trkpt>
   <trkpt lat="39.926216" lon="-105.257605"><ele>1790.24</ele></trkpt>
   <trkpt lat="39.925837" lon="-105.257866"><ele>1792.65</ele></trkpt>
   <trkpt lat="39.925637" lon="-105.257955"><ele>1795.67</ele></trkpt>
   <trkpt lat="39.924949" lon="-105.258719"><ele>1799.3</ele></trkpt>
   <trkpt lat="39.924446" lon="-105.258997"><ele>1802.72</ele></trkpt>
   <trkpt lat="39.924101" lon="-105.259366"><ele>1806.03</ele></trkpt>
   <trkpt lat="39.923895" lon="-105.25968"><ele>1809.04</ele></trkpt>
   <trkpt lat="39.923833" lon="-105.260129"><ele>1811.59</ele></trkpt>
   <trkpt lat="39.923529" lon="-105.26057"><ele>1813.71</ele></trkpt>
   <trkpt lat="39.92333" lon="-105.261073"><ele>1815.28</ele></trkpt>
   <trkpt lat="39.923102" lon="-105.261603"><ele>1816.6</ele></trkpt>
   <trkpt lat="39.923426" lon="-105.26189"><ele>1818.08</ele></trkpt>
   <trkpt lat="39.923467" lon="-105.26224"><ele>1819.68</ele></trkpt>
   <trkpt lat="39.923247" lon="-105.26286"><ele>1821.48</ele></trkpt>
   <trkpt lat="39.923226" lon="-105.263121"><ele>1823.38</ele></trkpt>
   <trkpt lat="39.92333" lon="-105.263139"><ele>1825.24</ele></trkpt>
   <trkpt lat="39.923626" lon="-105.262788"><ele>1827.22</ele></trkpt>
   <trkpt lat="39.923805" lon="-105.262788"><ele>1829.47</ele></trkpt>
   <trkpt lat="39.923791" lon="-105.263031"><ele>1831.63</ele></trkpt>
   <trkpt lat="39.923647" lon="-105.263121"><ele>1833.51</ele></trkpt>
   <trkpt lat="39.923536" lon="-105.263229"><ele>1835.81</ele></trkpt>
   <trkpt lat="39.922847" lon="-105.26366"><ele>1838.48</ele></trkpt>
   <trkpt lat="39.922558" lon="-105.263983"><ele>1841.24</ele></trkpt>
   <trkpt lat="39.922406" lon="-105.264486"><ele>1844.09</ele></trkpt>
   <trkpt lat="39.922041" lon="-105.264935"><ele>1846.91</ele></trkpt>
   <trkpt lat="39.921711" lon="-105.265124"><ele>1849.49</ele></trkpt>
   <trkpt lat="39.921807" lon="-105.264405"><ele>1851.57</ele></trkpt>
   <trkpt lat="39.921786" lon="-105.263965"><ele>1853.32</ele></trkpt>
   <trkpt lat="39.921711" lon="-105.263588"><ele>1854.89</ele></trkpt>
   <trkpt lat="39.921435" lon="-105.263264"><ele>1856.38</ele></trkpt>
   <trkpt lat="39.921125" lon="-105.263076"><ele>1858.01</ele></trkpt>
   <trkpt lat="39.921036" lon="-105.262869"><ele>1859.84</ele></trkpt>
   <trkpt lat="39.92107" lon="-105.262447"><ele>1861.83</ele></trkpt>
   <trkpt lat="39.920856" lon="-105.26242"><ele>1863.9</ele></trkpt>
   <trkpt lat="39.920195" lon="-105.262959"><ele>1865.91</ele></trkpt>
   <trkpt lat="39.920009" lon="-105.263247"><ele>1867.73</ele></trkpt>
   <trkpt lat="39.919568" lon="-105.26357"><ele>1869.28</ele></trkpt>
   <trkpt lat="39.919361" lon="-105.263579"><ele>1870.64</ele></trkpt>
   <trkpt lat="39.918817" lon="-105.263839"><ele>1871.71</ele></trkpt>
   <trkpt lat="39.918721" lon="-105.263588"><ele>1872.6</ele></trkpt>
   <trkpt lat="39.9187" lon="-105.263255"><ele>1873.61</ele></trkpt>
   <trkpt lat="39.918617" lon="-105.263058"><ele>1874.85</ele></trkpt>
   <trkpt lat="39.918218" lon="-105.26322"><ele>1876.96</ele></trkpt>
   <trkpt lat="39.917756" lon="-105.263507"><ele>1879.01</ele></trkpt>
   <trkpt lat="39.917377" lon="-105.263525"><ele>1880.92</ele></trkpt>
   <trkpt lat="39.917398" lon="-105.263543"><ele>1883.84</ele></trkpt>
   <trkpt lat="39.917088" lon="-105.264154"><ele>1887.01</ele></trkpt>
   <trkpt lat="39.916647" lon="-105.265115"><ele>1890.09</ele></trkpt>
   <trkpt lat="39.917005" lon="-105.265456"><ele>1893.04</ele></trkpt>
   <trkpt lat="39.917136" lon="-105.265825"><ele>1895.53</ele></trkpt>
   <trkpt lat="39.917412" lon="-105.265977"><ele>1897.54</ele></trkpt>
   <trkpt lat="39.917722" lon="-105.26622"><ele>1898.58</ele></trkpt>
   <trkpt lat="39.917977" lon="-105.266498"><ele>1898.84</ele></trkpt>
   <trkpt lat="39.918397" lon="-105.2671"><ele>1899.07</ele></trkpt>
   <trkpt lat="39.919637" lon="-105.268385"><ele>1899.27</ele></trkpt>
   <trkpt lat="39.919926" lon="-105.268771"><ele>1898.43</ele></trkpt>
   <trkpt lat="39.920429" lon="-105.268609"><ele>1896.59</ele></trkpt>
   <trkpt lat="39.920567" lon="-105.268663"><ele>1894.54</ele></trkpt>
   <trkpt lat="39.921036" lon="-105.268421"><ele>1892.26</ele></trkpt>
   <trkpt lat="39.921449" lon="-105.268466"><ele>1890.04</ele></trkpt>
   <trkpt lat="39.921649" lon="-105.268295"><ele>1887.9</ele></trkpt>
   <trkpt lat="39.921986" lon="-105.268547"><ele>1885.82</ele></trkpt>
   <trkpt lat="39.922262" lon="-105.268394"><ele>1883.77</ele></trkpt>
   <trkpt lat="39.922847" lon="-105.268277"><ele>1881.69</ele></trkpt>
   <trkpt lat="39.923082" lon="-105.268268"><ele>1879.48</ele></trkpt>
   <trkpt lat="39.92397" lon="-105.2686"><ele>1877.1</ele></trkpt>
   <trkpt lat="39.924225" lon="-105.268466"><ele>1874.55</ele></trkpt>
   <trkpt lat="39.924728" lon="-105.268556"><ele>1871.9</ele></trkpt>
   <trkpt lat="39.925017" lon="-105.268511"><ele>1869.24</ele></trkpt>
   <trkpt lat="39.926547" lon="-105.267828"><ele>1866.68</ele></trkpt>
   <trkpt lat="39.926636" lon="-105.267397"><ele>1864.3</ele></trkpt>
   <trkpt lat="39.926609" lon="-105.26622"><ele>1862.15</ele></trkpt>
   <trkpt lat="39.926726" lon="-105.265798"><ele>1860.25</ele></trkpt>
   <trkpt lat="39.926657" lon="-105.265591"><ele>1858.48</ele></trkpt>
   <trkpt lat="39.926078" lon="-105.265753"><ele>1857.02</ele></trkpt>
   <trkpt lat="39.92592" lon="-105.265555"><ele>1855.9</ele></trkpt>
   <trkpt lat="39.925548" lon="-105.265888"><ele>1854.84</ele></trkpt>
   <trkpt lat="39.925176" lon="-105.265995"><ele>1853.8</ele></trkpt>
   <trkpt lat="39.924701" lon="-105.266436"><ele>1852.68</ele></trkpt>
   <trkpt lat="39.92428" lon="-105.266678"><ele>1851.38</ele></trkpt>
   <trkpt lat="39.924129" lon="-105.266489"><ele>1850</ele></trkpt>
   <trkpt lat="39.923771" lon="-105.266453"><ele>1848.33</ele></trkpt>
   <trkpt lat="39.923957" lon="-105.266103"><ele>1846</ele></trkpt>
   <trkpt lat="39.924418" lon="-105.26463"><ele>1843.36</ele></trkpt>
   <trkpt lat="39.924577" lon="-105.264315"><ele>1840.72</ele></trkpt>
   <trkpt lat="39.92479" lon="-105.263768"><ele>1838.11</ele></trkpt>
   <trkpt lat="39.924797" lon="-105.263139"><ele>1835.62</ele></trkpt>
   <trkpt lat="39.924577" lon="-105.262699"><ele>1833.28</ele></trkpt>
   <trkpt lat="39.924246" lon="-105.262546"><ele>1831.03</ele></trkpt>
   <trkpt lat="39.923846" lon="-105.262878"><ele>1829.45</ele></trkpt>
   <trkpt lat="39.923771" lon="-105.262797"><ele>1828.25</ele></trkpt>
   <trkpt lat="39.923702" lon="-105.26277"><ele>1826.69</ele></trkpt>
   <trkpt lat="39.923364" lon="-105.263094"><ele>1825.51</ele></trkpt>
   <trkpt lat="39.923254" lon="-105.263166"><ele>1825.28</ele></trkpt>
   <trkpt lat="39.923247" lon="-105.262959"><ele>1825.2</ele></trkpt>
   <trkpt lat="39.923288" lon="-105.262743"><ele>1824.33</ele></trkpt>
   <trkpt lat="39.923454" lon="-105.262339"><ele>1822.7</ele></trkpt>
   <trkpt lat="39.923495" lon="-105.262079"><ele>1821.14</ele></trkpt>
   <trkpt lat="39.923447" lon="-105.261935"><ele>1820.65</ele></trkpt>
   <trkpt lat="39.923357" lon="-105.261818"><ele>1820.97</ele></trkpt>
   <trkpt lat="39.923144" lon="-105.261683"><ele>1819.41</ele></trkpt>
   <trkpt lat="39.923095" lon="-105.261594"><ele>1816.39</ele></trkpt>
   <trkpt lat="39.923529" lon="-105.26057"><ele>1814.11</ele></trkpt>
   <trkpt lat="39.923826" lon="-105.26012"><ele>1812.23</ele></trkpt>
   <trkpt lat="39.923908" lon="-105.259662"><ele>1810.96</ele></trkpt>
   <trkpt lat="39.923536" lon="-105.259761"><ele>1810.38</ele></trkpt>
   <trkpt lat="39.922737" lon="-105.259743"><ele>1810.8</ele></trkpt>
   <trkpt lat="39.922021" lon="-105.259824"><ele>1812.09</ele></trkpt>
   <trkpt lat="39.921146" lon="-105.259626"><ele>1814.48</ele></trkpt>
   <trkpt lat="39.919416" lon="-105.259483"><ele>1818.61</ele></trkpt>
   <trkpt lat="39.91881" lon="-105.259671"><ele>1824.16</ele></trkpt>
   <trkpt lat="39.917708" lon="-105.259644"><ele>1831.79</ele></trkpt>
   <trkpt lat="39.917529" lon="-105.259725"><ele>1839.21</ele></trkpt>
   <trkpt lat="39.917522" lon="-105.259545"><ele>1844.1</ele></trkpt>
   <trkpt lat="39.919017" lon="-105.258674"><ele>1847.77</ele></trkpt>
   <trkpt lat="39.919644" lon="-105.258539"><ele>1850.7</ele></trkpt>
   <trkpt lat="39.920126" lon="-105.258108"><ele>1852.97</ele></trkpt>
   <trkpt lat="39.92127" lon="-105.256994"><ele>1854.68</ele></trkpt>
   <trkpt lat="39.922131" lon="-105.256401"><ele>1856.07</ele></trkpt>
   <trkpt lat="39.922441" lon="-105.255997"><ele>1857.54</ele></trkpt>
   <trkpt lat="39.923068" lon="-105.254919"><ele>1858.92</ele></trkpt>
   <trkpt lat="39.922937" lon="-105.255099"><ele>1860.26</ele></trkpt>
   <trkpt lat="39.922696" lon="-105.255144"><ele>1861.82</ele></trkpt>
   <trkpt lat="39.922296" lon="-105.255889"><ele>1863.41</ele></trkpt>
   <trkpt lat="39.921786" lon="-105.256356"><ele>1865.22</ele></trkpt>
   <trkpt lat="39.920601" lon="-105.257075"><ele>1867.36</ele></trkpt>
   <trkpt lat="39.920057" lon="-105.256779"><ele>1869.53</ele></trkpt>
   <trkpt lat="39.919678" lon="-105.256662"><ele>1871.29</ele></trkpt>
   <trkpt lat="39.919306" lon="-105.256698"><ele>1873.32</ele></trkpt>
   <trkpt lat="39.917777" lon="-105.257542"><ele>1875.31</ele></trkpt>
   <trkpt lat="39.917336" lon="-105.257866"><ele>1876.98</ele></trkpt>
   <trkpt lat="39.916881" lon="-105.258988"><ele>1878.68</ele></trkpt>
   <trkpt lat="39.916502" lon="-105.259222"><ele>1879.66</ele></trkpt>
   <trkpt lat="39.915937" lon="-105.259321"><ele>1880.24</ele></trkpt>
   <trkpt lat="39.915358" lon="-105.259213"><ele>1880.82</ele></trkpt>
   <trkpt lat="39.91511" lon="-105.258953"><ele>1881.71</ele></trkpt>
   <trkpt lat="39.91438" lon="-105.257479"><ele>1881.62</ele></trkpt>
   <trkpt lat="39.914022" lon="-105.256806"><ele>1880.18</ele></trkpt>
   <trkpt lat="39.914001" lon="-105.256123"><ele>1878.96</ele></trkpt>
   <trkpt lat="39.914091" lon="-105.255683"><ele>1877.74</ele></trkpt>
   <trkpt lat="39.914111" lon="-105.255476"><ele>1875.49</ele></trkpt>
   <trkpt lat="39.914029" lon="-105.253949"><ele>1872.78</ele></trkpt>
   <trkpt lat="39.914035" lon="-105.252062"><ele>1870.42</ele></trkpt>
   <trkpt lat="39.914035" lon="-105.250176"><ele>1868.22</ele></trkpt>
   <trkpt lat="39.914366" lon="-105.249556"><ele>1866.6</ele></trkpt>
   <trkpt lat="39.915028" lon="-105.248936"><ele>1865.14</ele></trkpt>
   <trkpt lat="39.915538" lon="-105.248595"><ele>1863.57</ele></trkpt>
   <trkpt lat="39.915758" lon="-105.248604"><ele>1862.29</ele></trkpt>
   <trkpt lat="39.915999" lon="-105.248838"><ele>1861.2</ele></trkpt>
   <trkpt lat="39.916158" lon="-105.248811"><ele>1860.29</ele></trkpt>
   <trkpt lat="39.916419" lon="-105.248317"><ele>1859.3</ele></trkpt>
   <trkpt lat="39.916626" lon="-105.248325"><ele>1858.2</ele></trkpt>
   <trkpt lat="39.917646" lon="-105.248829"><ele>1857.2</ele></trkpt>
   <trkpt lat="39.918355" lon="-105.248676"><ele>1856.24</ele></trkpt>
   <trkpt lat="39.918555" lon="-105.248514"><ele>1855.31</ele></trkpt>
   <trkpt lat="39.918927" lon="-105.248766"><ele>1854.53</ele></trkpt>
   <trkpt lat="39.918976" lon="-105.249044"><ele>1853.88</ele></trkpt>
   <trkpt lat="39.91901" lon="-105.249529"><ele>1853.05</ele></trkpt>
   <trkpt lat="39.919499" lon="-105.249197"><ele>1852</ele></trkpt>
   <trkpt lat="39.91954" lon="-105.248811"><ele>1850.86</ele></trkpt>
   <trkpt lat="39.919768" lon="-105.248047"><ele>1849.59</ele></trkpt>
   <trkpt lat="39.920278" lon="-105.247265"><ele>1848.18</ele></trkpt>
   <trkpt lat="39.920601" lon="-105.246888"><ele>1846.62</ele></trkpt>
   <trkpt lat="39.920877" lon="-105.246762"><ele>1844.89</ele></trkpt>
   <trkpt lat="39.921166" lon="-105.246744"><ele>1842.93</ele></trkpt>
   <trkpt lat="39.921277" lon="-105.246547"><ele>1840.63</ele></trkpt>
   <trkpt lat="39.922117" lon="-105.245397"><ele>1837.87</ele></trkpt>
   <trkpt lat="39.922365" lon="-105.244436"><ele>1834.7</ele></trkpt>
   <trkpt lat="39.922627" lon="-105.242415"><ele>1831.43</ele></trkpt>
   <trkpt lat="39.922627" lon="-105.241804"><ele>1828.36</ele></trkpt>
   <trkpt lat="39.922896" lon="-105.240618"><ele>1825.64</ele></trkpt>
   <trkpt lat="39.923027" lon="-105.240196"><ele>1823.34</ele></trkpt>
   <trkpt lat="39.923116" lon="-105.239396"><ele>1822.17</ele></trkpt>
   <trkpt lat="39.923219" lon="-105.239037"><ele>1822.6</ele></trkpt>
   <trkpt lat="39.923571" lon="-105.239037"><ele>1824.1</ele></trkpt>
   <trkpt lat="39.923509" lon="-105.239558"><ele>1827.81</ele></trkpt>
   <trkpt lat="39.923557" lon="-105.240708"><ele>1832.51</ele></trkpt>
   <trkpt lat="39.923509" lon="-105.241696"><ele>1835.98</ele></trkpt>
   <trkpt lat="39.923247" lon="-105.243178"><ele>1838.57</ele></trkpt>
   <trkpt lat="39.923178" lon="-105.244139"><ele>1840.48</ele></trkpt>
   <trkpt lat="39.923226" lon="-105.245145"><ele>1842.11</ele></trkpt>
   <trkpt lat="39.923371" lon="-105.245873"><ele>1843.73</ele></trkpt>
   <trkpt lat="39.92335" lon="-105.246583"><ele>1845.43</ele></trkpt>
   <trkpt lat="39.923247" lon="-105.247589"><ele>1847.35</ele></trkpt>
   <trkpt lat="39.923288" lon="-105.248469"><ele>1849.78</ele></trkpt>
   <trkpt lat="39.923302" lon="-105.250284"><ele>1852.45</ele></trkpt>
   <trkpt lat="39.923316" lon="-105.252098"><ele>1854.69</ele></trkpt>
   <trkpt lat="39.923247" lon="-105.254183"><ele>1856.25</ele></trkpt>
   <trkpt lat="39.923137" lon="-105.254677"><ele>1857.35</ele></trkpt>
   <trkpt lat="39.922799" lon="-105.255395"><ele>1857.67</ele></trkpt>
   <trkpt lat="39.922441" lon="-105.255997"><ele>1857.07</ele></trkpt>
   <trkpt lat="39.922131" lon="-105.256401"><ele>1856.05</ele></trkpt>
   <trkpt lat="39.92127" lon="-105.256994"><ele>1854.75</ele></trkpt>
   <trkpt lat="39.920126" lon="-105.258108"><ele>1853.12</ele></trkpt>
   <trkpt lat="39.919616" lon="-105.258548"><ele>1851.07</ele></trkpt>
   <trkpt lat="39.91901" lon="-105.258665"><ele>1848.25</ele></trkpt>
   <trkpt lat="39.917522" lon="-105.259545"><ele>1845.57</ele></trkpt>
   <trkpt lat="39.917418" lon="-105.259644"><ele>1843.38</ele></trkpt>
   <trkpt lat="39.917529" lon="-105.259725"><ele>1838.2</ele></trkpt>
   <trkpt lat="39.917708" lon="-105.259644"><ele>1830.69</ele></trkpt>
   <trkpt lat="39.91881" lon="-105.259671"><ele>1824.01</ele></trkpt>
   <trkpt lat="39.919416" lon="-105.259483"><ele>1818.45</ele></trkpt>
   <trkpt lat="39.921146" lon="-105.259626"><ele>1814.64</ele></trkpt>
   <trkpt lat="39.922021" lon="-105.259824"><ele>1812.22</ele></trkpt>
   <trkpt lat="39.922737" lon="-105.259743"><ele>1810.8</ele></trkpt>
   <trkpt lat="39.923536" lon="-105.259761"><ele>1809.73</ele></trkpt>
   <trkpt lat="39.923826" lon="-105.259599"><ele>1808.04</ele></trkpt>
   <trkpt lat="39.924101" lon="-105.259366"><ele>1805.64</ele></trkpt>
   <trkpt lat="39.924446" lon="-105.258997"><ele>1802.62</ele></trkpt>
   <trkpt lat="39.924949" lon="-105.258719"><ele>1799</ele></trkpt>
   <trkpt lat="39.925637" lon="-105.257955"><ele>1795.57</ele></trkpt>
   <trkpt lat="39.925837" lon="-105.257866"><ele>1792.96</ele></trkpt>
   <trkpt lat="39.926216" lon="-105.257605"><ele>1790.29</ele></trkpt>
   <trkpt lat="39.92643" lon="-105.257524"><ele>1787.29</ele></trkpt>
   <trkpt lat="39.926547" lon="-105.257758"><ele>1784.3</ele></trkpt>
   <trkpt lat="39.926698" lon="-105.257767"><ele>1781.33</ele></trkpt>
   <trkpt lat="39.927367" lon="-105.256967"><ele>1778.33</ele></trkpt>
   <trkpt lat="39.927959" lon="-105.256626"><ele>1775.34</ele></trkpt>
   <trkpt lat="39.928297" lon="-105.256788"><ele>1772.43</ele></trkpt>
   <trkpt lat="39.92891" lon="-105.256833"><ele>1769.74</ele></trkpt>
   <trkpt lat="39.929399" lon="-105.256815"><ele>1767.38</ele></trkpt>
   <trkpt lat="39.92975" lon="-105.256698"><ele>1765.36</ele></trkpt>
   <trkpt lat="39.929888" lon="-105.256779"><ele>1763.62</ele></trkpt>
   <trkpt lat="39.930067" lon="-105.257201"><ele>1762.12</ele></trkpt>
   <trkpt lat="39.930225" lon="-105.257381"><ele>1760.79</ele></trkpt>
   <trkpt lat="39.930336" lon="-105.257443"><ele>1759.63</ele></trkpt>
   <trkpt lat="39.930398" lon="-105.257803"><ele>1758.61</ele></trkpt>
   <trkpt lat="39.930528" lon="-105.25818"><ele>1757.62</ele></trkpt>
   <trkpt lat="39.930611" lon="-105.258288"><ele>1756.61</ele></trkpt>
   <trkpt lat="39.930776" lon="-105.258198"><ele>1755.55</ele></trkpt>
   <trkpt lat="39.930887" lon="-105.257668"><ele>1754.39</ele></trkpt>
   <trkpt lat="39.931011" lon="-105.257434"><ele>1753.06</ele></trkpt>
   <trkpt lat="39.931438" lon="-105.257066"><ele>1752.18</ele></trkpt>
   <trkpt lat="39.931596" lon="-105.256949"><ele>1751.65</ele></trkpt>
   <trkpt lat="39.931817" lon="-105.256931"><ele>1750.87</ele></trkpt>
   <trkpt lat="39.931927" lon="-105.25677"><ele>1750.01</ele></trkpt>
   <trkpt lat="39.932237" lon="-105.256599"><ele>1749.08</ele></trkpt>
   <trkpt lat="39.932581" lon="-105.256581"><ele>1748.12</ele></trkpt>
   <trkpt lat="39.932657" lon="-105.256258"><ele>1747.24</ele></trkpt>
   <trkpt lat="39.93285" lon="-105.256186"><ele>1746.54</ele></trkpt>
   <trkpt lat="39.932967" lon="-105.255997"><ele>1746.01</ele></trkpt>
   <trkpt lat="39.933008" lon="-105.256033"><ele>1745.59</ele></trkpt>
   <trkpt lat="39.933181" lon="-105.255979"><ele>1745.14</ele></trkpt>
   <trkpt lat="39.933256" lon="-105.255871"><ele>1744.44</ele></trkpt>
   <trkpt lat="39.933346" lon="-105.25588"><ele>1743.39</ele></trkpt>
   <trkpt lat="39.933587" lon="-105.255656"><ele>1742.05</ele></trkpt>
   <trkpt lat="39.933732" lon="-105.255584"><ele>1740.5</ele></trkpt>
   <trkpt lat="39.93442" lon="-105.255548"><ele>1738.74</ele></trkpt>
   <trkpt lat="39.934648" lon="-105.255485"><ele>1736.84</ele></trkpt>
   <trkpt lat="39.93493" lon="-105.25553"><ele>1734.94</ele></trkpt>
   <trkpt lat="39.935226" lon="-105.255521"><ele>1733.16</ele></trkpt>
   <trkpt lat="39.935578" lon="-105.255638"><ele>1731.51</ele></trkpt>
   <trkpt lat="39.935846" lon="-105.255683"><ele>1729.92</ele></trkpt>
   <trkpt lat="39.936728" lon="-105.256024"><ele>1728.39</ele></trkpt>
   <trkpt lat="39.936921" lon="-105.256177"><ele>1726.97</ele></trkpt>
   <trkpt lat="39.937306" lon="-105.256294"><ele>1725.85</ele></trkpt>
   <trkpt lat="39.938071" lon="-105.256626"><ele>1725.24</ele></trkpt>
  </trkseg>
 </trk>
</gpx>
